{
  "type": "FeatureCollection",
  "source": {
    "dataset": "Overture Maps buildings",
    "url": "https://docs.overturemaps.org/getting-data/",
    "accessed_on": "2026-09-28",
    "release": "2026-09-23.1",
    "site_epoch_id": "EPOCH-d2da66ea035880ce",
    "site_name": "QTS Cedar Rapids",
    "site_latitude": 41.9056197,
    "site_longitude": -91.7510775,
    "search_bbox": [
      -91.77107749999999,
      41.8856197,
      -91.7310775,
      41.925619700000006
    ],
    "filter_radius_km": 3.0,
    "semantics": "Current building polygons are ingested for physical geometry. They are not, by themselves, AI-facility identity evidence or a construction time series."
  },
  "features": [
    {
      "type": "Feature",
      "id": "58bb42e7-d96a-47ad-949c-b1d4b5834a49",
      "geometry": {
        "type": "Polygon",
        "coordinates": [
          [
            [
              -91.7640425,
              41.8884304
            ],
            [
              -91.764131,
              41.8884293
            ],
            [
              -91.7641292,
              41.8883534
            ],
            [
              -91.7640407,
              41.8883546
            ],
            [
              -91.7640425,
              41.8884304
            ]
          ]
        ]
      },
      "properties": {
        "epoch_id": "EPOCH-d2da66ea035880ce",
        "site_name": "QTS Cedar Rapids",
        "distance_to_site_km": 2.1975,
        "footprint_area_m2_webmercator": 111.77,
        "source_dataset": "Overture Maps buildings",
        "source_url": "https://docs.overturemaps.org/getting-data/",
        "source_release": "2026-09-23.1",
        "source_accessed_on": "2026-09-28",
        "geometry_role": "current building-footprint polygon",
        "linkage_semantics": "Overlap/proximity only; not evidence that the building hosts AI compute."
      }
    },
    {
      "type": "Feature",
      "id": "5fa8f2bf-3f2e-42fc-97ef-3ef7663f4dea",
      "geometry": {
        "type": "Polygon",
        "coordinates": [
          [
            [
              -91.7642023,
              41.888363
            ],
            [
              -91.7643485,
              41.8883608
            ],
            [
              -91.7643453,
              41.8882371
            ],
            [
              -91.764199,
              41.8882392
            ],
            [
              -91.7642023,
              41.888363
            ]
          ]
        ]
      },
      "properties": {
        "epoch_id": "EPOCH-d2da66ea035880ce",
        "site_name": "QTS Cedar Rapids",
        "distance_to_site_km": 2.214,
        "footprint_area_m2_webmercator": 301.38,
        "source_dataset": "Overture Maps buildings",
        "source_url": "https://docs.overturemaps.org/getting-data/",
        "source_release": "2026-09-23.1",
        "source_accessed_on": "2026-09-28",
        "geometry_role": "current building-footprint polygon",
        "linkage_semantics": "Overlap/proximity only; not evidence that the building hosts AI compute."
      }
    },
    {
      "type": "Feature",
      "id": "4fd8abab-30d1-4e01-9070-05d84295b439",
      "geometry": {
        "type": "Polygon",
        "coordinates": [
          [
            [
              -91.7643706,
              41.8884587
            ],
            [
              -91.7642726,
              41.8884599
            ],
            [
              -91.7642748,
              41.8885577
            ],
            [
              -91.7643728,
              41.8885565
            ],
            [
              -91.7643706,
              41.8884587
            ]
          ]
        ]
      },
      "properties": {
        "epoch_id": "EPOCH-d2da66ea035880ce",
        "site_name": "QTS Cedar Rapids",
        "distance_to_site_km": 2.1959,
        "footprint_area_m2_webmercator": 159.59,
        "source_dataset": "Overture Maps buildings",
        "source_url": "https://docs.overturemaps.org/getting-data/",
        "source_release": "2026-09-23.1",
        "source_accessed_on": "2026-09-28",
        "geometry_role": "current building-footprint polygon",
        "linkage_semantics": "Overlap/proximity only; not evidence that the building hosts AI compute."
      }
    },
    {
      "type": "Feature",
      "id": "84fd8dd3-ed50-4519-8a3c-2a54bd8b5bf6",
      "geometry": {
        "type": "Polygon",
        "coordinates": [
          [
            [
              -91.7627405,
              41.8896444
            ],
            [
              -91.7628262,
              41.8896421
            ],
            [
              -91.7628212,
              41.8895384
            ],
            [
              -91.7627354,
              41.8895407
            ],
            [
              -91.7627405,
              41.8896444
            ]
          ]
        ]
      },
      "properties": {
        "epoch_id": "EPOCH-d2da66ea035880ce",
        "site_name": "QTS Cedar Rapids",
        "distance_to_site_km": 2.0285,
        "footprint_area_m2_webmercator": 148.22,
        "source_dataset": "Overture Maps buildings",
        "source_url": "https://docs.overturemaps.org/getting-data/",
        "source_release": "2026-09-23.1",
        "source_accessed_on": "2026-09-28",
        "geometry_role": "current building-footprint polygon",
        "linkage_semantics": "Overlap/proximity only; not evidence that the building hosts AI compute."
      }
    },
    {
      "type": "Feature",
      "id": "504a9a30-8391-4daf-aecc-03d9adfea01d",
      "geometry": {
        "type": "Polygon",
        "coordinates": [
          [
            [
              -91.7626786,
              41.8895517
            ],
            [
              -91.7625713,
              41.8895504
            ],
            [
              -91.7625693,
              41.8896442
            ],
            [
              -91.7626766,
              41.8896455
            ],
            [
              -91.7626786,
              41.8895517
            ]
          ]
        ]
      },
      "properties": {
        "epoch_id": "EPOCH-d2da66ea035880ce",
        "site_name": "QTS Cedar Rapids",
        "distance_to_site_km": 2.0217,
        "footprint_area_m2_webmercator": 167.58,
        "source_dataset": "Overture Maps buildings",
        "source_url": "https://docs.overturemaps.org/getting-data/",
        "source_release": "2026-09-23.1",
        "source_accessed_on": "2026-09-28",
        "geometry_role": "current building-footprint polygon",
        "linkage_semantics": "Overlap/proximity only; not evidence that the building hosts AI compute."
      }
    },
    {
      "type": "Feature",
      "id": "7ea110f3-1939-4f08-bb34-26b6ab0bc332",
      "geometry": {
        "type": "Polygon",
        "coordinates": [
          [
            [
              -91.7631071,
              41.8895397
            ],
            [
              -91.7634047,
              41.8895345
            ],
            [
              -91.7634019,
              41.8894467
            ],
            [
              -91.7631043,
              41.8894519
            ],
            [
              -91.7631071,
              41.8895397
            ]
          ]
        ]
      },
      "properties": {
        "epoch_id": "EPOCH-d2da66ea035880ce",
        "site_name": "QTS Cedar Rapids",
        "distance_to_site_km": 2.057,
        "footprint_area_m2_webmercator": 435.2,
        "source_dataset": "Overture Maps buildings",
        "source_url": "https://docs.overturemaps.org/getting-data/",
        "source_release": "2026-09-23.1",
        "source_accessed_on": "2026-09-28",
        "geometry_role": "current building-footprint polygon",
        "linkage_semantics": "Overlap/proximity only; not evidence that the building hosts AI compute."
      }
    },
    {
      "type": "Feature",
      "id": "14d033f5-41bf-4a4b-9816-540ecb8127fb",
      "geometry": {
        "type": "Polygon",
        "coordinates": [
          [
            [
              -91.7631092,
              41.8896278
            ],
            [
              -91.763412,
              41.8896205
            ],
            [
              -91.7634083,
              41.8895367
            ],
            [
              -91.7631055,
              41.8895441
            ],
            [
              -91.7631092,
              41.8896278
            ]
          ]
        ]
      },
      "properties": {
        "epoch_id": "EPOCH-d2da66ea035880ce",
        "site_name": "QTS Cedar Rapids",
        "distance_to_site_km": 2.0486,
        "footprint_area_m2_webmercator": 422.59,
        "source_dataset": "Overture Maps buildings",
        "source_url": "https://docs.overturemaps.org/getting-data/",
        "source_release": "2026-09-23.1",
        "source_accessed_on": "2026-09-28",
        "geometry_role": "current building-footprint polygon",
        "linkage_semantics": "Overlap/proximity only; not evidence that the building hosts AI compute."
      }
    },
    {
      "type": "Feature",
      "id": "1ba3e5c9-1cd8-4a79-b0f7-6c652512d659",
      "geometry": {
        "type": "Polygon",
        "coordinates": [
          [
            [
              -91.7634287,
              41.890064
            ],
            [
              -91.7634271,
              41.8899782
            ],
            [
              -91.7631616,
              41.889981
            ],
            [
              -91.7631633,
              41.8900669
            ],
            [
              -91.7634287,
              41.890064
            ]
          ]
        ]
      },
      "properties": {
        "epoch_id": "EPOCH-d2da66ea035880ce",
        "site_name": "QTS Cedar Rapids",
        "distance_to_site_km": 2.0076,
        "footprint_area_m2_webmercator": 379.43,
        "source_dataset": "Overture Maps buildings",
        "source_url": "https://docs.overturemaps.org/getting-data/",
        "source_release": "2026-09-23.1",
        "source_accessed_on": "2026-09-28",
        "geometry_role": "current building-footprint polygon",
        "linkage_semantics": "Overlap/proximity only; not evidence that the building hosts AI compute."
      }
    },
    {
      "type": "Feature",
      "id": "53ff43c8-903a-42ff-9025-0dbc1c218c8c",
      "geometry": {
        "type": "Polygon",
        "coordinates": [
          [
            [
              -91.7622829,
              41.8899927
            ],
            [
              -91.7627303,
              41.8899812
            ],
            [
              -91.7627225,
              41.8898117
            ],
            [
              -91.7622751,
              41.8898232
            ],
            [
              -91.7622829,
              41.8899927
            ]
          ]
        ]
      },
      "properties": {
        "epoch_id": "EPOCH-d2da66ea035880ce",
        "site_name": "QTS Cedar Rapids",
        "distance_to_site_km": 1.9871,
        "footprint_area_m2_webmercator": 1263.86,
        "source_dataset": "Overture Maps buildings",
        "source_url": "https://docs.overturemaps.org/getting-data/",
        "source_release": "2026-09-23.1",
        "source_accessed_on": "2026-09-28",
        "geometry_role": "current building-footprint polygon",
        "linkage_semantics": "Overlap/proximity only; not evidence that the building hosts AI compute."
      }
    },
    {
      "type": "Feature",
      "id": "99c0a2e3-0dd8-4e59-8985-0c32dd2eff1d",
      "geometry": {
        "type": "Polygon",
        "coordinates": [
          [
            [
              -91.7635227,
              41.8903896
            ],
            [
              -91.7630789,
              41.890386
            ],
            [
              -91.7630767,
              41.8905397
            ],
            [
              -91.7635205,
              41.8905433
            ],
            [
              -91.7635227,
              41.8903896
            ]
          ]
        ]
      },
      "properties": {
        "epoch_id": "EPOCH-d2da66ea035880ce",
        "site_name": "QTS Cedar Rapids",
        "distance_to_site_km": 1.9655,
        "footprint_area_m2_webmercator": 1135.62,
        "source_dataset": "Overture Maps buildings",
        "source_url": "https://docs.overturemaps.org/getting-data/",
        "source_release": "2026-09-23.1",
        "source_accessed_on": "2026-09-28",
        "geometry_role": "current building-footprint polygon",
        "linkage_semantics": "Overlap/proximity only; not evidence that the building hosts AI compute."
      }
    },
    {
      "type": "Feature",
      "id": "4524356b-fc79-4cfe-80ca-b414aeb39508",
      "geometry": {
        "type": "Polygon",
        "coordinates": [
          [
            [
              -91.7644083,
              41.8921975
            ],
            [
              -91.7644611,
              41.8921339
            ],
            [
              -91.7643349,
              41.8920759
            ],
            [
              -91.7642857,
              41.8921352
            ],
            [
              -91.7642275,
              41.8921084
            ],
            [
              -91.7641411,
              41.8922124
            ],
            [
              -91.7642382,
              41.8922571
            ],
            [
              -91.7642622,
              41.8922282
            ],
            [
              -91.7643437,
              41.8922657
            ],
            [
              -91.7643665,
              41.8922382
            ],
            [
              -91.764417,
              41.8922614
            ],
            [
              -91.764453,
              41.892218
            ],
            [
              -91.7644083,
              41.8921975
            ]
          ]
        ]
      },
      "properties": {
        "epoch_id": "EPOCH-d2da66ea035880ce",
        "site_name": "QTS Cedar Rapids",
        "distance_to_site_km": 1.853,
        "footprint_area_m2_webmercator": 596.24,
        "source_dataset": "Overture Maps buildings",
        "source_url": "https://docs.overturemaps.org/getting-data/",
        "source_release": "2026-09-23.1",
        "source_accessed_on": "2026-09-28",
        "geometry_role": "current building-footprint polygon",
        "linkage_semantics": "Overlap/proximity only; not evidence that the building hosts AI compute."
      }
    },
    {
      "type": "Feature",
      "id": "2cd916b9-cf9a-4cad-9b5a-afdf80d84ff0",
      "geometry": {
        "type": "Polygon",
        "coordinates": [
          [
            [
              -91.76308,
              41.885713
            ],
            [
              -91.763217,
              41.885713
            ],
            [
              -91.763217,
              41.885659
            ],
            [
              -91.76308,
              41.885659
            ],
            [
              -91.76308,
              41.885713
            ]
          ]
        ]
      },
      "properties": {
        "epoch_id": "EPOCH-d2da66ea035880ce",
        "site_name": "QTS Cedar Rapids",
        "distance_to_site_km": 2.4313,
        "footprint_area_m2_webmercator": 123.14,
        "source_dataset": "Overture Maps buildings",
        "source_url": "https://docs.overturemaps.org/getting-data/",
        "source_release": "2026-09-23.1",
        "source_accessed_on": "2026-09-28",
        "geometry_role": "current building-footprint polygon",
        "linkage_semantics": "Overlap/proximity only; not evidence that the building hosts AI compute."
      }
    },
    {
      "type": "Feature",
      "id": "bef2babb-1924-4c54-a47b-5693a1454508",
      "geometry": {
        "type": "Polygon",
        "coordinates": [
          [
            [
              -91.763349,
              41.885669
            ],
            [
              -91.763244,
              41.885669
            ],
            [
              -91.763244,
              41.885762
            ],
            [
              -91.763349,
              41.885762
            ],
            [
              -91.763349,
              41.885669
            ]
          ]
        ]
      },
      "properties": {
        "epoch_id": "EPOCH-d2da66ea035880ce",
        "site_name": "QTS Cedar Rapids",
        "distance_to_site_km": 2.4334,
        "footprint_area_m2_webmercator": 162.54,
        "source_dataset": "Overture Maps buildings",
        "source_url": "https://docs.overturemaps.org/getting-data/",
        "source_release": "2026-09-23.1",
        "source_accessed_on": "2026-09-28",
        "geometry_role": "current building-footprint polygon",
        "linkage_semantics": "Overlap/proximity only; not evidence that the building hosts AI compute."
      }
    },
    {
      "type": "Feature",
      "id": "039156ff-0013-4aa7-a322-ddb23ec61479",
      "geometry": {
        "type": "Polygon",
        "coordinates": [
          [
            [
              -91.764244,
              41.885939
            ],
            [
              -91.764244,
              41.885789
            ],
            [
              -91.763968,
              41.885789
            ],
            [
              -91.763968,
              41.885939
            ],
            [
              -91.764244,
              41.885939
            ]
          ]
        ]
      },
      "properties": {
        "epoch_id": "EPOCH-d2da66ea035880ce",
        "site_name": "QTS Cedar Rapids",
        "distance_to_site_km": 2.4471,
        "footprint_area_m2_webmercator": 689.12,
        "source_dataset": "Overture Maps buildings",
        "source_url": "https://docs.overturemaps.org/getting-data/",
        "source_release": "2026-09-23.1",
        "source_accessed_on": "2026-09-28",
        "geometry_role": "current building-footprint polygon",
        "linkage_semantics": "Overlap/proximity only; not evidence that the building hosts AI compute."
      }
    },
    {
      "type": "Feature",
      "id": "1c262093-50cd-40fa-8d31-4b8f7add35e8",
      "geometry": {
        "type": "Polygon",
        "coordinates": [
          [
            [
              -91.764308,
              41.88586
            ],
            [
              -91.764309,
              41.885919
            ],
            [
              -91.764637,
              41.885916
            ],
            [
              -91.764636,
              41.885857
            ],
            [
              -91.764308,
              41.88586
            ]
          ]
        ]
      },
      "properties": {
        "epoch_id": "EPOCH-d2da66ea035880ce",
        "site_name": "QTS Cedar Rapids",
        "distance_to_site_km": 2.4583,
        "footprint_area_m2_webmercator": 322.17,
        "source_dataset": "Overture Maps buildings",
        "source_url": "https://docs.overturemaps.org/getting-data/",
        "source_release": "2026-09-23.1",
        "source_accessed_on": "2026-09-28",
        "geometry_role": "current building-footprint polygon",
        "linkage_semantics": "Overlap/proximity only; not evidence that the building hosts AI compute."
      }
    },
    {
      "type": "Feature",
      "id": "81d4a6b3-96cf-45aa-8832-a30714b996f8",
      "geometry": {
        "type": "Polygon",
        "coordinates": [
          [
            [
              -91.764286,
              41.885724
            ],
            [
              -91.764473,
              41.885723
            ],
            [
              -91.764472,
              41.885685
            ],
            [
              -91.76464,
              41.885684
            ],
            [
              -91.764638,
              41.885501
            ],
            [
              -91.764455,
              41.885503
            ],
            [
              -91.764456,
              41.885608
            ],
            [
              -91.764285,
              41.885609
            ],
            [
              -91.764286,
              41.885724
            ]
          ]
        ]
      },
      "properties": {
        "epoch_id": "EPOCH-d2da66ea035880ce",
        "site_name": "QTS Cedar Rapids",
        "distance_to_site_km": 2.4851,
        "footprint_area_m2_webmercator": 893.92,
        "source_dataset": "Overture Maps buildings",
        "source_url": "https://docs.overturemaps.org/getting-data/",
        "source_release": "2026-09-23.1",
        "source_accessed_on": "2026-09-28",
        "geometry_role": "current building-footprint polygon",
        "linkage_semantics": "Overlap/proximity only; not evidence that the building hosts AI compute."
      }
    },
    {
      "type": "Feature",
      "id": "eb07c0f2-d35c-4bf1-bf36-a0a4227db976",
      "geometry": {
        "type": "Polygon",
        "coordinates": [
          [
            [
              -91.7441968,
              41.8975241
            ],
            [
              -91.7441954,
              41.8974403
            ],
            [
              -91.744064,
              41.8974415
            ],
            [
              -91.7440654,
              41.8975254
            ],
            [
              -91.7441968,
              41.8975241
            ]
          ]
        ]
      },
      "properties": {
        "epoch_id": "EPOCH-d2da66ea035880ce",
        "site_name": "QTS Cedar Rapids",
        "distance_to_site_km": 1.072,
        "footprint_area_m2_webmercator": 183.46,
        "source_dataset": "Overture Maps buildings",
        "source_url": "https://docs.overturemaps.org/getting-data/",
        "source_release": "2026-09-23.1",
        "source_accessed_on": "2026-09-28",
        "geometry_role": "current building-footprint polygon",
        "linkage_semantics": "Overlap/proximity only; not evidence that the building hosts AI compute."
      }
    },
    {
      "type": "Feature",
      "id": "caa0ddce-b467-4606-8b5b-5e0f23e74e1f",
      "geometry": {
        "type": "Polygon",
        "coordinates": [
          [
            [
              -91.7440234,
              41.8980436
            ],
            [
              -91.7440226,
              41.8980276
            ],
            [
              -91.7441499,
              41.8980244
            ],
            [
              -91.7441456,
              41.8979287
            ],
            [
              -91.7439834,
              41.8979328
            ],
            [
              -91.7439854,
              41.8979767
            ],
            [
              -91.7439171,
              41.8979784
            ],
            [
              -91.7439202,
              41.8980462
            ],
            [
              -91.7440234,
              41.8980436
            ]
          ]
        ]
      },
      "properties": {
        "epoch_id": "EPOCH-d2da66ea035880ce",
        "site_name": "QTS Cedar Rapids",
        "distance_to_site_km": 1.0293,
        "footprint_area_m2_webmercator": 345.11,
        "source_dataset": "Overture Maps buildings",
        "source_url": "https://docs.overturemaps.org/getting-data/",
        "source_release": "2026-09-23.1",
        "source_accessed_on": "2026-09-28",
        "geometry_role": "current building-footprint polygon",
        "linkage_semantics": "Overlap/proximity only; not evidence that the building hosts AI compute."
      }
    },
    {
      "type": "Feature",
      "id": "e1b5466e-c3de-4df7-ac36-fed6b149b173",
      "geometry": {
        "type": "Polygon",
        "coordinates": [
          [
            [
              -91.7441997,
              41.8976116
            ],
            [
              -91.744106,
              41.8976148
            ],
            [
              -91.7441103,
              41.8976854
            ],
            [
              -91.744204,
              41.8976822
            ],
            [
              -91.7441997,
              41.8976116
            ]
          ]
        ]
      },
      "properties": {
        "epoch_id": "EPOCH-d2da66ea035880ce",
        "site_name": "QTS Cedar Rapids",
        "distance_to_site_km": 1.0554,
        "footprint_area_m2_webmercator": 110.36,
        "source_dataset": "Overture Maps buildings",
        "source_url": "https://docs.overturemaps.org/getting-data/",
        "source_release": "2026-09-23.1",
        "source_accessed_on": "2026-09-28",
        "geometry_role": "current building-footprint polygon",
        "linkage_semantics": "Overlap/proximity only; not evidence that the building hosts AI compute."
      }
    },
    {
      "type": "Feature",
      "id": "845ff914-746a-499d-aee8-47adc9217ff2",
      "geometry": {
        "type": "Polygon",
        "coordinates": [
          [
            [
              -91.7436309,
              41.8975812
            ],
            [
              -91.7435264,
              41.8975836
            ],
            [
              -91.7435316,
              41.8977112
            ],
            [
              -91.7436361,
              41.8977089
            ],
            [
              -91.7436309,
              41.8975812
            ]
          ]
        ]
      },
      "properties": {
        "epoch_id": "EPOCH-d2da66ea035880ce",
        "site_name": "QTS Cedar Rapids",
        "distance_to_site_km": 1.0821,
        "footprint_area_m2_webmercator": 222.28,
        "source_dataset": "Overture Maps buildings",
        "source_url": "https://docs.overturemaps.org/getting-data/",
        "source_release": "2026-09-23.1",
        "source_accessed_on": "2026-09-28",
        "geometry_role": "current building-footprint polygon",
        "linkage_semantics": "Overlap/proximity only; not evidence that the building hosts AI compute."
      }
    },
    {
      "type": "Feature",
      "id": "ebfb59d6-380b-40ea-b0e4-8a6dfef3ff81",
      "geometry": {
        "type": "Polygon",
        "coordinates": [
          [
            [
              -91.7435261,
              41.8978634
            ],
            [
              -91.7433813,
              41.8978656
            ],
            [
              -91.7433837,
              41.8979494
            ],
            [
              -91.7435284,
              41.8979472
            ],
            [
              -91.7435261,
              41.8978634
            ]
          ]
        ]
      },
      "properties": {
        "epoch_id": "EPOCH-d2da66ea035880ce",
        "site_name": "QTS Cedar Rapids",
        "distance_to_site_km": 1.0647,
        "footprint_area_m2_webmercator": 202.03,
        "source_dataset": "Overture Maps buildings",
        "source_url": "https://docs.overturemaps.org/getting-data/",
        "source_release": "2026-09-23.1",
        "source_accessed_on": "2026-09-28",
        "geometry_role": "current building-footprint polygon",
        "linkage_semantics": "Overlap/proximity only; not evidence that the building hosts AI compute."
      }
    },
    {
      "type": "Feature",
      "id": "2d632d2d-f386-4f41-bb3f-d5db3744689d",
      "geometry": {
        "type": "Polygon",
        "coordinates": [
          [
            [
              -91.7446654,
              41.899851
            ],
            [
              -91.7445233,
              41.8998494
            ],
            [
              -91.7445214,
              41.8999432
            ],
            [
              -91.7446635,
              41.8999448
            ],
            [
              -91.7446654,
              41.899851
            ]
          ]
        ]
      },
      "properties": {
        "epoch_id": "EPOCH-d2da66ea035880ce",
        "site_name": "QTS Cedar Rapids",
        "distance_to_site_km": 0.8324,
        "footprint_area_m2_webmercator": 221.96,
        "source_dataset": "Overture Maps buildings",
        "source_url": "https://docs.overturemaps.org/getting-data/",
        "source_release": "2026-09-23.1",
        "source_accessed_on": "2026-09-28",
        "geometry_role": "current building-footprint polygon",
        "linkage_semantics": "Overlap/proximity only; not evidence that the building hosts AI compute."
      }
    },
    {
      "type": "Feature",
      "id": "9cf6dd9b-a5e2-4937-9bac-70227acdbfae",
      "geometry": {
        "type": "Polygon",
        "coordinates": [
          [
            [
              -91.7451454,
              41.8996025
            ],
            [
              -91.7449523,
              41.8996045
            ],
            [
              -91.7449561,
              41.8998049
            ],
            [
              -91.745058,
              41.8998039
            ],
            [
              -91.7450583,
              41.8998198
            ],
            [
              -91.7451039,
              41.8998194
            ],
            [
              -91.7451035,
              41.8997994
            ],
            [
              -91.7451491,
              41.8997989
            ],
            [
              -91.7451454,
              41.8996025
            ]
          ]
        ]
      },
      "properties": {
        "epoch_id": "EPOCH-d2da66ea035880ce",
        "site_name": "QTS Cedar Rapids",
        "distance_to_site_km": 0.8254,
        "footprint_area_m2_webmercator": 653.51,
        "source_dataset": "Overture Maps buildings",
        "source_url": "https://docs.overturemaps.org/getting-data/",
        "source_release": "2026-09-23.1",
        "source_accessed_on": "2026-09-28",
        "geometry_role": "current building-footprint polygon",
        "linkage_semantics": "Overlap/proximity only; not evidence that the building hosts AI compute."
      }
    },
    {
      "type": "Feature",
      "id": "0e9755e9-2951-4f69-8a98-3c6a46019a22",
      "geometry": {
        "type": "Polygon",
        "coordinates": [
          [
            [
              -91.7450005,
              41.9000623
            ],
            [
              -91.7451077,
              41.9000631
            ],
            [
              -91.7451092,
              41.8999473
            ],
            [
              -91.7450019,
              41.8999466
            ],
            [
              -91.7450005,
              41.9000623
            ]
          ]
        ]
      },
      "properties": {
        "epoch_id": "EPOCH-d2da66ea035880ce",
        "site_name": "QTS Cedar Rapids",
        "distance_to_site_km": 0.7989,
        "footprint_area_m2_webmercator": 206.7,
        "source_dataset": "Overture Maps buildings",
        "source_url": "https://docs.overturemaps.org/getting-data/",
        "source_release": "2026-09-23.1",
        "source_accessed_on": "2026-09-28",
        "geometry_role": "current building-footprint polygon",
        "linkage_semantics": "Overlap/proximity only; not evidence that the building hosts AI compute."
      }
    },
    {
      "type": "Feature",
      "id": "ebd65ae4-98aa-41af-85f7-b1e036225aa5",
      "geometry": {
        "type": "Polygon",
        "coordinates": [
          [
            [
              -91.7449177,
              41.9005068
            ],
            [
              -91.74512,
              41.9005002
            ],
            [
              -91.7451068,
              41.900277
            ],
            [
              -91.7449045,
              41.9002836
            ],
            [
              -91.7449177,
              41.9005068
            ]
          ]
        ]
      },
      "properties": {
        "epoch_id": "EPOCH-d2da66ea035880ce",
        "site_name": "QTS Cedar Rapids",
        "distance_to_site_km": 0.768,
        "footprint_area_m2_webmercator": 753.21,
        "source_dataset": "Overture Maps buildings",
        "source_url": "https://docs.overturemaps.org/getting-data/",
        "source_release": "2026-09-23.1",
        "source_accessed_on": "2026-09-28",
        "geometry_role": "current building-footprint polygon",
        "linkage_semantics": "Overlap/proximity only; not evidence that the building hosts AI compute."
      }
    },
    {
      "type": "Feature",
      "id": "a1de8012-59cd-4e03-9eca-c866c3d839f4",
      "geometry": {
        "type": "Polygon",
        "coordinates": [
          [
            [
              -91.7448022,
              41.9001825
            ],
            [
              -91.744805,
              41.9002335
            ],
            [
              -91.744904,
              41.9002305
            ],
            [
              -91.7449001,
              41.9001576
            ],
            [
              -91.7448278,
              41.9001598
            ],
            [
              -91.744825,
              41.9001079
            ],
            [
              -91.7447019,
              41.9001116
            ],
            [
              -91.744703,
              41.9001335
            ],
            [
              -91.7446388,
              41.9001354
            ],
            [
              -91.7446415,
              41.9001873
            ],
            [
              -91.7448022,
              41.9001825
            ]
          ]
        ]
      },
      "properties": {
        "epoch_id": "EPOCH-d2da66ea035880ce",
        "site_name": "QTS Cedar Rapids",
        "distance_to_site_km": 0.7995,
        "footprint_area_m2_webmercator": 317.78,
        "source_dataset": "Overture Maps buildings",
        "source_url": "https://docs.overturemaps.org/getting-data/",
        "source_release": "2026-09-23.1",
        "source_accessed_on": "2026-09-28",
        "geometry_role": "current building-footprint polygon",
        "linkage_semantics": "Overlap/proximity only; not evidence that the building hosts AI compute."
      }
    },
    {
      "type": "Feature",
      "id": "ca527c5b-36df-4c69-98ec-7614150a07a6",
      "geometry": {
        "type": "Polygon",
        "coordinates": [
          [
            [
              -91.7455478,
              41.9003437
            ],
            [
              -91.7453129,
              41.9003457
            ],
            [
              -91.7453142,
              41.9004283
            ],
            [
              -91.7455491,
              41.9004263
            ],
            [
              -91.7455478,
              41.9003437
            ]
          ]
        ]
      },
      "properties": {
        "epoch_id": "EPOCH-d2da66ea035880ce",
        "site_name": "QTS Cedar Rapids",
        "distance_to_site_km": 0.7464,
        "footprint_area_m2_webmercator": 323.08,
        "source_dataset": "Overture Maps buildings",
        "source_url": "https://docs.overturemaps.org/getting-data/",
        "source_release": "2026-09-23.1",
        "source_accessed_on": "2026-09-28",
        "geometry_role": "current building-footprint polygon",
        "linkage_semantics": "Overlap/proximity only; not evidence that the building hosts AI compute."
      }
    },
    {
      "type": "Feature",
      "id": "fc251c37-56f9-4f9a-949e-160fb1a26864",
      "geometry": {
        "type": "Polygon",
        "coordinates": [
          [
            [
              -91.7456667,
              41.8997408
            ],
            [
              -91.7458008,
              41.8997425
            ],
            [
              -91.7458039,
              41.8996048
            ],
            [
              -91.7456699,
              41.8996031
            ],
            [
              -91.7456667,
              41.8997408
            ]
          ]
        ]
      },
      "properties": {
        "epoch_id": "EPOCH-d2da66ea035880ce",
        "site_name": "QTS Cedar Rapids",
        "distance_to_site_km": 0.7955,
        "footprint_area_m2_webmercator": 307.41,
        "source_dataset": "Overture Maps buildings",
        "source_url": "https://docs.overturemaps.org/getting-data/",
        "source_release": "2026-09-23.1",
        "source_accessed_on": "2026-09-28",
        "geometry_role": "current building-footprint polygon",
        "linkage_semantics": "Overlap/proximity only; not evidence that the building hosts AI compute."
      }
    },
    {
      "type": "Feature",
      "id": "f1b3ab1b-2b4f-4abd-92ab-eafc88677563",
      "geometry": {
        "type": "Polygon",
        "coordinates": [
          [
            [
              -91.745482,
              41.9001182
            ],
            [
              -91.7455489,
              41.9001161
            ],
            [
              -91.7455446,
              41.9000396
            ],
            [
              -91.7454777,
              41.9000417
            ],
            [
              -91.745482,
              41.9001182
            ]
          ]
        ]
      },
      "properties": {
        "epoch_id": "EPOCH-d2da66ea035880ce",
        "site_name": "QTS Cedar Rapids",
        "distance_to_site_km": 0.7692,
        "footprint_area_m2_webmercator": 85.36,
        "source_dataset": "Overture Maps buildings",
        "source_url": "https://docs.overturemaps.org/getting-data/",
        "source_release": "2026-09-23.1",
        "source_accessed_on": "2026-09-28",
        "geometry_role": "current building-footprint polygon",
        "linkage_semantics": "Overlap/proximity only; not evidence that the building hosts AI compute."
      }
    },
    {
      "type": "Feature",
      "id": "d63a2815-c3ac-499c-8c32-7e8c57b06579",
      "geometry": {
        "type": "Polygon",
        "coordinates": [
          [
            [
              -91.7453032,
              41.8996965
            ],
            [
              -91.745397,
              41.8996948
            ],
            [
              -91.745394,
              41.8996018
            ],
            [
              -91.7453002,
              41.8996035
            ],
            [
              -91.7453032,
              41.8996965
            ]
          ]
        ]
      },
      "properties": {
        "epoch_id": "EPOCH-d2da66ea035880ce",
        "site_name": "QTS Cedar Rapids",
        "distance_to_site_km": 0.8158,
        "footprint_area_m2_webmercator": 145.32,
        "source_dataset": "Overture Maps buildings",
        "source_url": "https://docs.overturemaps.org/getting-data/",
        "source_release": "2026-09-23.1",
        "source_accessed_on": "2026-09-28",
        "geometry_role": "current building-footprint polygon",
        "linkage_semantics": "Overlap/proximity only; not evidence that the building hosts AI compute."
      }
    },
    {
      "type": "Feature",
      "id": "84a6ef17-5ff7-4f42-afc5-3597449b32b4",
      "geometry": {
        "type": "Polygon",
        "coordinates": [
          [
            [
              -91.7423222,
              41.9059572
            ],
            [
              -91.7424079,
              41.9059596
            ],
            [
              -91.7424121,
              41.9058779
            ],
            [
              -91.7423263,
              41.9058755
            ],
            [
              -91.7423222,
              41.9059572
            ]
          ]
        ]
      },
      "properties": {
        "epoch_id": "EPOCH-d2da66ea035880ce",
        "site_name": "QTS Cedar Rapids",
        "distance_to_site_km": 0.7216,
        "footprint_area_m2_webmercator": 116.82,
        "source_dataset": "Overture Maps buildings",
        "source_url": "https://docs.overturemaps.org/getting-data/",
        "source_release": "2026-09-23.1",
        "source_accessed_on": "2026-09-28",
        "geometry_role": "current building-footprint polygon",
        "linkage_semantics": "Overlap/proximity only; not evidence that the building hosts AI compute."
      }
    },
    {
      "type": "Feature",
      "id": "0452b62c-9ed7-4663-b86a-8884785826cf",
      "geometry": {
        "type": "Polygon",
        "coordinates": [
          [
            [
              -91.742765,
              41.9052167
            ],
            [
              -91.7424835,
              41.90522
            ],
            [
              -91.7424855,
              41.9053138
            ],
            [
              -91.7426785,
              41.9053115
            ],
            [
              -91.742678,
              41.9052865
            ],
            [
              -91.7427665,
              41.9052855
            ],
            [
              -91.742765,
              41.9052167
            ]
          ]
        ]
      },
      "properties": {
        "epoch_id": "EPOCH-d2da66ea035880ce",
        "site_name": "QTS Cedar Rapids",
        "distance_to_site_km": 0.7013,
        "footprint_area_m2_webmercator": 402.85,
        "source_dataset": "Overture Maps buildings",
        "source_url": "https://docs.overturemaps.org/getting-data/",
        "source_release": "2026-09-23.1",
        "source_accessed_on": "2026-09-28",
        "geometry_role": "current building-footprint polygon",
        "linkage_semantics": "Overlap/proximity only; not evidence that the building hosts AI compute."
      }
    },
    {
      "type": "Feature",
      "id": "813fe3a9-eb9c-4900-8333-8bc0cde95eee",
      "geometry": {
        "type": "Polygon",
        "coordinates": [
          [
            [
              -91.7423507,
              41.9067628
            ],
            [
              -91.7425893,
              41.9066785
            ],
            [
              -91.7423411,
              41.906289
            ],
            [
              -91.7421025,
              41.9063733
            ],
            [
              -91.7423507,
              41.9067628
            ]
          ]
        ]
      },
      "properties": {
        "epoch_id": "EPOCH-d2da66ea035880ce",
        "site_name": "QTS Cedar Rapids",
        "distance_to_site_km": 0.7296,
        "footprint_area_m2_webmercator": 1895.81,
        "source_dataset": "Overture Maps buildings",
        "source_url": "https://docs.overturemaps.org/getting-data/",
        "source_release": "2026-09-23.1",
        "source_accessed_on": "2026-09-28",
        "geometry_role": "current building-footprint polygon",
        "linkage_semantics": "Overlap/proximity only; not evidence that the building hosts AI compute."
      }
    },
    {
      "type": "Feature",
      "id": "83908745-9fe8-48ed-b6db-8d260e6f7258",
      "geometry": {
        "type": "Polygon",
        "coordinates": [
          [
            [
              -91.7428738,
              41.9076771
            ],
            [
              -91.7430321,
              41.9076784
            ],
            [
              -91.7430334,
              41.9075885
            ],
            [
              -91.7428846,
              41.9075874
            ],
            [
              -91.7428838,
              41.9076443
            ],
            [
              -91.7428743,
              41.9076442
            ],
            [
              -91.7428738,
              41.9076771
            ]
          ]
        ]
      },
      "properties": {
        "epoch_id": "EPOCH-d2da66ea035880ce",
        "site_name": "QTS Cedar Rapids",
        "distance_to_site_km": 0.7084,
        "footprint_area_m2_webmercator": 227.8,
        "source_dataset": "Overture Maps buildings",
        "source_url": "https://docs.overturemaps.org/getting-data/",
        "source_release": "2026-09-23.1",
        "source_accessed_on": "2026-09-28",
        "geometry_role": "current building-footprint polygon",
        "linkage_semantics": "Overlap/proximity only; not evidence that the building hosts AI compute."
      }
    },
    {
      "type": "Feature",
      "id": "41297b65-1682-430a-98a3-f822dfed7aa6",
      "geometry": {
        "type": "Polygon",
        "coordinates": [
          [
            [
              -91.743247,
              41.9073599
            ],
            [
              -91.743249,
              41.9072421
            ],
            [
              -91.7431283,
              41.907241
            ],
            [
              -91.7431271,
              41.9073108
            ],
            [
              -91.7430226,
              41.9073098
            ],
            [
              -91.7430221,
              41.9073378
            ],
            [
              -91.7430408,
              41.9073379
            ],
            [
              -91.7430399,
              41.9073938
            ],
            [
              -91.7431632,
              41.907395
            ],
            [
              -91.7431623,
              41.9074469
            ],
            [
              -91.7431972,
              41.9074472
            ],
            [
              -91.7431978,
              41.9074113
            ],
            [
              -91.74323,
              41.9074116
            ],
            [
              -91.7432309,
              41.9073597
            ],
            [
              -91.743247,
              41.9073599
            ]
          ]
        ]
      },
      "properties": {
        "epoch_id": "EPOCH-d2da66ea035880ce",
        "site_name": "QTS Cedar Rapids",
        "distance_to_site_km": 0.6826,
        "footprint_area_m2_webmercator": 466.47,
        "source_dataset": "Overture Maps buildings",
        "source_url": "https://docs.overturemaps.org/getting-data/",
        "source_release": "2026-09-23.1",
        "source_accessed_on": "2026-09-28",
        "geometry_role": "current building-footprint polygon",
        "linkage_semantics": "Overlap/proximity only; not evidence that the building hosts AI compute."
      }
    },
    {
      "type": "Feature",
      "id": "c5ced498-3259-4926-8d71-b85c04695e82",
      "geometry": {
        "type": "Polygon",
        "coordinates": [
          [
            [
              -91.7483274,
              41.9063899
            ],
            [
              -91.7483309,
              41.9062862
            ],
            [
              -91.7482331,
              41.9062843
            ],
            [
              -91.7482295,
              41.9063881
            ],
            [
              -91.7483274,
              41.9063899
            ]
          ]
        ]
      },
      "properties": {
        "epoch_id": "EPOCH-d2da66ea035880ce",
        "site_name": "QTS Cedar Rapids",
        "distance_to_site_km": 0.2449,
        "footprint_area_m2_webmercator": 169.15,
        "source_dataset": "Overture Maps buildings",
        "source_url": "https://docs.overturemaps.org/getting-data/",
        "source_release": "2026-09-23.1",
        "source_accessed_on": "2026-09-28",
        "geometry_role": "current building-footprint polygon",
        "linkage_semantics": "Overlap/proximity only; not evidence that the building hosts AI compute."
      }
    },
    {
      "type": "Feature",
      "id": "5e2229f1-3b5f-44b4-bd7f-7742e4a9b29a",
      "geometry": {
        "type": "Polygon",
        "coordinates": [
          [
            [
              -91.7481694,
              41.9064485
            ],
            [
              -91.7481745,
              41.9065722
            ],
            [
              -91.7483299,
              41.9065686
            ],
            [
              -91.7483238,
              41.9064198
            ],
            [
              -91.7482326,
              41.9064219
            ],
            [
              -91.7482337,
              41.9064471
            ],
            [
              -91.7481694,
              41.9064485
            ]
          ]
        ]
      },
      "properties": {
        "epoch_id": "EPOCH-d2da66ea035880ce",
        "site_name": "QTS Cedar Rapids",
        "distance_to_site_km": 0.2535,
        "footprint_area_m2_webmercator": 358.51,
        "source_dataset": "Overture Maps buildings",
        "source_url": "https://docs.overturemaps.org/getting-data/",
        "source_release": "2026-09-23.1",
        "source_accessed_on": "2026-09-28",
        "geometry_role": "current building-footprint polygon",
        "linkage_semantics": "Overlap/proximity only; not evidence that the building hosts AI compute."
      }
    },
    {
      "type": "Feature",
      "id": "3b0efc4c-1a6a-4d4f-b6e2-a0d371b9d5eb",
      "geometry": {
        "type": "Polygon",
        "coordinates": [
          [
            [
              -91.7573263,
              41.9052175
            ],
            [
              -91.7572287,
              41.9052207
            ],
            [
              -91.7572369,
              41.9053601
            ],
            [
              -91.7573345,
              41.9053569
            ],
            [
              -91.7573263,
              41.9052175
            ]
          ]
        ]
      },
      "properties": {
        "epoch_id": "EPOCH-d2da66ea035880ce",
        "site_name": "QTS Cedar Rapids",
        "distance_to_site_km": 0.5147,
        "footprint_area_m2_webmercator": 226.97,
        "source_dataset": "Overture Maps buildings",
        "source_url": "https://docs.overturemaps.org/getting-data/",
        "source_release": "2026-09-23.1",
        "source_accessed_on": "2026-09-28",
        "geometry_role": "current building-footprint polygon",
        "linkage_semantics": "Overlap/proximity only; not evidence that the building hosts AI compute."
      }
    },
    {
      "type": "Feature",
      "id": "69ac7f56-03a3-4545-98d1-85d8fa734ad3",
      "geometry": {
        "type": "Polygon",
        "coordinates": [
          [
            [
              -91.7589513,
              41.9062187
            ],
            [
              -91.7591082,
              41.9062198
            ],
            [
              -91.7591086,
              41.9061871
            ],
            [
              -91.7591094,
              41.9061287
            ],
            [
              -91.7589761,
              41.9061278
            ],
            [
              -91.7589643,
              41.9061277
            ],
            [
              -91.7589524,
              41.9061276
            ],
            [
              -91.7589513,
              41.9062187
            ]
          ]
        ]
      },
      "properties": {
        "epoch_id": "EPOCH-d2da66ea035880ce",
        "site_name": "QTS Cedar Rapids",
        "distance_to_site_km": 0.661,
        "footprint_area_m2_webmercator": 238.03,
        "source_dataset": "Overture Maps buildings",
        "source_url": "https://docs.overturemaps.org/getting-data/",
        "source_release": "2026-09-23.1",
        "source_accessed_on": "2026-09-28",
        "geometry_role": "current building-footprint polygon",
        "linkage_semantics": "Overlap/proximity only; not evidence that the building hosts AI compute."
      }
    },
    {
      "type": "Feature",
      "id": "b9bb92e3-4305-4f28-89b8-d2e53cbc0dbd",
      "geometry": {
        "type": "Polygon",
        "coordinates": [
          [
            [
              -91.7585234,
              41.9061305
            ],
            [
              -91.7585242,
              41.9061706
            ],
            [
              -91.758564,
              41.9061702
            ],
            [
              -91.7585632,
              41.9061301
            ],
            [
              -91.7585234,
              41.9061305
            ]
          ]
        ]
      },
      "properties": {
        "epoch_id": "EPOCH-d2da66ea035880ce",
        "site_name": "QTS Cedar Rapids",
        "distance_to_site_km": 0.6207,
        "footprint_area_m2_webmercator": 26.58,
        "source_dataset": "Overture Maps buildings",
        "source_url": "https://docs.overturemaps.org/getting-data/",
        "source_release": "2026-09-23.1",
        "source_accessed_on": "2026-09-28",
        "geometry_role": "current building-footprint polygon",
        "linkage_semantics": "Overlap/proximity only; not evidence that the building hosts AI compute."
      }
    },
    {
      "type": "Feature",
      "id": "a42d134b-8c0c-4e3a-aaa0-13b32af676cc",
      "geometry": {
        "type": "Polygon",
        "coordinates": [
          [
            [
              -91.7587055,
              41.9058791
            ],
            [
              -91.7587053,
              41.9058905
            ],
            [
              -91.7586811,
              41.9058902
            ],
            [
              -91.7586792,
              41.9059698
            ],
            [
              -91.758837,
              41.9059719
            ],
            [
              -91.7588362,
              41.9060053
            ],
            [
              -91.758912,
              41.9060063
            ],
            [
              -91.7589128,
              41.9059729
            ],
            [
              -91.7589488,
              41.9059734
            ],
            [
              -91.7589742,
              41.9059737
            ],
            [
              -91.7589745,
              41.9059624
            ],
            [
              -91.7589761,
              41.9058941
            ],
            [
              -91.7589031,
              41.9058931
            ],
            [
              -91.7589034,
              41.9058817
            ],
            [
              -91.758879,
              41.9058814
            ],
            [
              -91.7588643,
              41.9058812
            ],
            [
              -91.7587055,
              41.9058791
            ]
          ]
        ]
      },
      "properties": {
        "epoch_id": "EPOCH-d2da66ea035880ce",
        "site_name": "QTS Cedar Rapids",
        "distance_to_site_km": 0.6425,
        "footprint_area_m2_webmercator": 471.01,
        "source_dataset": "Overture Maps buildings",
        "source_url": "https://docs.overturemaps.org/getting-data/",
        "source_release": "2026-09-23.1",
        "source_accessed_on": "2026-09-28",
        "geometry_role": "current building-footprint polygon",
        "linkage_semantics": "Overlap/proximity only; not evidence that the building hosts AI compute."
      }
    },
    {
      "type": "Feature",
      "id": "a89b3ac2-c6b6-4522-83c2-c2bfab776615",
      "geometry": {
        "type": "Polygon",
        "coordinates": [
          [
            [
              -91.7590091,
              41.9060392
            ],
            [
              -91.7591771,
              41.9060418
            ],
            [
              -91.7591793,
              41.9059603
            ],
            [
              -91.7591646,
              41.9059601
            ],
            [
              -91.7590113,
              41.9059577
            ],
            [
              -91.7590092,
              41.9060344
            ],
            [
              -91.7590091,
              41.9060392
            ]
          ]
        ]
      },
      "properties": {
        "epoch_id": "EPOCH-d2da66ea035880ce",
        "site_name": "QTS Cedar Rapids",
        "distance_to_site_km": 0.6648,
        "footprint_area_m2_webmercator": 228.06,
        "source_dataset": "Overture Maps buildings",
        "source_url": "https://docs.overturemaps.org/getting-data/",
        "source_release": "2026-09-23.1",
        "source_accessed_on": "2026-09-28",
        "geometry_role": "current building-footprint polygon",
        "linkage_semantics": "Overlap/proximity only; not evidence that the building hosts AI compute."
      }
    },
    {
      "type": "Feature",
      "id": "98159f3a-9cd3-4907-bf4a-8c5bef361478",
      "geometry": {
        "type": "Polygon",
        "coordinates": [
          [
            [
              -91.7663414,
              41.9063817
            ],
            [
              -91.7665921,
              41.9063859
            ],
            [
              -91.766596,
              41.9062562
            ],
            [
              -91.7663453,
              41.9062521
            ],
            [
              -91.7663414,
              41.9063817
            ]
          ]
        ]
      },
      "properties": {
        "epoch_id": "EPOCH-d2da66ea035880ce",
        "site_name": "QTS Cedar Rapids",
        "distance_to_site_km": 1.2761,
        "footprint_area_m2_webmercator": 541.47,
        "source_dataset": "Overture Maps buildings",
        "source_url": "https://docs.overturemaps.org/getting-data/",
        "source_release": "2026-09-23.1",
        "source_accessed_on": "2026-09-28",
        "geometry_role": "current building-footprint polygon",
        "linkage_semantics": "Overlap/proximity only; not evidence that the building hosts AI compute."
      }
    },
    {
      "type": "Feature",
      "id": "26e810a9-c519-44fc-88a6-23bac7434211",
      "geometry": {
        "type": "Polygon",
        "coordinates": [
          [
            [
              -91.7658741,
              41.9059689
            ],
            [
              -91.7657508,
              41.9059663
            ],
            [
              -91.7657499,
              41.9059903
            ],
            [
              -91.7656628,
              41.9059884
            ],
            [
              -91.7656598,
              41.9060682
            ],
            [
              -91.7657455,
              41.90607
            ],
            [
              -91.7657443,
              41.9061019
            ],
            [
              -91.765869,
              41.9061045
            ],
            [
              -91.7658741,
              41.9059689
            ]
          ]
        ]
      },
      "properties": {
        "epoch_id": "EPOCH-d2da66ea035880ce",
        "site_name": "QTS Cedar Rapids",
        "distance_to_site_km": 1.2175,
        "footprint_area_m2_webmercator": 395.15,
        "source_dataset": "Overture Maps buildings",
        "source_url": "https://docs.overturemaps.org/getting-data/",
        "source_release": "2026-09-23.1",
        "source_accessed_on": "2026-09-28",
        "geometry_role": "current building-footprint polygon",
        "linkage_semantics": "Overlap/proximity only; not evidence that the building hosts AI compute."
      }
    },
    {
      "type": "Feature",
      "id": "e127f0ea-7321-4845-afc7-c5a22900c31a",
      "geometry": {
        "type": "Polygon",
        "coordinates": [
          [
            [
              -91.762781,
              41.8961056
            ],
            [
              -91.7627842,
              41.8959619
            ],
            [
              -91.7624865,
              41.8959582
            ],
            [
              -91.7624833,
              41.8961019
            ],
            [
              -91.762781,
              41.8961056
            ]
          ]
        ]
      },
      "properties": {
        "epoch_id": "EPOCH-d2da66ea035880ce",
        "site_name": "QTS Cedar Rapids",
        "distance_to_site_km": 1.4323,
        "footprint_area_m2_webmercator": 712.39,
        "source_dataset": "Overture Maps buildings",
        "source_url": "https://docs.overturemaps.org/getting-data/",
        "source_release": "2026-09-23.1",
        "source_accessed_on": "2026-09-28",
        "geometry_role": "current building-footprint polygon",
        "linkage_semantics": "Overlap/proximity only; not evidence that the building hosts AI compute."
      }
    },
    {
      "type": "Feature",
      "id": "fe49bf3d-e118-4f25-aeb0-07f9d3dbd89f",
      "geometry": {
        "type": "Polygon",
        "coordinates": [
          [
            [
              -91.7629425,
              41.895101
            ],
            [
              -91.7630336,
              41.8950987
            ],
            [
              -91.7630299,
              41.8950169
            ],
            [
              -91.7629388,
              41.8950192
            ],
            [
              -91.7629425,
              41.895101
            ]
          ]
        ]
      },
      "properties": {
        "epoch_id": "EPOCH-d2da66ea035880ce",
        "site_name": "QTS Cedar Rapids",
        "distance_to_site_km": 1.5331,
        "footprint_area_m2_webmercator": 124.2,
        "source_dataset": "Overture Maps buildings",
        "source_url": "https://docs.overturemaps.org/getting-data/",
        "source_release": "2026-09-23.1",
        "source_accessed_on": "2026-09-28",
        "geometry_role": "current building-footprint polygon",
        "linkage_semantics": "Overlap/proximity only; not evidence that the building hosts AI compute."
      }
    },
    {
      "type": "Feature",
      "id": "826e675d-24bf-47ed-93b9-4fdf32a638b1",
      "geometry": {
        "type": "Polygon",
        "coordinates": [
          [
            [
              -91.7447639,
              41.9255125
            ],
            [
              -91.7447603,
              41.92543
            ],
            [
              -91.7448771,
              41.9254272
            ],
            [
              -91.7448732,
              41.9253375
            ],
            [
              -91.7446883,
              41.9253419
            ],
            [
              -91.7446926,
              41.9254404
            ],
            [
              -91.7446535,
              41.9254413
            ],
            [
              -91.7446567,
              41.9255151
            ],
            [
              -91.7447639,
              41.9255125
            ]
          ]
        ]
      },
      "properties": {
        "epoch_id": "EPOCH-d2da66ea035880ce",
        "site_name": "QTS Cedar Rapids",
        "distance_to_site_km": 2.2624,
        "footprint_area_m2_webmercator": 418.33,
        "source_dataset": "Overture Maps buildings",
        "source_url": "https://docs.overturemaps.org/getting-data/",
        "source_release": "2026-09-23.1",
        "source_accessed_on": "2026-09-28",
        "geometry_role": "current building-footprint polygon",
        "linkage_semantics": "Overlap/proximity only; not evidence that the building hosts AI compute."
      }
    },
    {
      "type": "Feature",
      "id": "9918e8de-3269-4781-9f87-ced057c41a5a",
      "geometry": {
        "type": "Polygon",
        "coordinates": [
          [
            [
              -91.765455,
              41.9145609
            ],
            [
              -91.7654524,
              41.9146686
            ],
            [
              -91.7655516,
              41.9146699
            ],
            [
              -91.7655542,
              41.9145622
            ],
            [
              -91.765455,
              41.9145609
            ]
          ]
        ]
      },
      "properties": {
        "epoch_id": "EPOCH-d2da66ea035880ce",
        "site_name": "QTS Cedar Rapids",
        "distance_to_site_km": 1.5574,
        "footprint_area_m2_webmercator": 177.97,
        "source_dataset": "Overture Maps buildings",
        "source_url": "https://docs.overturemaps.org/getting-data/",
        "source_release": "2026-09-23.1",
        "source_accessed_on": "2026-09-28",
        "geometry_role": "current building-footprint polygon",
        "linkage_semantics": "Overlap/proximity only; not evidence that the building hosts AI compute."
      }
    },
    {
      "type": "Feature",
      "id": "15f0b9f1-b44d-42c5-8eb2-7367ad1c4e4f",
      "geometry": {
        "type": "Polygon",
        "coordinates": [
          [
            [
              -91.7688357,
              41.9150514
            ],
            [
              -91.7688433,
              41.9153267
            ],
            [
              -91.7691153,
              41.9153226
            ],
            [
              -91.7691078,
              41.9150473
            ],
            [
              -91.7688357,
              41.9150514
            ]
          ]
        ]
      },
      "properties": {
        "epoch_id": "EPOCH-d2da66ea035880ce",
        "site_name": "QTS Cedar Rapids",
        "distance_to_site_km": 1.8235,
        "footprint_area_m2_webmercator": 1247.74,
        "source_dataset": "Overture Maps buildings",
        "source_url": "https://docs.overturemaps.org/getting-data/",
        "source_release": "2026-09-23.1",
        "source_accessed_on": "2026-09-28",
        "geometry_role": "current building-footprint polygon",
        "linkage_semantics": "Overlap/proximity only; not evidence that the building hosts AI compute."
      }
    },
    {
      "type": "Feature",
      "id": "3cc552a9-8e70-481d-a246-868f936405cf",
      "geometry": {
        "type": "Polygon",
        "coordinates": [
          [
            [
              -91.7728819,
              41.9109752
            ],
            [
              -91.7728879,
              41.9103929
            ],
            [
              -91.7726873,
              41.9103917
            ],
            [
              -91.7726922,
              41.9099258
            ],
            [
              -91.7700723,
              41.9099104
            ],
            [
              -91.7700613,
              41.9109401
            ],
            [
              -91.772662,
              41.9109555
            ],
            [
              -91.7726618,
              41.9109739
            ],
            [
              -91.7728819,
              41.9109752
            ]
          ]
        ]
      },
      "properties": {
        "epoch_id": "EPOCH-d2da66ea035880ce",
        "site_name": "QTS Cedar Rapids",
        "distance_to_site_km": 1.768,
        "footprint_area_m2_webmercator": 46880.01,
        "source_dataset": "Overture Maps buildings",
        "source_url": "https://docs.overturemaps.org/getting-data/",
        "source_release": "2026-09-23.1",
        "source_accessed_on": "2026-09-28",
        "geometry_role": "current building-footprint polygon",
        "linkage_semantics": "Overlap/proximity only; not evidence that the building hosts AI compute."
      }
    },
    {
      "type": "Feature",
      "id": "32677a9d-161f-41ae-9a97-4ebbdc09f1dc",
      "geometry": {
        "type": "Polygon",
        "coordinates": [
          [
            [
              -91.7687201,
              41.911291
            ],
            [
              -91.7687346,
              41.9099108
            ],
            [
              -91.7684221,
              41.909909
            ],
            [
              -91.7684093,
              41.9111172
            ],
            [
              -91.7683004,
              41.9111165
            ],
            [
              -91.7683134,
              41.9099124
            ],
            [
              -91.7679926,
              41.9099104
            ],
            [
              -91.7679776,
              41.9112881
            ],
            [
              -91.7682779,
              41.9112899
            ],
            [
              -91.7682784,
              41.9112422
            ],
            [
              -91.7684018,
              41.9112429
            ],
            [
              -91.7684013,
              41.9112891
            ],
            [
              -91.7687201,
              41.911291
            ]
          ]
        ]
      },
      "properties": {
        "epoch_id": "EPOCH-d2da66ea035880ce",
        "site_name": "QTS Cedar Rapids",
        "distance_to_site_km": 1.5337,
        "footprint_area_m2_webmercator": 14761.51,
        "source_dataset": "Overture Maps buildings",
        "source_url": "https://docs.overturemaps.org/getting-data/",
        "source_release": "2026-09-23.1",
        "source_accessed_on": "2026-09-28",
        "geometry_role": "current building-footprint polygon",
        "linkage_semantics": "Overlap/proximity only; not evidence that the building hosts AI compute."
      }
    },
    {
      "type": "Feature",
      "id": "4a72b51d-8d1f-4dd9-b3f3-1ad5d2a91a65",
      "geometry": {
        "type": "Polygon",
        "coordinates": [
          [
            [
              -91.7331435,
              41.9186431
            ],
            [
              -91.7331476,
              41.9187368
            ],
            [
              -91.7333753,
              41.9187313
            ],
            [
              -91.7333712,
              41.9186376
            ],
            [
              -91.7331435,
              41.9186431
            ]
          ]
        ]
      },
      "properties": {
        "epoch_id": "EPOCH-d2da66ea035880ce",
        "site_name": "QTS Cedar Rapids",
        "distance_to_site_km": 2.0701,
        "footprint_area_m2_webmercator": 355.69,
        "source_dataset": "Overture Maps buildings",
        "source_url": "https://docs.overturemaps.org/getting-data/",
        "source_release": "2026-09-23.1",
        "source_accessed_on": "2026-09-28",
        "geometry_role": "current building-footprint polygon",
        "linkage_semantics": "Overlap/proximity only; not evidence that the building hosts AI compute."
      }
    },
    {
      "type": "Feature",
      "id": "b21041e2-d224-4053-bccd-afd9d2088b24",
      "geometry": {
        "type": "Polygon",
        "coordinates": [
          [
            [
              -91.7317141,
              41.9194421
            ],
            [
              -91.7316632,
              41.919443
            ],
            [
              -91.7316675,
              41.9195806
            ],
            [
              -91.7317184,
              41.9195797
            ],
            [
              -91.7317141,
              41.9194421
            ]
          ]
        ]
      },
      "properties": {
        "epoch_id": "EPOCH-d2da66ea035880ce",
        "site_name": "QTS Cedar Rapids",
        "distance_to_site_km": 2.227,
        "footprint_area_m2_webmercator": 116.71,
        "source_dataset": "Overture Maps buildings",
        "source_url": "https://docs.overturemaps.org/getting-data/",
        "source_release": "2026-09-23.1",
        "source_accessed_on": "2026-09-28",
        "geometry_role": "current building-footprint polygon",
        "linkage_semantics": "Overlap/proximity only; not evidence that the building hosts AI compute."
      }
    },
    {
      "type": "Feature",
      "id": "df0c44cd-9fce-41b2-a9f4-97effdfdddd8",
      "geometry": {
        "type": "Polygon",
        "coordinates": [
          [
            [
              -91.7321094,
              41.9196499
            ],
            [
              -91.7322446,
              41.9195435
            ],
            [
              -91.7320866,
              41.9194323
            ],
            [
              -91.7319072,
              41.9195734
            ],
            [
              -91.7319463,
              41.919601
            ],
            [
              -91.7318726,
              41.9196589
            ],
            [
              -91.7319496,
              41.9197131
            ],
            [
              -91.7320233,
              41.9196551
            ],
            [
              -91.7320459,
              41.9196711
            ],
            [
              -91.7320901,
              41.9196363
            ],
            [
              -91.7321094,
              41.9196499
            ]
          ]
        ]
      },
      "properties": {
        "epoch_id": "EPOCH-d2da66ea035880ce",
        "site_name": "QTS Cedar Rapids",
        "distance_to_site_km": 2.2102,
        "footprint_area_m2_webmercator": 823.35,
        "source_dataset": "Overture Maps buildings",
        "source_url": "https://docs.overturemaps.org/getting-data/",
        "source_release": "2026-09-23.1",
        "source_accessed_on": "2026-09-28",
        "geometry_role": "current building-footprint polygon",
        "linkage_semantics": "Overlap/proximity only; not evidence that the building hosts AI compute."
      }
    },
    {
      "type": "Feature",
      "id": "64e7e6d7-67ce-40c1-b66b-439052651bc3",
      "geometry": {
        "type": "Polygon",
        "coordinates": [
          [
            [
              -91.7310647,
              41.9200109
            ],
            [
              -91.7311961,
              41.9200124
            ],
            [
              -91.7311973,
              41.9199535
            ],
            [
              -91.7312306,
              41.9199539
            ],
            [
              -91.7312319,
              41.9198891
            ],
            [
              -91.7310672,
              41.9198872
            ],
            [
              -91.7310647,
              41.9200109
            ]
          ]
        ]
      },
      "properties": {
        "epoch_id": "EPOCH-d2da66ea035880ce",
        "site_name": "QTS Cedar Rapids",
        "distance_to_site_km": 2.2933,
        "footprint_area_m2_webmercator": 306.7,
        "source_dataset": "Overture Maps buildings",
        "source_url": "https://docs.overturemaps.org/getting-data/",
        "source_release": "2026-09-23.1",
        "source_accessed_on": "2026-09-28",
        "geometry_role": "current building-footprint polygon",
        "linkage_semantics": "Overlap/proximity only; not evidence that the building hosts AI compute."
      }
    },
    {
      "type": "Feature",
      "id": "47986a99-2eda-44a1-8b42-90847337fcd9",
      "geometry": {
        "type": "Polygon",
        "coordinates": [
          [
            [
              -91.7312931,
              41.9198614
            ],
            [
              -91.731403,
              41.9198633
            ],
            [
              -91.7314055,
              41.9197826
            ],
            [
              -91.7313599,
              41.9197818
            ],
            [
              -91.7313608,
              41.9197519
            ],
            [
              -91.7312965,
              41.9197508
            ],
            [
              -91.7312931,
              41.9198614
            ]
          ]
        ]
      },
      "properties": {
        "epoch_id": "EPOCH-d2da66ea035880ce",
        "site_name": "QTS Cedar Rapids",
        "distance_to_site_km": 2.2708,
        "footprint_area_m2_webmercator": 179.85,
        "source_dataset": "Overture Maps buildings",
        "source_url": "https://docs.overturemaps.org/getting-data/",
        "source_release": "2026-09-23.1",
        "source_accessed_on": "2026-09-28",
        "geometry_role": "current building-footprint polygon",
        "linkage_semantics": "Overlap/proximity only; not evidence that the building hosts AI compute."
      }
    },
    {
      "type": "Feature",
      "id": "f3ceb256-dda3-47f0-bceb-e6b18bd93dd3",
      "geometry": {
        "type": "Polygon",
        "coordinates": [
          [
            [
              -91.7354899,
              41.8994452
            ],
            [
              -91.7354905,
              41.8993546
            ],
            [
              -91.7353603,
              41.8993541
            ],
            [
              -91.7353597,
              41.8994447
            ],
            [
              -91.7354899,
              41.8994452
            ]
          ]
        ]
      },
      "properties": {
        "epoch_id": "EPOCH-d2da66ea035880ce",
        "site_name": "QTS Cedar Rapids",
        "distance_to_site_km": 1.4685,
        "footprint_area_m2_webmercator": 196.4,
        "source_dataset": "Overture Maps buildings",
        "source_url": "https://docs.overturemaps.org/getting-data/",
        "source_release": "2026-09-23.1",
        "source_accessed_on": "2026-09-28",
        "geometry_role": "current building-footprint polygon",
        "linkage_semantics": "Overlap/proximity only; not evidence that the building hosts AI compute."
      }
    },
    {
      "type": "Feature",
      "id": "4f0ff93f-372d-498f-b045-62d19f85c0cd",
      "geometry": {
        "type": "Polygon",
        "coordinates": [
          [
            [
              -91.7351855,
              41.8996899
            ],
            [
              -91.7353302,
              41.8996861
            ],
            [
              -91.7353245,
              41.8995684
            ],
            [
              -91.7351799,
              41.8995723
            ],
            [
              -91.7351855,
              41.8996899
            ]
          ]
        ]
      },
      "properties": {
        "epoch_id": "EPOCH-d2da66ea035880ce",
        "site_name": "QTS Cedar Rapids",
        "distance_to_site_km": 1.4692,
        "footprint_area_m2_webmercator": 283.69,
        "source_dataset": "Overture Maps buildings",
        "source_url": "https://docs.overturemaps.org/getting-data/",
        "source_release": "2026-09-23.1",
        "source_accessed_on": "2026-09-28",
        "geometry_role": "current building-footprint polygon",
        "linkage_semantics": "Overlap/proximity only; not evidence that the building hosts AI compute."
      }
    },
    {
      "type": "Feature",
      "id": "81bfb0d3-28f0-40ea-96af-88fff446d9ed",
      "geometry": {
        "type": "Polygon",
        "coordinates": [
          [
            [
              -91.7350781,
              41.8994854
            ],
            [
              -91.7352536,
              41.8994875
            ],
            [
              -91.7352564,
              41.8993585
            ],
            [
              -91.7350809,
              41.8993564
            ],
            [
              -91.7350781,
              41.8994854
            ]
          ]
        ]
      },
      "properties": {
        "epoch_id": "EPOCH-d2da66ea035880ce",
        "site_name": "QTS Cedar Rapids",
        "distance_to_site_km": 1.4862,
        "footprint_area_m2_webmercator": 377.02,
        "source_dataset": "Overture Maps buildings",
        "source_url": "https://docs.overturemaps.org/getting-data/",
        "source_release": "2026-09-23.1",
        "source_accessed_on": "2026-09-28",
        "geometry_role": "current building-footprint polygon",
        "linkage_semantics": "Overlap/proximity only; not evidence that the building hosts AI compute."
      }
    },
    {
      "type": "Feature",
      "id": "261be491-1b9e-4592-985c-3171589977c7",
      "geometry": {
        "type": "Polygon",
        "coordinates": [
          [
            [
              -91.7349077,
              41.8998926
            ],
            [
              -91.7349067,
              41.8999433
            ],
            [
              -91.7350675,
              41.899945
            ],
            [
              -91.7350693,
              41.8998552
            ],
            [
              -91.7349594,
              41.899854
            ],
            [
              -91.7349586,
              41.8998932
            ],
            [
              -91.7349077,
              41.8998926
            ]
          ]
        ]
      },
      "properties": {
        "epoch_id": "EPOCH-d2da66ea035880ce",
        "site_name": "QTS Cedar Rapids",
        "distance_to_site_km": 1.4748,
        "footprint_area_m2_webmercator": 207.34,
        "source_dataset": "Overture Maps buildings",
        "source_url": "https://docs.overturemaps.org/getting-data/",
        "source_release": "2026-09-23.1",
        "source_accessed_on": "2026-09-28",
        "geometry_role": "current building-footprint polygon",
        "linkage_semantics": "Overlap/proximity only; not evidence that the building hosts AI compute."
      }
    },
    {
      "type": "Feature",
      "id": "5356ad09-20d2-4c75-bf77-47fa32f3b7e8",
      "geometry": {
        "type": "Polygon",
        "coordinates": [
          [
            [
              -91.740816,
              41.8916421
            ],
            [
              -91.7411028,
              41.891638
            ],
            [
              -91.7411004,
              41.8915442
            ],
            [
              -91.7409154,
              41.8915469
            ],
            [
              -91.7409149,
              41.8915269
            ],
            [
              -91.740813,
              41.8915284
            ],
            [
              -91.740816,
              41.8916421
            ]
          ]
        ]
      },
      "properties": {
        "epoch_id": "EPOCH-d2da66ea035880ce",
        "site_name": "QTS Cedar Rapids",
        "distance_to_site_km": 1.771,
        "footprint_area_m2_webmercator": 481.77,
        "source_dataset": "Overture Maps buildings",
        "source_url": "https://docs.overturemaps.org/getting-data/",
        "source_release": "2026-09-23.1",
        "source_accessed_on": "2026-09-28",
        "geometry_role": "current building-footprint polygon",
        "linkage_semantics": "Overlap/proximity only; not evidence that the building hosts AI compute."
      }
    }
  ]
}
