{
  "type": "FeatureCollection",
  "source": {
    "dataset": "Overture Maps buildings",
    "url": "https://docs.overturemaps.org/getting-data/",
    "accessed_on": "2026-09-28",
    "release": "2026-09-23.1",
    "site_epoch_id": "EPOCH-2b89e13933a04725",
    "site_name": "Google Storey County",
    "site_latitude": 39.5429,
    "site_longitude": -119.4392,
    "search_bbox": [
      -119.4592,
      39.5229,
      -119.4192,
      39.562900000000006
    ],
    "filter_radius_km": 3.0,
    "semantics": "Current building polygons are ingested for physical geometry. They are not, by themselves, AI-facility identity evidence or a construction time series."
  },
  "features": [
    {
      "type": "Feature",
      "id": "490e7d4a-1539-42e4-aa97-605ea5ad868c",
      "geometry": {
        "type": "Polygon",
        "coordinates": [
          [
            [
              -119.4612677,
              39.5499158
            ],
            [
              -119.4589968,
              39.5498935
            ],
            [
              -119.4589937,
              39.5500847
            ],
            [
              -119.4592109,
              39.5500869
            ],
            [
              -119.4591537,
              39.553506
            ],
            [
              -119.4609914,
              39.5535243
            ],
            [
              -119.4610484,
              39.5501089
            ],
            [
              -119.4612645,
              39.550111
            ],
            [
              -119.4612677,
              39.5499158
            ]
          ]
        ]
      },
      "properties": {
        "epoch_id": "EPOCH-2b89e13933a04725",
        "site_name": "Google Storey County",
        "distance_to_site_km": 2.0414,
        "footprint_area_m2_webmercator": 107994.58,
        "source_dataset": "Overture Maps buildings",
        "source_url": "https://docs.overturemaps.org/getting-data/",
        "source_release": "2026-09-23.1",
        "source_accessed_on": "2026-09-28",
        "geometry_role": "current building-footprint polygon",
        "linkage_semantics": "Overlap/proximity only; not evidence that the building hosts AI compute."
      }
    },
    {
      "type": "Feature",
      "id": "0f7e9f24-c3d0-46c2-8c37-98b52a48a8b9",
      "geometry": {
        "type": "Polygon",
        "coordinates": [
          [
            [
              -119.4558259,
              39.5535473
            ],
            [
              -119.45769,
              39.5535648
            ],
            [
              -119.4576934,
              39.5533485
            ],
            [
              -119.4575169,
              39.5533469
            ],
            [
              -119.4575665,
              39.5501993
            ],
            [
              -119.457743,
              39.550201
            ],
            [
              -119.4577466,
              39.5499734
            ],
            [
              -119.4558825,
              39.549956
            ],
            [
              -119.4558789,
              39.5501823
            ],
            [
              -119.4560256,
              39.5501836
            ],
            [
              -119.4559763,
              39.553325
            ],
            [
              -119.4558294,
              39.5533237
            ],
            [
              -119.4558259,
              39.5535473
            ]
          ]
        ]
      },
      "properties": {
        "epoch_id": "EPOCH-2b89e13933a04725",
        "site_name": "Google Storey County",
        "distance_to_site_km": 1.8003,
        "footprint_area_m2_webmercator": 91268.2,
        "source_dataset": "Overture Maps buildings",
        "source_url": "https://docs.overturemaps.org/getting-data/",
        "source_release": "2026-09-23.1",
        "source_accessed_on": "2026-09-28",
        "geometry_role": "current building-footprint polygon",
        "linkage_semantics": "Overlap/proximity only; not evidence that the building hosts AI compute."
      }
    },
    {
      "type": "Feature",
      "id": "356604cd-99cc-4a86-90d1-31982c1951a3",
      "geometry": {
        "type": "Polygon",
        "coordinates": [
          [
            [
              -119.4579955,
              39.541792
            ],
            [
              -119.458075,
              39.5418045
            ],
            [
              -119.4580923,
              39.541739
            ],
            [
              -119.4580128,
              39.5417265
            ],
            [
              -119.4579955,
              39.541792
            ]
          ]
        ]
      },
      "properties": {
        "epoch_id": "EPOCH-2b89e13933a04725",
        "site_name": "Google Storey County",
        "distance_to_site_km": 1.6208,
        "footprint_area_m2_webmercator": 87.15,
        "source_dataset": "Overture Maps buildings",
        "source_url": "https://docs.overturemaps.org/getting-data/",
        "source_release": "2026-09-23.1",
        "source_accessed_on": "2026-09-28",
        "geometry_role": "current building-footprint polygon",
        "linkage_semantics": "Overlap/proximity only; not evidence that the building hosts AI compute."
      }
    },
    {
      "type": "Feature",
      "id": "f4ab744f-0557-431e-b924-1ef6c4c2978d",
      "geometry": {
        "type": "Polygon",
        "coordinates": [
          [
            [
              -119.4574846,
              39.5415231
            ],
            [
              -119.457694,
              39.5414749
            ],
            [
              -119.4576609,
              39.5413922
            ],
            [
              -119.457449,
              39.5414463
            ],
            [
              -119.4574846,
              39.5415231
            ]
          ]
        ]
      },
      "properties": {
        "epoch_id": "EPOCH-2b89e13933a04725",
        "site_name": "Google Storey County",
        "distance_to_site_km": 1.5836,
        "footprint_area_m2_webmercator": 298.19,
        "source_dataset": "Overture Maps buildings",
        "source_url": "https://docs.overturemaps.org/getting-data/",
        "source_release": "2026-09-23.1",
        "source_accessed_on": "2026-09-28",
        "geometry_role": "current building-footprint polygon",
        "linkage_semantics": "Overlap/proximity only; not evidence that the building hosts AI compute."
      }
    },
    {
      "type": "Feature",
      "id": "598381b1-b8e9-4113-b5bf-c299f92cf9b2",
      "geometry": {
        "type": "Polygon",
        "coordinates": [
          [
            [
              -119.455381,
              39.549765
            ],
            [
              -119.455504,
              39.549765
            ],
            [
              -119.455504,
              39.549678
            ],
            [
              -119.455381,
              39.549678
            ],
            [
              -119.455381,
              39.549765
            ]
          ]
        ]
      },
      "properties": {
        "epoch_id": "EPOCH-2b89e13933a04725",
        "site_name": "Google Storey County",
        "distance_to_site_km": 1.5859,
        "footprint_area_m2_webmercator": 171.98,
        "source_dataset": "Overture Maps buildings",
        "source_url": "https://docs.overturemaps.org/getting-data/",
        "source_release": "2026-09-23.1",
        "source_accessed_on": "2026-09-28",
        "geometry_role": "current building-footprint polygon",
        "linkage_semantics": "Overlap/proximity only; not evidence that the building hosts AI compute."
      }
    },
    {
      "type": "Feature",
      "id": "5a94abf9-b56d-4b46-bf2b-0fd00b8b6f49",
      "geometry": {
        "type": "Polygon",
        "coordinates": [
          [
            [
              -119.455007,
              39.552511
            ],
            [
              -119.454901,
              39.55251
            ],
            [
              -119.454905,
              39.551933
            ],
            [
              -119.454965,
              39.551933
            ],
            [
              -119.454967,
              39.551765
            ],
            [
              -119.454905,
              39.551765
            ],
            [
              -119.454907,
              39.551507
            ],
            [
              -119.454861,
              39.551506
            ],
            [
              -119.454862,
              39.551422
            ],
            [
              -119.454777,
              39.551422
            ],
            [
              -119.454765,
              39.553057
            ],
            [
              -119.454877,
              39.553058
            ],
            [
              -119.45488,
              39.55269
            ],
            [
              -119.455006,
              39.552691
            ],
            [
              -119.455007,
              39.552511
            ]
          ]
        ]
      },
      "properties": {
        "epoch_id": "EPOCH-2b89e13933a04725",
        "site_name": "Google Storey County",
        "distance_to_site_km": 1.6972,
        "footprint_area_m2_webmercator": 3750.82,
        "source_dataset": "Overture Maps buildings",
        "source_url": "https://docs.overturemaps.org/getting-data/",
        "source_release": "2026-09-23.1",
        "source_accessed_on": "2026-09-28",
        "geometry_role": "current building-footprint polygon",
        "linkage_semantics": "Overlap/proximity only; not evidence that the building hosts AI compute."
      }
    },
    {
      "type": "Feature",
      "id": "ba2bb945-0392-47dd-b122-a2e4b2c708f0",
      "geometry": {
        "type": "Polygon",
        "coordinates": [
          [
            [
              -119.4530846,
              39.5487667
            ],
            [
              -119.4551565,
              39.5487902
            ],
            [
              -119.45516,
              39.5486089
            ],
            [
              -119.4550319,
              39.5486075
            ],
            [
              -119.4550859,
              39.5457952
            ],
            [
              -119.4551698,
              39.5457961
            ],
            [
              -119.4551729,
              39.5456331
            ],
            [
              -119.453147,
              39.5456103
            ],
            [
              -119.4531442,
              39.5457619
            ],
            [
              -119.4532481,
              39.545763
            ],
            [
              -119.4531948,
              39.5486002
            ],
            [
              -119.4530878,
              39.548599
            ],
            [
              -119.4530846,
              39.5487667
            ]
          ]
        ]
      },
      "properties": {
        "epoch_id": "EPOCH-2b89e13933a04725",
        "site_name": "Google Storey County",
        "distance_to_site_km": 1.3675,
        "footprint_area_m2_webmercator": 94362.04,
        "source_dataset": "Overture Maps buildings",
        "source_url": "https://docs.overturemaps.org/getting-data/",
        "source_release": "2026-09-23.1",
        "source_accessed_on": "2026-09-28",
        "geometry_role": "current building-footprint polygon",
        "linkage_semantics": "Overlap/proximity only; not evidence that the building hosts AI compute."
      }
    },
    {
      "type": "Feature",
      "id": "ec2369c0-f5d3-452e-a135-ac43e1f3c893",
      "geometry": {
        "type": "Polygon",
        "coordinates": [
          [
            [
              -119.4529971,
              39.5535099
            ],
            [
              -119.454832,
              39.553526
            ],
            [
              -119.4548353,
              39.5532996
            ],
            [
              -119.4546739,
              39.5532981
            ],
            [
              -119.4547205,
              39.550156
            ],
            [
              -119.4548818,
              39.5501574
            ],
            [
              -119.4548853,
              39.5499192
            ],
            [
              -119.4530505,
              39.549903
            ],
            [
              -119.453047,
              39.5501388
            ],
            [
              -119.4532182,
              39.5501403
            ],
            [
              -119.4531716,
              39.5532859
            ],
            [
              -119.4530004,
              39.5532844
            ],
            [
              -119.4529971,
              39.5535099
            ]
          ]
        ]
      },
      "properties": {
        "epoch_id": "EPOCH-2b89e13933a04725",
        "site_name": "Google Storey County",
        "distance_to_site_km": 1.5997,
        "footprint_area_m2_webmercator": 89571.62,
        "source_dataset": "Overture Maps buildings",
        "source_url": "https://docs.overturemaps.org/getting-data/",
        "source_release": "2026-09-23.1",
        "source_accessed_on": "2026-09-28",
        "geometry_role": "current building-footprint polygon",
        "linkage_semantics": "Overlap/proximity only; not evidence that the building hosts AI compute."
      }
    },
    {
      "type": "Feature",
      "id": "983bb787-087a-4e97-b995-c998a4d171e0",
      "geometry": {
        "type": "Polygon",
        "coordinates": [
          [
            [
              -119.4533951,
              39.5441591
            ],
            [
              -119.4534673,
              39.5441926
            ],
            [
              -119.4534885,
              39.5441654
            ],
            [
              -119.4534163,
              39.5441319
            ],
            [
              -119.4533951,
              39.5441591
            ]
          ]
        ]
      },
      "properties": {
        "epoch_id": "EPOCH-2b89e13933a04725",
        "site_name": "Google Storey County",
        "distance_to_site_km": 1.2292,
        "footprint_area_m2_webmercator": 42.97,
        "source_dataset": "Overture Maps buildings",
        "source_url": "https://docs.overturemaps.org/getting-data/",
        "source_release": "2026-09-23.1",
        "source_accessed_on": "2026-09-28",
        "geometry_role": "current building-footprint polygon",
        "linkage_semantics": "Overlap/proximity only; not evidence that the building hosts AI compute."
      }
    },
    {
      "type": "Feature",
      "id": "7aac180d-2010-4545-a991-fbfe0050d4d6",
      "geometry": {
        "type": "Polygon",
        "coordinates": [
          [
            [
              -119.45176,
              39.546933
            ],
            [
              -119.451882,
              39.546934
            ],
            [
              -119.4519,
              39.545928
            ],
            [
              -119.451779,
              39.545927
            ],
            [
              -119.45176,
              39.546933
            ]
          ]
        ]
      },
      "properties": {
        "epoch_id": "EPOCH-2b89e13933a04725",
        "site_name": "Google Storey County",
        "distance_to_site_km": 1.152,
        "footprint_area_m2_webmercator": 1964.57,
        "source_dataset": "Overture Maps buildings",
        "source_url": "https://docs.overturemaps.org/getting-data/",
        "source_release": "2026-09-23.1",
        "source_accessed_on": "2026-09-28",
        "geometry_role": "current building-footprint polygon",
        "linkage_semantics": "Overlap/proximity only; not evidence that the building hosts AI compute."
      }
    },
    {
      "type": "Feature",
      "id": "39e93ba6-d424-4a8a-8741-e726fc93fe12",
      "geometry": {
        "type": "Polygon",
        "coordinates": [
          [
            [
              -119.451752,
              39.54781
            ],
            [
              -119.451873,
              39.54781
            ],
            [
              -119.451873,
              39.547725
            ],
            [
              -119.451752,
              39.547725
            ],
            [
              -119.451752,
              39.54781
            ]
          ]
        ]
      },
      "properties": {
        "epoch_id": "EPOCH-2b89e13933a04725",
        "site_name": "Google Storey County",
        "distance_to_site_km": 1.2093,
        "footprint_area_m2_webmercator": 165.29,
        "source_dataset": "Overture Maps buildings",
        "source_url": "https://docs.overturemaps.org/getting-data/",
        "source_release": "2026-09-23.1",
        "source_accessed_on": "2026-09-28",
        "geometry_role": "current building-footprint polygon",
        "linkage_semantics": "Overlap/proximity only; not evidence that the building hosts AI compute."
      }
    },
    {
      "type": "Feature",
      "id": "5611f707-08e9-47b5-8f63-bbfc3bb1a395",
      "geometry": {
        "type": "Polygon",
        "coordinates": [
          [
            [
              -119.4498828,
              39.54889
            ],
            [
              -119.4517785,
              39.5489007
            ],
            [
              -119.45178,
              39.54874
            ],
            [
              -119.451668,
              39.5487394
            ],
            [
              -119.4516993,
              39.5454385
            ],
            [
              -119.4517891,
              39.5454391
            ],
            [
              -119.4517908,
              39.5452662
            ],
            [
              -119.449906,
              39.5452556
            ],
            [
              -119.4499043,
              39.5454292
            ],
            [
              -119.4500054,
              39.5454298
            ],
            [
              -119.4499742,
              39.5487162
            ],
            [
              -119.4498844,
              39.5487157
            ],
            [
              -119.4498828,
              39.54889
            ]
          ]
        ]
      },
      "properties": {
        "epoch_id": "EPOCH-2b89e13933a04725",
        "site_name": "Google Storey County",
        "distance_to_site_km": 1.1007,
        "footprint_area_m2_webmercator": 100012.32,
        "source_dataset": "Overture Maps buildings",
        "source_url": "https://docs.overturemaps.org/getting-data/",
        "source_release": "2026-09-23.1",
        "source_accessed_on": "2026-09-28",
        "geometry_role": "current building-footprint polygon",
        "linkage_semantics": "Overlap/proximity only; not evidence that the building hosts AI compute."
      }
    },
    {
      "type": "Feature",
      "id": "df8205cf-de5d-43fc-863e-047dacac9208",
      "geometry": {
        "type": "Polygon",
        "coordinates": [
          [
            [
              -119.4519235,
              39.5501172
            ],
            [
              -119.4519276,
              39.5499046
            ],
            [
              -119.4498604,
              39.5498808
            ],
            [
              -119.4498568,
              39.5500683
            ],
            [
              -119.4499486,
              39.5500693
            ],
            [
              -119.4498896,
              39.5531365
            ],
            [
              -119.4497855,
              39.5531353
            ],
            [
              -119.4497811,
              39.5533602
            ],
            [
              -119.4518542,
              39.5533843
            ],
            [
              -119.4518585,
              39.5531621
            ],
            [
              -119.4517299,
              39.5531606
            ],
            [
              -119.4517894,
              39.5501157
            ],
            [
              -119.4519235,
              39.5501172
            ]
          ]
        ]
      },
      "properties": {
        "epoch_id": "EPOCH-2b89e13933a04725",
        "site_name": "Google Storey County",
        "distance_to_site_km": 1.3927,
        "footprint_area_m2_webmercator": 104539.0,
        "source_dataset": "Overture Maps buildings",
        "source_url": "https://docs.overturemaps.org/getting-data/",
        "source_release": "2026-09-23.1",
        "source_accessed_on": "2026-09-28",
        "geometry_role": "current building-footprint polygon",
        "linkage_semantics": "Overlap/proximity only; not evidence that the building hosts AI compute."
      }
    },
    {
      "type": "Feature",
      "id": "445a4fd1-1130-498c-9911-86693046b4ac",
      "geometry": {
        "type": "Polygon",
        "coordinates": [
          [
            [
              -119.452213,
              39.548443
            ],
            [
              -119.452288,
              39.548443
            ],
            [
              -119.452288,
              39.548246
            ],
            [
              -119.452184,
              39.548246
            ],
            [
              -119.452184,
              39.548416
            ],
            [
              -119.452213,
              39.548416
            ],
            [
              -119.452213,
              39.548443
            ]
          ]
        ]
      },
      "properties": {
        "epoch_id": "EPOCH-2b89e13933a04725",
        "site_name": "Google Storey County",
        "distance_to_site_km": 1.2711,
        "footprint_area_m2_webmercator": 316.68,
        "source_dataset": "Overture Maps buildings",
        "source_url": "https://docs.overturemaps.org/getting-data/",
        "source_release": "2026-09-23.1",
        "source_accessed_on": "2026-09-28",
        "geometry_role": "current building-footprint polygon",
        "linkage_semantics": "Overlap/proximity only; not evidence that the building hosts AI compute."
      }
    },
    {
      "type": "Feature",
      "id": "26c540b2-c7ac-47de-8e48-c7ffd47a13b0",
      "geometry": {
        "type": "Polygon",
        "coordinates": [
          [
            [
              -119.452082,
              39.549014
            ],
            [
              -119.452082,
              39.549092
            ],
            [
              -119.452192,
              39.549092
            ],
            [
              -119.452192,
              39.549014
            ],
            [
              -119.452082,
              39.549014
            ]
          ]
        ]
      },
      "properties": {
        "epoch_id": "EPOCH-2b89e13933a04725",
        "site_name": "Google Storey County",
        "distance_to_site_km": 1.3033,
        "footprint_area_m2_webmercator": 137.89,
        "source_dataset": "Overture Maps buildings",
        "source_url": "https://docs.overturemaps.org/getting-data/",
        "source_release": "2026-09-23.1",
        "source_accessed_on": "2026-09-28",
        "geometry_role": "current building-footprint polygon",
        "linkage_semantics": "Overlap/proximity only; not evidence that the building hosts AI compute."
      }
    },
    {
      "type": "Feature",
      "id": "0e1bec2c-4d96-48b6-977d-e04ea37c591c",
      "geometry": {
        "type": "Polygon",
        "coordinates": [
          [
            [
              -119.452335,
              39.545777
            ],
            [
              -119.45215,
              39.545775
            ],
            [
              -119.452136,
              39.546925
            ],
            [
              -119.452321,
              39.546927
            ],
            [
              -119.452335,
              39.545777
            ]
          ]
        ]
      },
      "properties": {
        "epoch_id": "EPOCH-2b89e13933a04725",
        "site_name": "Google Storey County",
        "distance_to_site_km": 1.1818,
        "footprint_area_m2_webmercator": 3419.42,
        "source_dataset": "Overture Maps buildings",
        "source_url": "https://docs.overturemaps.org/getting-data/",
        "source_release": "2026-09-23.1",
        "source_accessed_on": "2026-09-28",
        "geometry_role": "current building-footprint polygon",
        "linkage_semantics": "Overlap/proximity only; not evidence that the building hosts AI compute."
      }
    },
    {
      "type": "Feature",
      "id": "90bcfb2b-ac5c-4967-993b-d581e53da625",
      "geometry": {
        "type": "Polygon",
        "coordinates": [
          [
            [
              -119.4461869,
              39.5531976
            ],
            [
              -119.4461892,
              39.5533711
            ],
            [
              -119.4481882,
              39.5533768
            ],
            [
              -119.4481859,
              39.5532094
            ],
            [
              -119.4480925,
              39.553213
            ],
            [
              -119.4481803,
              39.551937
            ],
            [
              -119.4481347,
              39.5501315
            ],
            [
              -119.4482125,
              39.5501295
            ],
            [
              -119.4482152,
              39.5499557
            ],
            [
              -119.4481171,
              39.5499559
            ],
            [
              -119.4462089,
              39.5499599
            ],
            [
              -119.4462169,
              39.5501295
            ],
            [
              -119.4463403,
              39.5501212
            ],
            [
              -119.4463296,
              39.5521149
            ],
            [
              -119.4462995,
              39.5532058
            ],
            [
              -119.4461869,
              39.5531976
            ]
          ]
        ]
      },
      "properties": {
        "epoch_id": "EPOCH-2b89e13933a04725",
        "site_name": "Google Storey County",
        "distance_to_site_km": 1.1937,
        "footprint_area_m2_webmercator": 100957.33,
        "source_dataset": "Overture Maps buildings",
        "source_url": "https://docs.overturemaps.org/getting-data/",
        "source_release": "2026-09-23.1",
        "source_accessed_on": "2026-09-28",
        "geometry_role": "current building-footprint polygon",
        "linkage_semantics": "Overlap/proximity only; not evidence that the building hosts AI compute."
      }
    },
    {
      "type": "Feature",
      "id": "bff70de9-6c0e-4950-8ba2-8969f15792cd",
      "geometry": {
        "type": "Polygon",
        "coordinates": [
          [
            [
              -119.4448184,
              39.5372014
            ],
            [
              -119.4448773,
              39.5373425
            ],
            [
              -119.4449938,
              39.5373136
            ],
            [
              -119.4449349,
              39.5371725
            ],
            [
              -119.4448184,
              39.5372014
            ]
          ]
        ]
      },
      "properties": {
        "epoch_id": "EPOCH-2b89e13933a04725",
        "site_name": "Google Storey County",
        "distance_to_site_km": 0.7957,
        "footprint_area_m2_webmercator": 291.48,
        "source_dataset": "Overture Maps buildings",
        "source_url": "https://docs.overturemaps.org/getting-data/",
        "source_release": "2026-09-23.1",
        "source_accessed_on": "2026-09-28",
        "geometry_role": "current building-footprint polygon",
        "linkage_semantics": "Overlap/proximity only; not evidence that the building hosts AI compute."
      }
    },
    {
      "type": "Feature",
      "id": "a24f4718-daa6-40cd-907c-233abf8b5306",
      "geometry": {
        "type": "Polygon",
        "coordinates": [
          [
            [
              -119.4447619,
              39.5376339
            ],
            [
              -119.4447936,
              39.5376998
            ],
            [
              -119.4449935,
              39.5376492
            ],
            [
              -119.4449662,
              39.5375788
            ],
            [
              -119.4447619,
              39.5376339
            ]
          ]
        ]
      },
      "properties": {
        "epoch_id": "EPOCH-2b89e13933a04725",
        "site_name": "Google Storey County",
        "distance_to_site_km": 0.7611,
        "footprint_area_m2_webmercator": 246.36,
        "source_dataset": "Overture Maps buildings",
        "source_url": "https://docs.overturemaps.org/getting-data/",
        "source_release": "2026-09-23.1",
        "source_accessed_on": "2026-09-28",
        "geometry_role": "current building-footprint polygon",
        "linkage_semantics": "Overlap/proximity only; not evidence that the building hosts AI compute."
      }
    },
    {
      "type": "Feature",
      "id": "93376015-312d-40a8-8f96-804049fb5e32",
      "geometry": {
        "type": "Polygon",
        "coordinates": [
          [
            [
              -119.4445811,
              39.537221
            ],
            [
              -119.444596,
              39.5372539
            ],
            [
              -119.4448003,
              39.5371988
            ],
            [
              -119.4447854,
              39.5371659
            ],
            [
              -119.4445811,
              39.537221
            ]
          ]
        ]
      },
      "properties": {
        "epoch_id": "EPOCH-2b89e13933a04725",
        "site_name": "Google Storey County",
        "distance_to_site_km": 0.7887,
        "footprint_area_m2_webmercator": 121.19,
        "source_dataset": "Overture Maps buildings",
        "source_url": "https://docs.overturemaps.org/getting-data/",
        "source_release": "2026-09-23.1",
        "source_accessed_on": "2026-09-28",
        "geometry_role": "current building-footprint polygon",
        "linkage_semantics": "Overlap/proximity only; not evidence that the building hosts AI compute."
      }
    },
    {
      "type": "Feature",
      "id": "f3fac91b-05da-4919-b118-b935ef571ea8",
      "geometry": {
        "type": "Polygon",
        "coordinates": [
          [
            [
              -119.4445255,
              39.5370946
            ],
            [
              -119.4445656,
              39.5371923
            ],
            [
              -119.4447771,
              39.5371406
            ],
            [
              -119.4447369,
              39.5370429
            ],
            [
              -119.4445255,
              39.5370946
            ]
          ]
        ]
      },
      "properties": {
        "epoch_id": "EPOCH-2b89e13933a04725",
        "site_name": "Google Storey County",
        "distance_to_site_km": 0.7949,
        "footprint_area_m2_webmercator": 365.3,
        "source_dataset": "Overture Maps buildings",
        "source_url": "https://docs.overturemaps.org/getting-data/",
        "source_release": "2026-09-23.1",
        "source_accessed_on": "2026-09-28",
        "geometry_role": "current building-footprint polygon",
        "linkage_semantics": "Overlap/proximity only; not evidence that the building hosts AI compute."
      }
    },
    {
      "type": "Feature",
      "id": "fbe12e55-4971-4559-a3ca-d4b2329e9883",
      "geometry": {
        "type": "Polygon",
        "coordinates": [
          [
            [
              -119.4445406,
              39.5364823
            ],
            [
              -119.4445555,
              39.5365151
            ],
            [
              -119.4447598,
              39.53646
            ],
            [
              -119.4447449,
              39.5364272
            ],
            [
              -119.4445406,
              39.5364823
            ]
          ]
        ]
      },
      "properties": {
        "epoch_id": "EPOCH-2b89e13933a04725",
        "site_name": "Google Storey County",
        "distance_to_site_km": 0.8541,
        "footprint_area_m2_webmercator": 120.86,
        "source_dataset": "Overture Maps buildings",
        "source_url": "https://docs.overturemaps.org/getting-data/",
        "source_release": "2026-09-23.1",
        "source_accessed_on": "2026-09-28",
        "geometry_role": "current building-footprint polygon",
        "linkage_semantics": "Overlap/proximity only; not evidence that the building hosts AI compute."
      }
    },
    {
      "type": "Feature",
      "id": "497455fd-65cf-4591-ad07-e734dd988312",
      "geometry": {
        "type": "Polygon",
        "coordinates": [
          [
            [
              -119.4446296,
              39.5366848
            ],
            [
              -119.4446445,
              39.5367177
            ],
            [
              -119.4448488,
              39.5366626
            ],
            [
              -119.4448339,
              39.5366297
            ],
            [
              -119.4446296,
              39.5366848
            ]
          ]
        ]
      },
      "properties": {
        "epoch_id": "EPOCH-2b89e13933a04725",
        "site_name": "Google Storey County",
        "distance_to_site_km": 0.8396,
        "footprint_area_m2_webmercator": 121.19,
        "source_dataset": "Overture Maps buildings",
        "source_url": "https://docs.overturemaps.org/getting-data/",
        "source_release": "2026-09-23.1",
        "source_accessed_on": "2026-09-28",
        "geometry_role": "current building-footprint polygon",
        "linkage_semantics": "Overlap/proximity only; not evidence that the building hosts AI compute."
      }
    },
    {
      "type": "Feature",
      "id": "a1549082-4972-465e-86e6-ef343321e63c",
      "geometry": {
        "type": "Polygon",
        "coordinates": [
          [
            [
              -119.4441584,
              39.5362573
            ],
            [
              -119.4442265,
              39.5364149
            ],
            [
              -119.4444203,
              39.5363644
            ],
            [
              -119.4443593,
              39.5362061
            ],
            [
              -119.4441584,
              39.5362573
            ]
          ]
        ]
      },
      "properties": {
        "epoch_id": "EPOCH-2b89e13933a04725",
        "site_name": "Google Storey County",
        "distance_to_site_km": 0.8529,
        "footprint_area_m2_webmercator": 553.61,
        "source_dataset": "Overture Maps buildings",
        "source_url": "https://docs.overturemaps.org/getting-data/",
        "source_release": "2026-09-23.1",
        "source_accessed_on": "2026-09-28",
        "geometry_role": "current building-footprint polygon",
        "linkage_semantics": "Overlap/proximity only; not evidence that the building hosts AI compute."
      }
    },
    {
      "type": "Feature",
      "id": "c3636e4c-774c-4e26-af2b-b57afb3d209f",
      "geometry": {
        "type": "Polygon",
        "coordinates": [
          [
            [
              -119.4444471,
              39.5363768
            ],
            [
              -119.4444873,
              39.5364745
            ],
            [
              -119.4447354,
              39.5364109
            ],
            [
              -119.4446997,
              39.5363111
            ],
            [
              -119.4444471,
              39.5363768
            ]
          ]
        ]
      },
      "properties": {
        "epoch_id": "EPOCH-2b89e13933a04725",
        "site_name": "Google Storey County",
        "distance_to_site_km": 0.8587,
        "footprint_area_m2_webmercator": 436.66,
        "source_dataset": "Overture Maps buildings",
        "source_url": "https://docs.overturemaps.org/getting-data/",
        "source_release": "2026-09-23.1",
        "source_accessed_on": "2026-09-28",
        "geometry_role": "current building-footprint polygon",
        "linkage_semantics": "Overlap/proximity only; not evidence that the building hosts AI compute."
      }
    },
    {
      "type": "Feature",
      "id": "36932e73-9c39-4465-bd71-5c4776890646",
      "geometry": {
        "type": "Polygon",
        "coordinates": [
          [
            [
              -119.4444246,
              39.5368676
            ],
            [
              -119.4444395,
              39.5369005
            ],
            [
              -119.4446437,
              39.5368454
            ],
            [
              -119.4446288,
              39.5368125
            ],
            [
              -119.4444246,
              39.5368676
            ]
          ]
        ]
      },
      "properties": {
        "epoch_id": "EPOCH-2b89e13933a04725",
        "site_name": "Google Storey County",
        "distance_to_site_km": 0.8129,
        "footprint_area_m2_webmercator": 121.14,
        "source_dataset": "Overture Maps buildings",
        "source_url": "https://docs.overturemaps.org/getting-data/",
        "source_release": "2026-09-23.1",
        "source_accessed_on": "2026-09-28",
        "geometry_role": "current building-footprint polygon",
        "linkage_semantics": "Overlap/proximity only; not evidence that the building hosts AI compute."
      }
    },
    {
      "type": "Feature",
      "id": "d9fe35b9-4835-4903-a4e3-bb1a83b28137",
      "geometry": {
        "type": "Polygon",
        "coordinates": [
          [
            [
              -119.444278,
              39.5365624
            ],
            [
              -119.4442929,
              39.5365953
            ],
            [
              -119.4444971,
              39.5365402
            ],
            [
              -119.4444822,
              39.5365073
            ],
            [
              -119.444278,
              39.5365624
            ]
          ]
        ]
      },
      "properties": {
        "epoch_id": "EPOCH-2b89e13933a04725",
        "site_name": "Google Storey County",
        "distance_to_site_km": 0.8344,
        "footprint_area_m2_webmercator": 121.14,
        "source_dataset": "Overture Maps buildings",
        "source_url": "https://docs.overturemaps.org/getting-data/",
        "source_release": "2026-09-23.1",
        "source_accessed_on": "2026-09-28",
        "geometry_role": "current building-footprint polygon",
        "linkage_semantics": "Overlap/proximity only; not evidence that the building hosts AI compute."
      }
    },
    {
      "type": "Feature",
      "id": "70a29834-1e52-4232-b9c1-a754356e5727",
      "geometry": {
        "type": "Polygon",
        "coordinates": [
          [
            [
              -119.4424199,
              39.5456559
            ],
            [
              -119.4424892,
              39.5483042
            ],
            [
              -119.4482767,
              39.5482143
            ],
            [
              -119.4481907,
              39.5449211
            ],
            [
              -119.4464344,
              39.5449483
            ],
            [
              -119.4464472,
              39.5454427
            ],
            [
              -119.4459023,
              39.5454511
            ],
            [
              -119.4459062,
              39.5456016
            ],
            [
              -119.4424199,
              39.5456559
            ]
          ]
        ]
      },
      "properties": {
        "epoch_id": "EPOCH-2b89e13933a04725",
        "site_name": "Google Storey County",
        "distance_to_site_km": 0.6928,
        "footprint_area_m2_webmercator": 265950.84,
        "source_dataset": "Overture Maps buildings",
        "source_url": "https://docs.overturemaps.org/getting-data/",
        "source_release": "2026-09-23.1",
        "source_accessed_on": "2026-09-28",
        "geometry_role": "current building-footprint polygon",
        "linkage_semantics": "Overlap/proximity only; not evidence that the building hosts AI compute."
      }
    },
    {
      "type": "Feature",
      "id": "94f1573f-29ec-47f9-bd18-d16ab790a783",
      "geometry": {
        "type": "Polygon",
        "coordinates": [
          [
            [
              -119.4381838,
              39.5425773
            ],
            [
              -119.4399532,
              39.5425695
            ],
            [
              -119.4399205,
              39.5382156
            ],
            [
              -119.4399108,
              39.5369312
            ],
            [
              -119.4416948,
              39.5369233
            ],
            [
              -119.4416749,
              39.5342118
            ],
            [
              -119.438123,
              39.5342272
            ],
            [
              -119.4381838,
              39.5425773
            ]
          ]
        ]
      },
      "properties": {
        "epoch_id": "EPOCH-2b89e13933a04725",
        "site_name": "Google Storey County",
        "distance_to_site_km": 0.5785,
        "footprint_area_m2_webmercator": 315022.43,
        "source_dataset": "Overture Maps buildings",
        "source_url": "https://docs.overturemaps.org/getting-data/",
        "source_release": "2026-09-23.1",
        "source_accessed_on": "2026-09-28",
        "geometry_role": "current building-footprint polygon",
        "linkage_semantics": "Overlap/proximity only; not evidence that the building hosts AI compute."
      }
    },
    {
      "type": "Feature",
      "id": "68f1b4d7-0d49-4fce-9b11-b1cd753fd444",
      "geometry": {
        "type": "Polygon",
        "coordinates": [
          [
            [
              -119.4383386,
              39.5551287
            ],
            [
              -119.4380892,
              39.5552433
            ],
            [
              -119.4385142,
              39.555823
            ],
            [
              -119.439112,
              39.5555566
            ],
            [
              -119.4392614,
              39.5557726
            ],
            [
              -119.4396747,
              39.5555764
            ],
            [
              -119.439161,
              39.5548995
            ],
            [
              -119.4392778,
              39.5548455
            ],
            [
              -119.439161,
              39.5546889
            ],
            [
              -119.4385095,
              39.5550021
            ],
            [
              -119.4385399,
              39.5550363
            ],
            [
              -119.4383386,
              39.5551287
            ]
          ]
        ]
      },
      "properties": {
        "epoch_id": "EPOCH-2b89e13933a04725",
        "site_name": "Google Storey County",
        "distance_to_site_km": 1.3805,
        "footprint_area_m2_webmercator": 15193.65,
        "source_dataset": "Overture Maps buildings",
        "source_url": "https://docs.overturemaps.org/getting-data/",
        "source_release": "2026-09-23.1",
        "source_accessed_on": "2026-09-28",
        "geometry_role": "current building-footprint polygon",
        "linkage_semantics": "Overlap/proximity only; not evidence that the building hosts AI compute."
      }
    },
    {
      "type": "Feature",
      "id": "249eecf3-31e5-47a3-9a9a-068484f8f5f3",
      "geometry": {
        "type": "Polygon",
        "coordinates": [
          [
            [
              -119.4375117,
              39.5397917
            ],
            [
              -119.4375555,
              39.5397908
            ],
            [
              -119.437551,
              39.5396612
            ],
            [
              -119.4375072,
              39.5396621
            ],
            [
              -119.4375117,
              39.5397917
            ]
          ]
        ]
      },
      "properties": {
        "epoch_id": "EPOCH-2b89e13933a04725",
        "site_name": "Google Storey County",
        "distance_to_site_km": 0.3808,
        "footprint_area_m2_webmercator": 91.28,
        "source_dataset": "Overture Maps buildings",
        "source_url": "https://docs.overturemaps.org/getting-data/",
        "source_release": "2026-09-23.1",
        "source_accessed_on": "2026-09-28",
        "geometry_role": "current building-footprint polygon",
        "linkage_semantics": "Overlap/proximity only; not evidence that the building hosts AI compute."
      }
    },
    {
      "type": "Feature",
      "id": "05ccba1c-ef31-46d1-952a-527b95e731e0",
      "geometry": {
        "type": "Polygon",
        "coordinates": [
          [
            [
              -119.4375074,
              39.5396364
            ],
            [
              -119.4375513,
              39.5396355
            ],
            [
              -119.4375467,
              39.539506
            ],
            [
              -119.4375029,
              39.5395069
            ],
            [
              -119.4375074,
              39.5396364
            ]
          ]
        ]
      },
      "properties": {
        "epoch_id": "EPOCH-2b89e13933a04725",
        "site_name": "Google Storey County",
        "distance_to_site_km": 0.397,
        "footprint_area_m2_webmercator": 91.31,
        "source_dataset": "Overture Maps buildings",
        "source_url": "https://docs.overturemaps.org/getting-data/",
        "source_release": "2026-09-23.1",
        "source_accessed_on": "2026-09-28",
        "geometry_role": "current building-footprint polygon",
        "linkage_semantics": "Overlap/proximity only; not evidence that the building hosts AI compute."
      }
    },
    {
      "type": "Feature",
      "id": "6f7bc981-f858-4c1d-ad70-ca206c359951",
      "geometry": {
        "type": "Polygon",
        "coordinates": [
          [
            [
              -119.4373933,
              39.536191
            ],
            [
              -119.4376073,
              39.5361916
            ],
            [
              -119.4376084,
              39.535968
            ],
            [
              -119.4373944,
              39.5359674
            ],
            [
              -119.4373933,
              39.536191
            ]
          ]
        ]
      },
      "properties": {
        "epoch_id": "EPOCH-2b89e13933a04725",
        "site_name": "Google Storey County",
        "distance_to_site_km": 0.7723,
        "footprint_area_m2_webmercator": 768.87,
        "source_dataset": "Overture Maps buildings",
        "source_url": "https://docs.overturemaps.org/getting-data/",
        "source_release": "2026-09-23.1",
        "source_accessed_on": "2026-09-28",
        "geometry_role": "current building-footprint polygon",
        "linkage_semantics": "Overlap/proximity only; not evidence that the building hosts AI compute."
      }
    },
    {
      "type": "Feature",
      "id": "55691b8a-076d-4e25-b39d-d88b4fe7db54",
      "geometry": {
        "type": "Polygon",
        "coordinates": [
          [
            [
              -119.437647,
              39.5382591
            ],
            [
              -119.4376372,
              39.5375082
            ],
            [
              -119.4372832,
              39.537511
            ],
            [
              -119.437293,
              39.5382619
            ],
            [
              -119.437647,
              39.5382591
            ]
          ]
        ]
      },
      "properties": {
        "epoch_id": "EPOCH-2b89e13933a04725",
        "site_name": "Google Storey County",
        "distance_to_site_km": 0.5771,
        "footprint_area_m2_webmercator": 4271.73,
        "source_dataset": "Overture Maps buildings",
        "source_url": "https://docs.overturemaps.org/getting-data/",
        "source_release": "2026-09-23.1",
        "source_accessed_on": "2026-09-28",
        "geometry_role": "current building-footprint polygon",
        "linkage_semantics": "Overlap/proximity only; not evidence that the building hosts AI compute."
      }
    },
    {
      "type": "Feature",
      "id": "e05e3949-5cca-4de6-a27d-17b0ff9b22ff",
      "geometry": {
        "type": "Polygon",
        "coordinates": [
          [
            [
              -119.4371364,
              39.5385659
            ],
            [
              -119.4374483,
              39.5385633
            ],
            [
              -119.4374463,
              39.5384224
            ],
            [
              -119.4371345,
              39.5384249
            ],
            [
              -119.4371364,
              39.5385659
            ]
          ]
        ]
      },
      "properties": {
        "epoch_id": "EPOCH-2b89e13933a04725",
        "site_name": "Google Storey County",
        "distance_to_site_km": 0.5165,
        "footprint_area_m2_webmercator": 706.38,
        "source_dataset": "Overture Maps buildings",
        "source_url": "https://docs.overturemaps.org/getting-data/",
        "source_release": "2026-09-23.1",
        "source_accessed_on": "2026-09-28",
        "geometry_role": "current building-footprint polygon",
        "linkage_semantics": "Overlap/proximity only; not evidence that the building hosts AI compute."
      }
    },
    {
      "type": "Feature",
      "id": "57764e3f-9b1a-4281-84ef-758ab95df45f",
      "geometry": {
        "type": "Polygon",
        "coordinates": [
          [
            [
              -119.436639,
              39.5382789
            ],
            [
              -119.4366399,
              39.5383573
            ],
            [
              -119.4368073,
              39.5383562
            ],
            [
              -119.4368065,
              39.5382778
            ],
            [
              -119.436639,
              39.5382789
            ]
          ]
        ]
      },
      "properties": {
        "epoch_id": "EPOCH-2b89e13933a04725",
        "site_name": "Google Storey County",
        "distance_to_site_km": 0.552,
        "footprint_area_m2_webmercator": 210.96,
        "source_dataset": "Overture Maps buildings",
        "source_url": "https://docs.overturemaps.org/getting-data/",
        "source_release": "2026-09-23.1",
        "source_accessed_on": "2026-09-28",
        "geometry_role": "current building-footprint polygon",
        "linkage_semantics": "Overlap/proximity only; not evidence that the building hosts AI compute."
      }
    },
    {
      "type": "Feature",
      "id": "3343a239-8009-4e60-9410-b009295ca15b",
      "geometry": {
        "type": "Polygon",
        "coordinates": [
          [
            [
              -119.4366449,
              39.5383765
            ],
            [
              -119.4366458,
              39.5384548
            ],
            [
              -119.4368132,
              39.5384537
            ],
            [
              -119.4368124,
              39.5383754
            ],
            [
              -119.4366449,
              39.5383765
            ]
          ]
        ]
      },
      "properties": {
        "epoch_id": "EPOCH-2b89e13933a04725",
        "site_name": "Google Storey County",
        "distance_to_site_km": 0.5418,
        "footprint_area_m2_webmercator": 210.7,
        "source_dataset": "Overture Maps buildings",
        "source_url": "https://docs.overturemaps.org/getting-data/",
        "source_release": "2026-09-23.1",
        "source_accessed_on": "2026-09-28",
        "geometry_role": "current building-footprint polygon",
        "linkage_semantics": "Overlap/proximity only; not evidence that the building hosts AI compute."
      }
    },
    {
      "type": "Feature",
      "id": "3dabc736-bf36-47b2-ba1e-c345d1e7a724",
      "geometry": {
        "type": "Polygon",
        "coordinates": [
          [
            [
              -119.4366467,
              39.5384652
            ],
            [
              -119.4366475,
              39.5385436
            ],
            [
              -119.436815,
              39.5385424
            ],
            [
              -119.4368141,
              39.5384641
            ],
            [
              -119.4366467,
              39.5384652
            ]
          ]
        ]
      },
      "properties": {
        "epoch_id": "EPOCH-2b89e13933a04725",
        "site_name": "Google Storey County",
        "distance_to_site_km": 0.5327,
        "footprint_area_m2_webmercator": 210.83,
        "source_dataset": "Overture Maps buildings",
        "source_url": "https://docs.overturemaps.org/getting-data/",
        "source_release": "2026-09-23.1",
        "source_accessed_on": "2026-09-28",
        "geometry_role": "current building-footprint polygon",
        "linkage_semantics": "Overlap/proximity only; not evidence that the building hosts AI compute."
      }
    },
    {
      "type": "Feature",
      "id": "470f0055-8bdf-4dfb-be66-c31de73473fd",
      "geometry": {
        "type": "Polygon",
        "coordinates": [
          [
            [
              -119.4366467,
              39.538558
            ],
            [
              -119.4366475,
              39.5386364
            ],
            [
              -119.436815,
              39.5386352
            ],
            [
              -119.4368141,
              39.5385569
            ],
            [
              -119.4366467,
              39.538558
            ]
          ]
        ]
      },
      "properties": {
        "epoch_id": "EPOCH-2b89e13933a04725",
        "site_name": "Google Storey County",
        "distance_to_site_km": 0.5233,
        "footprint_area_m2_webmercator": 210.83,
        "source_dataset": "Overture Maps buildings",
        "source_url": "https://docs.overturemaps.org/getting-data/",
        "source_release": "2026-09-23.1",
        "source_accessed_on": "2026-09-28",
        "geometry_role": "current building-footprint polygon",
        "linkage_semantics": "Overlap/proximity only; not evidence that the building hosts AI compute."
      }
    },
    {
      "type": "Feature",
      "id": "68f695b0-29d2-4ab9-bc9f-ece5c8b7b13e",
      "geometry": {
        "type": "Polygon",
        "coordinates": [
          [
            [
              -119.4366502,
              39.5386521
            ],
            [
              -119.4366511,
              39.5387305
            ],
            [
              -119.4368185,
              39.5387294
            ],
            [
              -119.4368177,
              39.538651
            ],
            [
              -119.4366502,
              39.5386521
            ]
          ]
        ]
      },
      "properties": {
        "epoch_id": "EPOCH-2b89e13933a04725",
        "site_name": "Google Storey County",
        "distance_to_site_km": 0.5136,
        "footprint_area_m2_webmercator": 210.97,
        "source_dataset": "Overture Maps buildings",
        "source_url": "https://docs.overturemaps.org/getting-data/",
        "source_release": "2026-09-23.1",
        "source_accessed_on": "2026-09-28",
        "geometry_role": "current building-footprint polygon",
        "linkage_semantics": "Overlap/proximity only; not evidence that the building hosts AI compute."
      }
    },
    {
      "type": "Feature",
      "id": "06f12352-254c-4e16-b77d-a3f3226d547d",
      "geometry": {
        "type": "Polygon",
        "coordinates": [
          [
            [
              -119.4366591,
              39.5389278
            ],
            [
              -119.4366599,
              39.5390062
            ],
            [
              -119.4368274,
              39.5390051
            ],
            [
              -119.4368265,
              39.5389267
            ],
            [
              -119.4366591,
              39.5389278
            ]
          ]
        ]
      },
      "properties": {
        "epoch_id": "EPOCH-2b89e13933a04725",
        "site_name": "Google Storey County",
        "distance_to_site_km": 0.4855,
        "footprint_area_m2_webmercator": 210.97,
        "source_dataset": "Overture Maps buildings",
        "source_url": "https://docs.overturemaps.org/getting-data/",
        "source_release": "2026-09-23.1",
        "source_accessed_on": "2026-09-28",
        "geometry_role": "current building-footprint polygon",
        "linkage_semantics": "Overlap/proximity only; not evidence that the building hosts AI compute."
      }
    },
    {
      "type": "Feature",
      "id": "d2172830-8a80-4436-9f6e-3bc7b3e7f4eb",
      "geometry": {
        "type": "Polygon",
        "coordinates": [
          [
            [
              -119.4366591,
              39.5390206
            ],
            [
              -119.4366599,
              39.539099
            ],
            [
              -119.4368274,
              39.5390979
            ],
            [
              -119.4368265,
              39.5390195
            ],
            [
              -119.4366591,
              39.5390206
            ]
          ]
        ]
      },
      "properties": {
        "epoch_id": "EPOCH-2b89e13933a04725",
        "site_name": "Google Storey County",
        "distance_to_site_km": 0.4762,
        "footprint_area_m2_webmercator": 210.97,
        "source_dataset": "Overture Maps buildings",
        "source_url": "https://docs.overturemaps.org/getting-data/",
        "source_release": "2026-09-23.1",
        "source_accessed_on": "2026-09-28",
        "geometry_role": "current building-footprint polygon",
        "linkage_semantics": "Overlap/proximity only; not evidence that the building hosts AI compute."
      }
    },
    {
      "type": "Feature",
      "id": "6396ead6-c426-4564-9f8a-d04d333ec05c",
      "geometry": {
        "type": "Polygon",
        "coordinates": [
          [
            [
              -119.4368464,
              39.53954
            ],
            [
              -119.4368468,
              39.5394512
            ],
            [
              -119.4366593,
              39.5394507
            ],
            [
              -119.4366589,
              39.5395395
            ],
            [
              -119.4368464,
              39.53954
            ]
          ]
        ]
      },
      "properties": {
        "epoch_id": "EPOCH-2b89e13933a04725",
        "site_name": "Google Storey County",
        "distance_to_site_km": 0.4328,
        "footprint_area_m2_webmercator": 267.55,
        "source_dataset": "Overture Maps buildings",
        "source_url": "https://docs.overturemaps.org/getting-data/",
        "source_release": "2026-09-23.1",
        "source_accessed_on": "2026-09-28",
        "geometry_role": "current building-footprint polygon",
        "linkage_semantics": "Overlap/proximity only; not evidence that the building hosts AI compute."
      }
    },
    {
      "type": "Feature",
      "id": "6e05ea4f-c90b-4387-8470-cb9a100c2221",
      "geometry": {
        "type": "Polygon",
        "coordinates": [
          [
            [
              -119.4366555,
              39.5391243
            ],
            [
              -119.4366564,
              39.5392027
            ],
            [
              -119.4368238,
              39.5392016
            ],
            [
              -119.436823,
              39.5391232
            ],
            [
              -119.4366555,
              39.5391243
            ]
          ]
        ]
      },
      "properties": {
        "epoch_id": "EPOCH-2b89e13933a04725",
        "site_name": "Google Storey County",
        "distance_to_site_km": 0.466,
        "footprint_area_m2_webmercator": 210.97,
        "source_dataset": "Overture Maps buildings",
        "source_url": "https://docs.overturemaps.org/getting-data/",
        "source_release": "2026-09-23.1",
        "source_accessed_on": "2026-09-28",
        "geometry_role": "current building-footprint polygon",
        "linkage_semantics": "Overlap/proximity only; not evidence that the building hosts AI compute."
      }
    },
    {
      "type": "Feature",
      "id": "b9bee8d2-74a5-4df5-bd76-39a728e24f13",
      "geometry": {
        "type": "Polygon",
        "coordinates": [
          [
            [
              -119.4366538,
              39.5387449
            ],
            [
              -119.4366546,
              39.5388233
            ],
            [
              -119.4368221,
              39.5388222
            ],
            [
              -119.4368212,
              39.5387438
            ],
            [
              -119.4366538,
              39.5387449
            ]
          ]
        ]
      },
      "properties": {
        "epoch_id": "EPOCH-2b89e13933a04725",
        "site_name": "Google Storey County",
        "distance_to_site_km": 0.5041,
        "footprint_area_m2_webmercator": 210.97,
        "source_dataset": "Overture Maps buildings",
        "source_url": "https://docs.overturemaps.org/getting-data/",
        "source_release": "2026-09-23.1",
        "source_accessed_on": "2026-09-28",
        "geometry_role": "current building-footprint polygon",
        "linkage_semantics": "Overlap/proximity only; not evidence that the building hosts AI compute."
      }
    },
    {
      "type": "Feature",
      "id": "4c532692-630f-4a5e-b359-84dc3e22e84f",
      "geometry": {
        "type": "Polygon",
        "coordinates": [
          [
            [
              -119.4366608,
              39.5388391
            ],
            [
              -119.4366617,
              39.5389175
            ],
            [
              -119.4368291,
              39.5389164
            ],
            [
              -119.4368283,
              39.538838
            ],
            [
              -119.4366608,
              39.5388391
            ]
          ]
        ]
      },
      "properties": {
        "epoch_id": "EPOCH-2b89e13933a04725",
        "site_name": "Google Storey County",
        "distance_to_site_km": 0.4943,
        "footprint_area_m2_webmercator": 210.97,
        "source_dataset": "Overture Maps buildings",
        "source_url": "https://docs.overturemaps.org/getting-data/",
        "source_release": "2026-09-23.1",
        "source_accessed_on": "2026-09-28",
        "geometry_role": "current building-footprint polygon",
        "linkage_semantics": "Overlap/proximity only; not evidence that the building hosts AI compute."
      }
    },
    {
      "type": "Feature",
      "id": "6d75658a-231f-4242-9998-a630514138e9",
      "geometry": {
        "type": "Polygon",
        "coordinates": [
          [
            [
              -119.4369365,
              39.5384651
            ],
            [
              -119.4369373,
              39.5385435
            ],
            [
              -119.4371048,
              39.5385424
            ],
            [
              -119.4371039,
              39.538464
            ],
            [
              -119.4369365,
              39.5384651
            ]
          ]
        ]
      },
      "properties": {
        "epoch_id": "EPOCH-2b89e13933a04725",
        "site_name": "Google Storey County",
        "distance_to_site_km": 0.5233,
        "footprint_area_m2_webmercator": 210.96,
        "source_dataset": "Overture Maps buildings",
        "source_url": "https://docs.overturemaps.org/getting-data/",
        "source_release": "2026-09-23.1",
        "source_accessed_on": "2026-09-28",
        "geometry_role": "current building-footprint polygon",
        "linkage_semantics": "Overlap/proximity only; not evidence that the building hosts AI compute."
      }
    },
    {
      "type": "Feature",
      "id": "58499d1e-7ce9-48fb-96af-8e8710294abe",
      "geometry": {
        "type": "Polygon",
        "coordinates": [
          [
            [
              -119.4369365,
              39.5385601
            ],
            [
              -119.4369373,
              39.5386385
            ],
            [
              -119.4371048,
              39.5386374
            ],
            [
              -119.4371039,
              39.538559
            ],
            [
              -119.4369365,
              39.5385601
            ]
          ]
        ]
      },
      "properties": {
        "epoch_id": "EPOCH-2b89e13933a04725",
        "site_name": "Google Storey County",
        "distance_to_site_km": 0.5135,
        "footprint_area_m2_webmercator": 210.96,
        "source_dataset": "Overture Maps buildings",
        "source_url": "https://docs.overturemaps.org/getting-data/",
        "source_release": "2026-09-23.1",
        "source_accessed_on": "2026-09-28",
        "geometry_role": "current building-footprint polygon",
        "linkage_semantics": "Overlap/proximity only; not evidence that the building hosts AI compute."
      }
    },
    {
      "type": "Feature",
      "id": "3883b657-5956-4ac4-9b5a-819e6df29296",
      "geometry": {
        "type": "Polygon",
        "coordinates": [
          [
            [
              -119.4369395,
              39.5386516
            ],
            [
              -119.4369404,
              39.53873
            ],
            [
              -119.4371078,
              39.5387289
            ],
            [
              -119.437107,
              39.5386505
            ],
            [
              -119.4369395,
              39.5386516
            ]
          ]
        ]
      },
      "properties": {
        "epoch_id": "EPOCH-2b89e13933a04725",
        "site_name": "Google Storey County",
        "distance_to_site_km": 0.5039,
        "footprint_area_m2_webmercator": 210.97,
        "source_dataset": "Overture Maps buildings",
        "source_url": "https://docs.overturemaps.org/getting-data/",
        "source_release": "2026-09-23.1",
        "source_accessed_on": "2026-09-28",
        "geometry_role": "current building-footprint polygon",
        "linkage_semantics": "Overlap/proximity only; not evidence that the building hosts AI compute."
      }
    },
    {
      "type": "Feature",
      "id": "483d402a-47d3-46a5-8c76-22df9ed7ccb5",
      "geometry": {
        "type": "Polygon",
        "coordinates": [
          [
            [
              -119.4369317,
              39.5383681
            ],
            [
              -119.4369326,
              39.5384464
            ],
            [
              -119.4371,
              39.5384453
            ],
            [
              -119.4370991,
              39.538367
            ],
            [
              -119.4369317,
              39.5383681
            ]
          ]
        ]
      },
      "properties": {
        "epoch_id": "EPOCH-2b89e13933a04725",
        "site_name": "Google Storey County",
        "distance_to_site_km": 0.5336,
        "footprint_area_m2_webmercator": 210.63,
        "source_dataset": "Overture Maps buildings",
        "source_url": "https://docs.overturemaps.org/getting-data/",
        "source_release": "2026-09-23.1",
        "source_accessed_on": "2026-09-28",
        "geometry_role": "current building-footprint polygon",
        "linkage_semantics": "Overlap/proximity only; not evidence that the building hosts AI compute."
      }
    },
    {
      "type": "Feature",
      "id": "e64449d6-b668-4e4a-9b8b-f7fd0f1a3564",
      "geometry": {
        "type": "Polygon",
        "coordinates": [
          [
            [
              -119.4369297,
              39.5382765
            ],
            [
              -119.4369305,
              39.5383549
            ],
            [
              -119.437098,
              39.5383538
            ],
            [
              -119.4370971,
              39.5382754
            ],
            [
              -119.4369297,
              39.5382765
            ]
          ]
        ]
      },
      "properties": {
        "epoch_id": "EPOCH-2b89e13933a04725",
        "site_name": "Google Storey County",
        "distance_to_site_km": 0.5432,
        "footprint_area_m2_webmercator": 210.96,
        "source_dataset": "Overture Maps buildings",
        "source_url": "https://docs.overturemaps.org/getting-data/",
        "source_release": "2026-09-23.1",
        "source_accessed_on": "2026-09-28",
        "geometry_role": "current building-footprint polygon",
        "linkage_semantics": "Overlap/proximity only; not evidence that the building hosts AI compute."
      }
    },
    {
      "type": "Feature",
      "id": "ffecf85f-4aca-4a93-8ee5-d9e06139089c",
      "geometry": {
        "type": "Polygon",
        "coordinates": [
          [
            [
              -119.4368697,
              39.5373442
            ],
            [
              -119.436875,
              39.5375332
            ],
            [
              -119.4370906,
              39.5375316
            ],
            [
              -119.4370882,
              39.5373394
            ],
            [
              -119.4368697,
              39.5373442
            ]
          ]
        ]
      },
      "properties": {
        "epoch_id": "EPOCH-2b89e13933a04725",
        "site_name": "Google Storey County",
        "distance_to_site_km": 0.6366,
        "footprint_area_m2_webmercator": 664.94,
        "source_dataset": "Overture Maps buildings",
        "source_url": "https://docs.overturemaps.org/getting-data/",
        "source_release": "2026-09-23.1",
        "source_accessed_on": "2026-09-28",
        "geometry_role": "current building-footprint polygon",
        "linkage_semantics": "Overlap/proximity only; not evidence that the building hosts AI compute."
      }
    },
    {
      "type": "Feature",
      "id": "1ed5cd98-bc0f-4903-9d68-e63972a19027",
      "geometry": {
        "type": "Polygon",
        "coordinates": [
          [
            [
              -119.4369387,
              39.5391161
            ],
            [
              -119.4369395,
              39.5391945
            ],
            [
              -119.437107,
              39.5391934
            ],
            [
              -119.4371061,
              39.539115
            ],
            [
              -119.4369387,
              39.5391161
            ]
          ]
        ]
      },
      "properties": {
        "epoch_id": "EPOCH-2b89e13933a04725",
        "site_name": "Google Storey County",
        "distance_to_site_km": 0.4564,
        "footprint_area_m2_webmercator": 210.97,
        "source_dataset": "Overture Maps buildings",
        "source_url": "https://docs.overturemaps.org/getting-data/",
        "source_release": "2026-09-23.1",
        "source_accessed_on": "2026-09-28",
        "geometry_role": "current building-footprint polygon",
        "linkage_semantics": "Overlap/proximity only; not evidence that the building hosts AI compute."
      }
    },
    {
      "type": "Feature",
      "id": "8a8721db-605a-4e75-9e66-877ac8224e95",
      "geometry": {
        "type": "Polygon",
        "coordinates": [
          [
            [
              -119.4369422,
              39.5388364
            ],
            [
              -119.4369431,
              39.5389148
            ],
            [
              -119.4371105,
              39.5389136
            ],
            [
              -119.4371097,
              39.5388353
            ],
            [
              -119.4369422,
              39.5388364
            ]
          ]
        ]
      },
      "properties": {
        "epoch_id": "EPOCH-2b89e13933a04725",
        "site_name": "Google Storey County",
        "distance_to_site_km": 0.4848,
        "footprint_area_m2_webmercator": 210.83,
        "source_dataset": "Overture Maps buildings",
        "source_url": "https://docs.overturemaps.org/getting-data/",
        "source_release": "2026-09-23.1",
        "source_accessed_on": "2026-09-28",
        "geometry_role": "current building-footprint polygon",
        "linkage_semantics": "Overlap/proximity only; not evidence that the building hosts AI compute."
      }
    },
    {
      "type": "Feature",
      "id": "2d9980d9-69df-43e4-8256-e31a2d5cd8ff",
      "geometry": {
        "type": "Polygon",
        "coordinates": [
          [
            [
              -119.4369404,
              39.5387518
            ],
            [
              -119.4369413,
              39.5388301
            ],
            [
              -119.4371087,
              39.538829
            ],
            [
              -119.4371079,
              39.5387507
            ],
            [
              -119.4369404,
              39.5387518
            ]
          ]
        ]
      },
      "properties": {
        "epoch_id": "EPOCH-2b89e13933a04725",
        "site_name": "Google Storey County",
        "distance_to_site_km": 0.4936,
        "footprint_area_m2_webmercator": 210.7,
        "source_dataset": "Overture Maps buildings",
        "source_url": "https://docs.overturemaps.org/getting-data/",
        "source_release": "2026-09-23.1",
        "source_accessed_on": "2026-09-28",
        "geometry_role": "current building-footprint polygon",
        "linkage_semantics": "Overlap/proximity only; not evidence that the building hosts AI compute."
      }
    },
    {
      "type": "Feature",
      "id": "1bf4fd8f-8b1b-4d0b-b978-7d84a9f05509",
      "geometry": {
        "type": "Polygon",
        "coordinates": [
          [
            [
              -119.4369422,
              39.5389319
            ],
            [
              -119.4369431,
              39.5390103
            ],
            [
              -119.4371105,
              39.5390092
            ],
            [
              -119.4371097,
              39.5389308
            ],
            [
              -119.4369422,
              39.5389319
            ]
          ]
        ]
      },
      "properties": {
        "epoch_id": "EPOCH-2b89e13933a04725",
        "site_name": "Google Storey County",
        "distance_to_site_km": 0.475,
        "footprint_area_m2_webmercator": 210.97,
        "source_dataset": "Overture Maps buildings",
        "source_url": "https://docs.overturemaps.org/getting-data/",
        "source_release": "2026-09-23.1",
        "source_accessed_on": "2026-09-28",
        "geometry_role": "current building-footprint polygon",
        "linkage_semantics": "Overlap/proximity only; not evidence that the building hosts AI compute."
      }
    },
    {
      "type": "Feature",
      "id": "91ee9c5d-9fc7-4f7a-9d6c-3924cd25402f",
      "geometry": {
        "type": "Polygon",
        "coordinates": [
          [
            [
              -119.436944,
              39.5390274
            ],
            [
              -119.4369448,
              39.5391058
            ],
            [
              -119.4371123,
              39.5391047
            ],
            [
              -119.4371114,
              39.5390263
            ],
            [
              -119.436944,
              39.5390274
            ]
          ]
        ]
      },
      "properties": {
        "epoch_id": "EPOCH-2b89e13933a04725",
        "site_name": "Google Storey County",
        "distance_to_site_km": 0.4652,
        "footprint_area_m2_webmercator": 210.97,
        "source_dataset": "Overture Maps buildings",
        "source_url": "https://docs.overturemaps.org/getting-data/",
        "source_release": "2026-09-23.1",
        "source_accessed_on": "2026-09-28",
        "geometry_role": "current building-footprint polygon",
        "linkage_semantics": "Overlap/proximity only; not evidence that the building hosts AI compute."
      }
    },
    {
      "type": "Feature",
      "id": "e439afbe-a552-4dea-9da3-50112149a573",
      "geometry": {
        "type": "Polygon",
        "coordinates": [
          [
            [
              -119.437125,
              39.5389721
            ],
            [
              -119.4372833,
              39.5389714
            ],
            [
              -119.4372822,
              39.5388272
            ],
            [
              -119.4371239,
              39.5388279
            ],
            [
              -119.437125,
              39.5389721
            ]
          ]
        ]
      },
      "properties": {
        "epoch_id": "EPOCH-2b89e13933a04725",
        "site_name": "Google Storey County",
        "distance_to_site_km": 0.4766,
        "footprint_area_m2_webmercator": 366.81,
        "source_dataset": "Overture Maps buildings",
        "source_url": "https://docs.overturemaps.org/getting-data/",
        "source_release": "2026-09-23.1",
        "source_accessed_on": "2026-09-28",
        "geometry_role": "current building-footprint polygon",
        "linkage_semantics": "Overlap/proximity only; not evidence that the building hosts AI compute."
      }
    },
    {
      "type": "Feature",
      "id": "a84fd929-4f6f-4f65-9bb4-77b4c051d97e",
      "geometry": {
        "type": "Polygon",
        "coordinates": [
          [
            [
              -119.4370644,
              39.5412428
            ],
            [
              -119.4370443,
              39.5415205
            ],
            [
              -119.4372304,
              39.5415285
            ],
            [
              -119.4372505,
              39.5412508
            ],
            [
              -119.4370644,
              39.5412428
            ]
          ]
        ]
      },
      "properties": {
        "epoch_id": "EPOCH-2b89e13933a04725",
        "site_name": "Google Storey County",
        "distance_to_site_km": 0.2436,
        "footprint_area_m2_webmercator": 833.04,
        "source_dataset": "Overture Maps buildings",
        "source_url": "https://docs.overturemaps.org/getting-data/",
        "source_release": "2026-09-23.1",
        "source_accessed_on": "2026-09-28",
        "geometry_role": "current building-footprint polygon",
        "linkage_semantics": "Overlap/proximity only; not evidence that the building hosts AI compute."
      }
    },
    {
      "type": "Feature",
      "id": "b5b372f3-aad6-4960-a94b-44b911f9984d",
      "geometry": {
        "type": "Polygon",
        "coordinates": [
          [
            [
              -119.4369335,
              39.5408268
            ],
            [
              -119.436936,
              39.5411482
            ],
            [
              -119.4371748,
              39.541147
            ],
            [
              -119.4371722,
              39.5408256
            ],
            [
              -119.4369335,
              39.5408268
            ]
          ]
        ]
      },
      "properties": {
        "epoch_id": "EPOCH-2b89e13933a04725",
        "site_name": "Google Storey County",
        "distance_to_site_km": 0.2813,
        "footprint_area_m2_webmercator": 1233.1,
        "source_dataset": "Overture Maps buildings",
        "source_url": "https://docs.overturemaps.org/getting-data/",
        "source_release": "2026-09-23.1",
        "source_accessed_on": "2026-09-28",
        "geometry_role": "current building-footprint polygon",
        "linkage_semantics": "Overlap/proximity only; not evidence that the building hosts AI compute."
      }
    },
    {
      "type": "Feature",
      "id": "1b305254-f052-4032-82bf-825a1bf0e4da",
      "geometry": {
        "type": "Polygon",
        "coordinates": [
          [
            [
              -119.4369215,
              39.5411053
            ],
            [
              -119.4367815,
              39.5411098
            ],
            [
              -119.4367848,
              39.5411715
            ],
            [
              -119.4369248,
              39.541167
            ],
            [
              -119.4369215,
              39.5411053
            ]
          ]
        ]
      },
      "properties": {
        "epoch_id": "EPOCH-2b89e13933a04725",
        "site_name": "Google Storey County",
        "distance_to_site_km": 0.2808,
        "footprint_area_m2_webmercator": 139.04,
        "source_dataset": "Overture Maps buildings",
        "source_url": "https://docs.overturemaps.org/getting-data/",
        "source_release": "2026-09-23.1",
        "source_accessed_on": "2026-09-28",
        "geometry_role": "current building-footprint polygon",
        "linkage_semantics": "Overlap/proximity only; not evidence that the building hosts AI compute."
      }
    },
    {
      "type": "Feature",
      "id": "194809c2-1172-4d7f-be75-dc7099408130",
      "geometry": {
        "type": "Polygon",
        "coordinates": [
          [
            [
              -119.4356204,
              39.5532235
            ],
            [
              -119.4356218,
              39.5534226
            ],
            [
              -119.4364045,
              39.5534195
            ],
            [
              -119.4370366,
              39.553417
            ],
            [
              -119.4374037,
              39.5534156
            ],
            [
              -119.4374024,
              39.5532162
            ],
            [
              -119.4356204,
              39.5532235
            ]
          ]
        ]
      },
      "properties": {
        "epoch_id": "EPOCH-2b89e13933a04725",
        "site_name": "Google Storey County",
        "distance_to_site_km": 1.1813,
        "footprint_area_m2_webmercator": 5705.95,
        "source_dataset": "Overture Maps buildings",
        "source_url": "https://docs.overturemaps.org/getting-data/",
        "source_release": "2026-09-23.1",
        "source_accessed_on": "2026-09-28",
        "geometry_role": "current building-footprint polygon",
        "linkage_semantics": "Overlap/proximity only; not evidence that the building hosts AI compute."
      }
    },
    {
      "type": "Feature",
      "id": "0b87ee54-695a-4d56-a81d-7b23ab0575a1",
      "geometry": {
        "type": "Polygon",
        "coordinates": [
          [
            [
              -119.4364045,
              39.5534195
            ],
            [
              -119.4364048,
              39.5534991
            ],
            [
              -119.437037,
              39.5534977
            ],
            [
              -119.4370366,
              39.553417
            ],
            [
              -119.4364045,
              39.5534195
            ]
          ]
        ]
      },
      "properties": {
        "epoch_id": "EPOCH-2b89e13933a04725",
        "site_name": "Google Storey County",
        "distance_to_site_km": 1.1931,
        "footprint_area_m2_webmercator": 814.33,
        "source_dataset": "Overture Maps buildings",
        "source_url": "https://docs.overturemaps.org/getting-data/",
        "source_release": "2026-09-23.1",
        "source_accessed_on": "2026-09-28",
        "geometry_role": "current building-footprint polygon",
        "linkage_semantics": "Overlap/proximity only; not evidence that the building hosts AI compute."
      }
    },
    {
      "type": "Feature",
      "id": "9777dcec-3eab-4bb9-a3ee-4583b1ec55ac",
      "geometry": {
        "type": "Polygon",
        "coordinates": [
          [
            [
              -119.4377098,
              39.5532136
            ],
            [
              -119.4377093,
              39.5533658
            ],
            [
              -119.4378672,
              39.5533661
            ],
            [
              -119.4378676,
              39.5532139
            ],
            [
              -119.4377098,
              39.5532136
            ]
          ]
        ]
      },
      "properties": {
        "epoch_id": "EPOCH-2b89e13933a04725",
        "site_name": "Google Storey County",
        "distance_to_site_km": 1.1616,
        "footprint_area_m2_webmercator": 386.13,
        "source_dataset": "Overture Maps buildings",
        "source_url": "https://docs.overturemaps.org/getting-data/",
        "source_release": "2026-09-23.1",
        "source_accessed_on": "2026-09-28",
        "geometry_role": "current building-footprint polygon",
        "linkage_semantics": "Overlap/proximity only; not evidence that the building hosts AI compute."
      }
    },
    {
      "type": "Feature",
      "id": "fe31083d-7722-4328-92e7-6b73212049fa",
      "geometry": {
        "type": "Polygon",
        "coordinates": [
          [
            [
              -119.4374852,
              39.5408214
            ],
            [
              -119.437489,
              39.5409119
            ],
            [
              -119.43759,
              39.5409094
            ],
            [
              -119.4375862,
              39.5408189
            ],
            [
              -119.4374852,
              39.5408214
            ]
          ]
        ]
      },
      "properties": {
        "epoch_id": "EPOCH-2b89e13933a04725",
        "site_name": "Google Storey County",
        "distance_to_site_km": 0.2674,
        "footprint_area_m2_webmercator": 147.03,
        "source_dataset": "Overture Maps buildings",
        "source_url": "https://docs.overturemaps.org/getting-data/",
        "source_release": "2026-09-23.1",
        "source_accessed_on": "2026-09-28",
        "geometry_role": "current building-footprint polygon",
        "linkage_semantics": "Overlap/proximity only; not evidence that the building hosts AI compute."
      }
    },
    {
      "type": "Feature",
      "id": "349530e8-3e8b-41e9-8cc6-e8fd9891a824",
      "geometry": {
        "type": "Polygon",
        "coordinates": [
          [
            [
              -119.4350072,
              39.5382342
            ],
            [
              -119.4349688,
              39.5383414
            ],
            [
              -119.43498,
              39.5384524
            ],
            [
              -119.4350396,
              39.5385537
            ],
            [
              -119.4351403,
              39.5386333
            ],
            [
              -119.4352521,
              39.5386775
            ],
            [
              -119.435376,
              39.538694
            ],
            [
              -119.4355006,
              39.5386814
            ],
            [
              -119.4356147,
              39.5386407
            ],
            [
              -119.4357078,
              39.5385756
            ],
            [
              -119.4357717,
              39.5384921
            ],
            [
              -119.4358005,
              39.5383978
            ],
            [
              -119.4357869,
              39.538287
            ],
            [
              -119.4357253,
              39.5381864
            ],
            [
              -119.435623,
              39.538108
            ],
            [
              -119.4354922,
              39.5380611
            ],
            [
              -119.4353485,
              39.5380514
            ],
            [
              -119.4352091,
              39.53808
            ],
            [
              -119.4350906,
              39.5381434
            ],
            [
              -119.4350072,
              39.5382342
            ]
          ]
        ]
      },
      "properties": {
        "epoch_id": "EPOCH-2b89e13933a04725",
        "site_name": "Google Storey County",
        "distance_to_site_km": 0.6004,
        "footprint_area_m2_webmercator": 6659.76,
        "source_dataset": "Overture Maps buildings",
        "source_url": "https://docs.overturemaps.org/getting-data/",
        "source_release": "2026-09-23.1",
        "source_accessed_on": "2026-09-28",
        "geometry_role": "current building-footprint polygon",
        "linkage_semantics": "Overlap/proximity only; not evidence that the building hosts AI compute."
      }
    },
    {
      "type": "Feature",
      "id": "6e990e7f-9626-431c-bb9c-a965acbdfaa8",
      "geometry": {
        "type": "Polygon",
        "coordinates": [
          [
            [
              -119.4316785,
              39.5430549
            ],
            [
              -119.431626,
              39.5430809
            ],
            [
              -119.4315879,
              39.5431189
            ],
            [
              -119.4315686,
              39.5431646
            ],
            [
              -119.4315703,
              39.5432127
            ],
            [
              -119.4315902,
              39.543254
            ],
            [
              -119.4316257,
              39.5432885
            ],
            [
              -119.4316733,
              39.5433129
            ],
            [
              -119.4317283,
              39.5433248
            ],
            [
              -119.4317854,
              39.543323
            ],
            [
              -119.431839,
              39.5433077
            ],
            [
              -119.4318838,
              39.5432804
            ],
            [
              -119.4319155,
              39.5432437
            ],
            [
              -119.4319315,
              39.5431972
            ],
            [
              -119.4319263,
              39.5431493
            ],
            [
              -119.4319005,
              39.5431055
            ],
            [
              -119.4318572,
              39.543071
            ],
            [
              -119.4318013,
              39.5430497
            ],
            [
              -119.4317393,
              39.5430441
            ],
            [
              -119.4316785,
              39.5430549
            ]
          ]
        ]
      },
      "properties": {
        "epoch_id": "EPOCH-2b89e13933a04725",
        "site_name": "Google Storey County",
        "distance_to_site_km": 0.6397,
        "footprint_area_m2_webmercator": 1276.61,
        "source_dataset": "Overture Maps buildings",
        "source_url": "https://docs.overturemaps.org/getting-data/",
        "source_release": "2026-09-23.1",
        "source_accessed_on": "2026-09-28",
        "geometry_role": "current building-footprint polygon",
        "linkage_semantics": "Overlap/proximity only; not evidence that the building hosts AI compute."
      }
    },
    {
      "type": "Feature",
      "id": "e7c34d7f-43cf-4325-a12c-ae429a510d32",
      "geometry": {
        "type": "Polygon",
        "coordinates": [
          [
            [
              -119.428188,
              39.559936
            ],
            [
              -119.428164,
              39.559655
            ],
            [
              -119.428012,
              39.559662
            ],
            [
              -119.428036,
              39.559943
            ],
            [
              -119.428188,
              39.559936
            ]
          ]
        ]
      },
      "properties": {
        "epoch_id": "EPOCH-2b89e13933a04725",
        "site_name": "Google Storey County",
        "distance_to_site_km": 2.1063,
        "footprint_area_m2_webmercator": 689.23,
        "source_dataset": "Overture Maps buildings",
        "source_url": "https://docs.overturemaps.org/getting-data/",
        "source_release": "2026-09-23.1",
        "source_accessed_on": "2026-09-28",
        "geometry_role": "current building-footprint polygon",
        "linkage_semantics": "Overlap/proximity only; not evidence that the building hosts AI compute."
      }
    }
  ]
}
