{
  "type": "FeatureCollection",
  "source": {
    "dataset": "Overture Maps buildings",
    "url": "https://docs.overturemaps.org/getting-data/",
    "accessed_on": "2026-09-28",
    "release": "2026-09-23.1",
    "site_epoch_id": "EPOCH-768183e4de6062d2",
    "site_name": "CoreWeave Ellendale ND",
    "site_latitude": 46.0214191,
    "site_longitude": -98.5685326,
    "search_bbox": [
      -98.5885326,
      46.0014191,
      -98.5485326,
      46.041419100000006
    ],
    "filter_radius_km": 3.0,
    "semantics": "Current building polygons are ingested for physical geometry. They are not, by themselves, AI-facility identity evidence or a construction time series."
  },
  "features": [
    {
      "type": "Feature",
      "id": "189ef5eb-003d-4273-b912-31635175f2bb",
      "geometry": {
        "type": "Polygon",
        "coordinates": [
          [
            [
              -98.579544,
              46.035957
            ],
            [
              -98.579481,
              46.035957
            ],
            [
              -98.579482,
              46.036039
            ],
            [
              -98.579545,
              46.036039
            ],
            [
              -98.579544,
              46.035957
            ]
          ]
        ]
      },
      "properties": {
        "epoch_id": "EPOCH-768183e4de6062d2",
        "site_name": "CoreWeave Ellendale ND",
        "distance_to_site_km": 1.8294,
        "footprint_area_m2_webmercator": 92.22,
        "source_dataset": "Overture Maps buildings",
        "source_url": "https://docs.overturemaps.org/getting-data/",
        "source_release": "2026-09-23.1",
        "source_accessed_on": "2026-09-28",
        "geometry_role": "current building-footprint polygon",
        "linkage_semantics": "Overlap/proximity only; not evidence that the building hosts AI compute."
      }
    },
    {
      "type": "Feature",
      "id": "3d1ad21d-ee3b-4527-a1db-b201866311cc",
      "geometry": {
        "type": "Polygon",
        "coordinates": [
          [
            [
              -98.573145,
              46.040371
            ],
            [
              -98.57329,
              46.040371
            ],
            [
              -98.57329,
              46.040293
            ],
            [
              -98.573145,
              46.040293
            ],
            [
              -98.573145,
              46.040371
            ]
          ]
        ]
      },
      "properties": {
        "epoch_id": "EPOCH-768183e4de6062d2",
        "site_name": "CoreWeave Ellendale ND",
        "distance_to_site_km": 2.1339,
        "footprint_area_m2_webmercator": 201.91,
        "source_dataset": "Overture Maps buildings",
        "source_url": "https://docs.overturemaps.org/getting-data/",
        "source_release": "2026-09-23.1",
        "source_accessed_on": "2026-09-28",
        "geometry_role": "current building-footprint polygon",
        "linkage_semantics": "Overlap/proximity only; not evidence that the building hosts AI compute."
      }
    },
    {
      "type": "Feature",
      "id": "9d7e5674-2325-448a-8185-0e5f8e148184",
      "geometry": {
        "type": "Polygon",
        "coordinates": [
          [
            [
              -98.572431,
              46.039811
            ],
            [
              -98.572289,
              46.039811
            ],
            [
              -98.572289,
              46.0399
            ],
            [
              -98.572431,
              46.0399
            ],
            [
              -98.572431,
              46.039811
            ]
          ]
        ]
      },
      "properties": {
        "epoch_id": "EPOCH-768183e4de6062d2",
        "site_name": "CoreWeave Ellendale ND",
        "distance_to_site_km": 2.0712,
        "footprint_area_m2_webmercator": 225.61,
        "source_dataset": "Overture Maps buildings",
        "source_url": "https://docs.overturemaps.org/getting-data/",
        "source_release": "2026-09-23.1",
        "source_accessed_on": "2026-09-28",
        "geometry_role": "current building-footprint polygon",
        "linkage_semantics": "Overlap/proximity only; not evidence that the building hosts AI compute."
      }
    },
    {
      "type": "Feature",
      "id": "e0baf692-978d-4f27-b509-9e9e0333fe31",
      "geometry": {
        "type": "Polygon",
        "coordinates": [
          [
            [
              -98.572072,
              46.040608
            ],
            [
              -98.572073,
              46.040356
            ],
            [
              -98.571873,
              46.040355
            ],
            [
              -98.571872,
              46.040608
            ],
            [
              -98.572072,
              46.040608
            ]
          ]
        ]
      },
      "properties": {
        "epoch_id": "EPOCH-768183e4de6062d2",
        "site_name": "CoreWeave Ellendale ND",
        "distance_to_site_km": 2.1362,
        "footprint_area_m2_webmercator": 901.54,
        "source_dataset": "Overture Maps buildings",
        "source_url": "https://docs.overturemaps.org/getting-data/",
        "source_release": "2026-09-23.1",
        "source_accessed_on": "2026-09-28",
        "geometry_role": "current building-footprint polygon",
        "linkage_semantics": "Overlap/proximity only; not evidence that the building hosts AI compute."
      }
    },
    {
      "type": "Feature",
      "id": "29710c56-ae1a-4e15-8c6e-c086ce846a19",
      "geometry": {
        "type": "Polygon",
        "coordinates": [
          [
            [
              -98.571991,
              46.041062
            ],
            [
              -98.571699,
              46.041062
            ],
            [
              -98.571699,
              46.041135
            ],
            [
              -98.571991,
              46.041135
            ],
            [
              -98.571991,
              46.041062
            ]
          ]
        ]
      },
      "properties": {
        "epoch_id": "EPOCH-768183e4de6062d2",
        "site_name": "CoreWeave Ellendale ND",
        "distance_to_site_km": 2.2031,
        "footprint_area_m2_webmercator": 380.54,
        "source_dataset": "Overture Maps buildings",
        "source_url": "https://docs.overturemaps.org/getting-data/",
        "source_release": "2026-09-23.1",
        "source_accessed_on": "2026-09-28",
        "geometry_role": "current building-footprint polygon",
        "linkage_semantics": "Overlap/proximity only; not evidence that the building hosts AI compute."
      }
    },
    {
      "type": "Feature",
      "id": "0f8ddb7c-3d84-4cf7-8a40-a944ecdf2596",
      "geometry": {
        "type": "Polygon",
        "coordinates": [
          [
            [
              -98.571932,
              46.041395
            ],
            [
              -98.571932,
              46.041339
            ],
            [
              -98.571804,
              46.041339
            ],
            [
              -98.571804,
              46.041395
            ],
            [
              -98.571932,
              46.041395
            ]
          ]
        ]
      },
      "properties": {
        "epoch_id": "EPOCH-768183e4de6062d2",
        "site_name": "CoreWeave Ellendale ND",
        "distance_to_site_km": 2.233,
        "footprint_area_m2_webmercator": 127.97,
        "source_dataset": "Overture Maps buildings",
        "source_url": "https://docs.overturemaps.org/getting-data/",
        "source_release": "2026-09-23.1",
        "source_accessed_on": "2026-09-28",
        "geometry_role": "current building-footprint polygon",
        "linkage_semantics": "Overlap/proximity only; not evidence that the building hosts AI compute."
      }
    },
    {
      "type": "Feature",
      "id": "4219a1d6-ad7e-4259-b1c4-7a0851fc4f10",
      "geometry": {
        "type": "Polygon",
        "coordinates": [
          [
            [
              -98.573083,
              46.041188
            ],
            [
              -98.572992,
              46.041188
            ],
            [
              -98.572992,
              46.0413
            ],
            [
              -98.573083,
              46.0413
            ],
            [
              -98.573083,
              46.041188
            ]
          ]
        ]
      },
      "properties": {
        "epoch_id": "EPOCH-768183e4de6062d2",
        "site_name": "CoreWeave Ellendale ND",
        "distance_to_site_km": 2.2317,
        "footprint_area_m2_webmercator": 181.95,
        "source_dataset": "Overture Maps buildings",
        "source_url": "https://docs.overturemaps.org/getting-data/",
        "source_release": "2026-09-23.1",
        "source_accessed_on": "2026-09-28",
        "geometry_role": "current building-footprint polygon",
        "linkage_semantics": "Overlap/proximity only; not evidence that the building hosts AI compute."
      }
    },
    {
      "type": "Feature",
      "id": "1aa0557a-35b2-4c4e-bed2-e34879f9f292",
      "geometry": {
        "type": "Polygon",
        "coordinates": [
          [
            [
              -98.572147,
              46.041146
            ],
            [
              -98.572147,
              46.041058
            ],
            [
              -98.57204,
              46.041058
            ],
            [
              -98.57204,
              46.041146
            ],
            [
              -98.572147,
              46.041146
            ]
          ]
        ]
      },
      "properties": {
        "epoch_id": "EPOCH-768183e4de6062d2",
        "site_name": "CoreWeave Ellendale ND",
        "distance_to_site_km": 2.2058,
        "footprint_area_m2_webmercator": 168.1,
        "source_dataset": "Overture Maps buildings",
        "source_url": "https://docs.overturemaps.org/getting-data/",
        "source_release": "2026-09-23.1",
        "source_accessed_on": "2026-09-28",
        "geometry_role": "current building-footprint polygon",
        "linkage_semantics": "Overlap/proximity only; not evidence that the building hosts AI compute."
      }
    },
    {
      "type": "Feature",
      "id": "b357e20e-a7cc-4469-9f00-716ed19653e8",
      "geometry": {
        "type": "Polygon",
        "coordinates": [
          [
            [
              -98.5742045,
              46.0124086
            ],
            [
              -98.5746153,
              46.0129151
            ],
            [
              -98.5747213,
              46.0128737
            ],
            [
              -98.5743106,
              46.0123671
            ],
            [
              -98.5742045,
              46.0124086
            ]
          ]
        ]
      },
      "properties": {
        "epoch_id": "EPOCH-768183e4de6062d2",
        "site_name": "CoreWeave Ellendale ND",
        "distance_to_site_km": 1.0782,
        "footprint_area_m2_webmercator": 1262.31,
        "source_dataset": "Overture Maps buildings",
        "source_url": "https://docs.overturemaps.org/getting-data/",
        "source_release": "2026-09-23.1",
        "source_accessed_on": "2026-09-28",
        "geometry_role": "current building-footprint polygon",
        "linkage_semantics": "Overlap/proximity only; not evidence that the building hosts AI compute."
      }
    },
    {
      "type": "Feature",
      "id": "c11eeba0-6463-4ea2-9bc7-f377ba284762",
      "geometry": {
        "type": "Polygon",
        "coordinates": [
          [
            [
              -98.5732828,
              46.0119349
            ],
            [
              -98.5740677,
              46.0129142
            ],
            [
              -98.574201,
              46.0128627
            ],
            [
              -98.5734164,
              46.0118833
            ],
            [
              -98.5732828,
              46.0119349
            ]
          ]
        ]
      },
      "properties": {
        "epoch_id": "EPOCH-768183e4de6062d2",
        "site_name": "CoreWeave Ellendale ND",
        "distance_to_site_km": 1.0807,
        "footprint_area_m2_webmercator": 3053.8,
        "source_dataset": "Overture Maps buildings",
        "source_url": "https://docs.overturemaps.org/getting-data/",
        "source_release": "2026-09-23.1",
        "source_accessed_on": "2026-09-28",
        "geometry_role": "current building-footprint polygon",
        "linkage_semantics": "Overlap/proximity only; not evidence that the building hosts AI compute."
      }
    },
    {
      "type": "Feature",
      "id": "75df35e1-2655-4363-9dd5-b71bca3810eb",
      "geometry": {
        "type": "Polygon",
        "coordinates": [
          [
            [
              -98.572223,
              46.0119965
            ],
            [
              -98.5728971,
              46.0128386
            ],
            [
              -98.5730121,
              46.0127942
            ],
            [
              -98.5723382,
              46.011952
            ],
            [
              -98.572223,
              46.0119965
            ]
          ]
        ]
      },
      "properties": {
        "epoch_id": "EPOCH-768183e4de6062d2",
        "site_name": "CoreWeave Ellendale ND",
        "distance_to_site_km": 1.0518,
        "footprint_area_m2_webmercator": 2264.11,
        "source_dataset": "Overture Maps buildings",
        "source_url": "https://docs.overturemaps.org/getting-data/",
        "source_release": "2026-09-23.1",
        "source_accessed_on": "2026-09-28",
        "geometry_role": "current building-footprint polygon",
        "linkage_semantics": "Overlap/proximity only; not evidence that the building hosts AI compute."
      }
    },
    {
      "type": "Feature",
      "id": "258e3d8d-f5d6-4a4b-badc-f7f9bc9c929f",
      "geometry": {
        "type": "Polygon",
        "coordinates": [
          [
            [
              -98.5726544,
              46.0118509
            ],
            [
              -98.5734291,
              46.0128347
            ],
            [
              -98.5735423,
              46.0127917
            ],
            [
              -98.5727674,
              46.011808
            ],
            [
              -98.5726544,
              46.0118509
            ]
          ]
        ]
      },
      "properties": {
        "epoch_id": "EPOCH-768183e4de6062d2",
        "site_name": "CoreWeave Ellendale ND",
        "distance_to_site_km": 1.0713,
        "footprint_area_m2_webmercator": 2579.02,
        "source_dataset": "Overture Maps buildings",
        "source_url": "https://docs.overturemaps.org/getting-data/",
        "source_release": "2026-09-23.1",
        "source_accessed_on": "2026-09-28",
        "geometry_role": "current building-footprint polygon",
        "linkage_semantics": "Overlap/proximity only; not evidence that the building hosts AI compute."
      }
    },
    {
      "type": "Feature",
      "id": "5f3493aa-7399-4e92-b032-4c5caf03ae14",
      "geometry": {
        "type": "Polygon",
        "coordinates": [
          [
            [
              -98.5719074,
              46.0127707
            ],
            [
              -98.5719119,
              46.0125333
            ],
            [
              -98.5715551,
              46.0125301
            ],
            [
              -98.5715494,
              46.0128276
            ],
            [
              -98.5717907,
              46.0128298
            ],
            [
              -98.5717918,
              46.0127696
            ],
            [
              -98.5719074,
              46.0127707
            ]
          ]
        ]
      },
      "properties": {
        "epoch_id": "EPOCH-768183e4de6062d2",
        "site_name": "CoreWeave Ellendale ND",
        "distance_to_site_km": 1.0033,
        "footprint_area_m2_webmercator": 1770.54,
        "source_dataset": "Overture Maps buildings",
        "source_url": "https://docs.overturemaps.org/getting-data/",
        "source_release": "2026-09-23.1",
        "source_accessed_on": "2026-09-28",
        "geometry_role": "current building-footprint polygon",
        "linkage_semantics": "Overlap/proximity only; not evidence that the building hosts AI compute."
      }
    },
    {
      "type": "Feature",
      "id": "4011f902-905d-474c-b273-0ab3cef7fca7",
      "geometry": {
        "type": "Polygon",
        "coordinates": [
          [
            [
              -98.5707169,
              46.0131064
            ],
            [
              -98.5713615,
              46.0139227
            ],
            [
              -98.5714943,
              46.0138721
            ],
            [
              -98.5708499,
              46.0130557
            ],
            [
              -98.5707169,
              46.0131064
            ]
          ]
        ]
      },
      "properties": {
        "epoch_id": "EPOCH-768183e4de6062d2",
        "site_name": "CoreWeave Ellendale ND",
        "distance_to_site_km": 0.9039,
        "footprint_area_m2_webmercator": 2518.36,
        "source_dataset": "Overture Maps buildings",
        "source_url": "https://docs.overturemaps.org/getting-data/",
        "source_release": "2026-09-23.1",
        "source_accessed_on": "2026-09-28",
        "geometry_role": "current building-footprint polygon",
        "linkage_semantics": "Overlap/proximity only; not evidence that the building hosts AI compute."
      }
    },
    {
      "type": "Feature",
      "id": "a79ac22a-9d97-4758-ad26-31e8d105b899",
      "geometry": {
        "type": "Polygon",
        "coordinates": [
          [
            [
              -98.5712866,
              46.0131164
            ],
            [
              -98.5719173,
              46.013939
            ],
            [
              -98.5720556,
              46.013887
            ],
            [
              -98.5714251,
              46.0130643
            ],
            [
              -98.5712866,
              46.0131164
            ]
          ]
        ]
      },
      "properties": {
        "epoch_id": "EPOCH-768183e4de6062d2",
        "site_name": "CoreWeave Ellendale ND",
        "distance_to_site_km": 0.9131,
        "footprint_area_m2_webmercator": 2617.22,
        "source_dataset": "Overture Maps buildings",
        "source_url": "https://docs.overturemaps.org/getting-data/",
        "source_release": "2026-09-23.1",
        "source_accessed_on": "2026-09-28",
        "geometry_role": "current building-footprint polygon",
        "linkage_semantics": "Overlap/proximity only; not evidence that the building hosts AI compute."
      }
    },
    {
      "type": "Feature",
      "id": "03fb2fd4-d541-4fc4-b040-bc3cee9a88ce",
      "geometry": {
        "type": "Polygon",
        "coordinates": [
          [
            [
              -98.5719242,
              46.0131368
            ],
            [
              -98.5725444,
              46.0139291
            ],
            [
              -98.5726746,
              46.0138799
            ],
            [
              -98.5720543,
              46.0130877
            ],
            [
              -98.5719242,
              46.0131368
            ]
          ]
        ]
      },
      "properties": {
        "epoch_id": "EPOCH-768183e4de6062d2",
        "site_name": "CoreWeave Ellendale ND",
        "distance_to_site_km": 0.9265,
        "footprint_area_m2_webmercator": 2383.82,
        "source_dataset": "Overture Maps buildings",
        "source_url": "https://docs.overturemaps.org/getting-data/",
        "source_release": "2026-09-23.1",
        "source_accessed_on": "2026-09-28",
        "geometry_role": "current building-footprint polygon",
        "linkage_semantics": "Overlap/proximity only; not evidence that the building hosts AI compute."
      }
    },
    {
      "type": "Feature",
      "id": "d9ec0905-1466-4d3b-b56b-052a0a522d9a",
      "geometry": {
        "type": "Polygon",
        "coordinates": [
          [
            [
              -98.5725197,
              46.0131481
            ],
            [
              -98.5731429,
              46.0139487
            ],
            [
              -98.5732808,
              46.013897
            ],
            [
              -98.5726578,
              46.0130963
            ],
            [
              -98.5725197,
              46.0131481
            ]
          ]
        ]
      },
      "properties": {
        "epoch_id": "EPOCH-768183e4de6062d2",
        "site_name": "CoreWeave Ellendale ND",
        "distance_to_site_km": 0.9406,
        "footprint_area_m2_webmercator": 2546.88,
        "source_dataset": "Overture Maps buildings",
        "source_url": "https://docs.overturemaps.org/getting-data/",
        "source_release": "2026-09-23.1",
        "source_accessed_on": "2026-09-28",
        "geometry_role": "current building-footprint polygon",
        "linkage_semantics": "Overlap/proximity only; not evidence that the building hosts AI compute."
      }
    },
    {
      "type": "Feature",
      "id": "45b53af9-98c4-4be8-9aae-a683f764b5b4",
      "geometry": {
        "type": "Polygon",
        "coordinates": [
          [
            [
              -98.5736811,
              46.0131461
            ],
            [
              -98.5743014,
              46.0139558
            ],
            [
              -98.5744109,
              46.0139153
            ],
            [
              -98.5737904,
              46.0131057
            ],
            [
              -98.5736811,
              46.0131461
            ]
          ]
        ]
      },
      "properties": {
        "epoch_id": "EPOCH-768183e4de6062d2",
        "site_name": "CoreWeave Ellendale ND",
        "distance_to_site_km": 0.975,
        "footprint_area_m2_webmercator": 2028.27,
        "source_dataset": "Overture Maps buildings",
        "source_url": "https://docs.overturemaps.org/getting-data/",
        "source_release": "2026-09-23.1",
        "source_accessed_on": "2026-09-28",
        "geometry_role": "current building-footprint polygon",
        "linkage_semantics": "Overlap/proximity only; not evidence that the building hosts AI compute."
      }
    },
    {
      "type": "Feature",
      "id": "c9d375ce-d5a6-4485-9d89-d276dc5e5e5e",
      "geometry": {
        "type": "Polygon",
        "coordinates": [
          [
            [
              -98.5731184,
              46.0131298
            ],
            [
              -98.573748,
              46.013945
            ],
            [
              -98.5738617,
              46.0139026
            ],
            [
              -98.5732319,
              46.0130875
            ],
            [
              -98.5731184,
              46.0131298
            ]
          ]
        ]
      },
      "properties": {
        "epoch_id": "EPOCH-768183e4de6062d2",
        "site_name": "CoreWeave Ellendale ND",
        "distance_to_site_km": 0.9585,
        "footprint_area_m2_webmercator": 2128.16,
        "source_dataset": "Overture Maps buildings",
        "source_url": "https://docs.overturemaps.org/getting-data/",
        "source_release": "2026-09-23.1",
        "source_accessed_on": "2026-09-28",
        "geometry_role": "current building-footprint polygon",
        "linkage_semantics": "Overlap/proximity only; not evidence that the building hosts AI compute."
      }
    },
    {
      "type": "Feature",
      "id": "7033f757-1892-46ce-a231-f1cf07a6a971",
      "geometry": {
        "type": "Polygon",
        "coordinates": [
          [
            [
              -98.568016,
              46.02071
            ],
            [
              -98.56777,
              46.02071
            ],
            [
              -98.56777,
              46.020787
            ],
            [
              -98.568016,
              46.020787
            ],
            [
              -98.568016,
              46.02071
            ]
          ]
        ]
      },
      "properties": {
        "epoch_id": "EPOCH-768183e4de6062d2",
        "site_name": "CoreWeave Ellendale ND",
        "distance_to_site_km": 0.0894,
        "footprint_area_m2_webmercator": 338.03,
        "source_dataset": "Overture Maps buildings",
        "source_url": "https://docs.overturemaps.org/getting-data/",
        "source_release": "2026-09-23.1",
        "source_accessed_on": "2026-09-28",
        "geometry_role": "current building-footprint polygon",
        "linkage_semantics": "Overlap/proximity only; not evidence that the building hosts AI compute."
      }
    },
    {
      "type": "Feature",
      "id": "ca46c42b-3573-4717-ae11-83147639b15b",
      "geometry": {
        "type": "Polygon",
        "coordinates": [
          [
            [
              -98.567527,
              46.021748
            ],
            [
              -98.567598,
              46.021753
            ],
            [
              -98.567601,
              46.021731
            ],
            [
              -98.56753,
              46.021726
            ],
            [
              -98.567527,
              46.021748
            ]
          ]
        ]
      },
      "properties": {
        "epoch_id": "EPOCH-768183e4de6062d2",
        "site_name": "CoreWeave Ellendale ND",
        "distance_to_site_km": 0.0828,
        "footprint_area_m2_webmercator": 28.14,
        "source_dataset": "Overture Maps buildings",
        "source_url": "https://docs.overturemaps.org/getting-data/",
        "source_release": "2026-09-23.1",
        "source_accessed_on": "2026-09-28",
        "geometry_role": "current building-footprint polygon",
        "linkage_semantics": "Overlap/proximity only; not evidence that the building hosts AI compute."
      }
    },
    {
      "type": "Feature",
      "id": "97efcf0e-58c0-4838-8997-55329e29a98d",
      "geometry": {
        "type": "Polygon",
        "coordinates": [
          [
            [
              -98.548463,
              46.0121708
            ],
            [
              -98.548754,
              46.0121726
            ],
            [
              -98.5487557,
              46.0120477
            ],
            [
              -98.5484646,
              46.0120458
            ],
            [
              -98.548463,
              46.0121708
            ]
          ]
        ]
      },
      "properties": {
        "epoch_id": "EPOCH-768183e4de6062d2",
        "site_name": "CoreWeave Ellendale ND",
        "distance_to_site_km": 1.8543,
        "footprint_area_m2_webmercator": 648.94,
        "source_dataset": "Overture Maps buildings",
        "source_url": "https://docs.overturemaps.org/getting-data/",
        "source_release": "2026-09-23.1",
        "source_accessed_on": "2026-09-28",
        "geometry_role": "current building-footprint polygon",
        "linkage_semantics": "Overlap/proximity only; not evidence that the building hosts AI compute."
      }
    },
    {
      "type": "Feature",
      "id": "46bbfd93-73b4-454c-8eb4-681ffa3f23cd",
      "geometry": {
        "type": "Polygon",
        "coordinates": [
          [
            [
              -98.549021,
              46.012599
            ],
            [
              -98.549064,
              46.012599
            ],
            [
              -98.549059,
              46.012472
            ],
            [
              -98.549015,
              46.012473
            ],
            [
              -98.549021,
              46.012599
            ]
          ]
        ]
      },
      "properties": {
        "epoch_id": "EPOCH-768183e4de6062d2",
        "site_name": "CoreWeave Ellendale ND",
        "distance_to_site_km": 1.8004,
        "footprint_area_m2_webmercator": 98.24,
        "source_dataset": "Overture Maps buildings",
        "source_url": "https://docs.overturemaps.org/getting-data/",
        "source_release": "2026-09-23.1",
        "source_accessed_on": "2026-09-28",
        "geometry_role": "current building-footprint polygon",
        "linkage_semantics": "Overlap/proximity only; not evidence that the building hosts AI compute."
      }
    },
    {
      "type": "Feature",
      "id": "bdf81698-5e9b-4c8e-9ffe-2130d1355a1a",
      "geometry": {
        "type": "Polygon",
        "coordinates": [
          [
            [
              -98.54872,
              46.0036156
            ],
            [
              -98.548846,
              46.0036136
            ],
            [
              -98.5488436,
              46.0035428
            ],
            [
              -98.5487176,
              46.0035449
            ],
            [
              -98.54872,
              46.0036156
            ]
          ]
        ]
      },
      "properties": {
        "epoch_id": "EPOCH-768183e4de6062d2",
        "site_name": "CoreWeave Ellendale ND",
        "distance_to_site_km": 2.5023,
        "footprint_area_m2_webmercator": 159.12,
        "source_dataset": "Overture Maps buildings",
        "source_url": "https://docs.overturemaps.org/getting-data/",
        "source_release": "2026-09-23.1",
        "source_accessed_on": "2026-09-28",
        "geometry_role": "current building-footprint polygon",
        "linkage_semantics": "Overlap/proximity only; not evidence that the building hosts AI compute."
      }
    },
    {
      "type": "Feature",
      "id": "ad82ebc2-a403-474b-bcb4-9cf13db2988f",
      "geometry": {
        "type": "Polygon",
        "coordinates": [
          [
            [
              -98.5542632,
              46.0042556
            ],
            [
              -98.5542634,
              46.0042897
            ],
            [
              -98.5543796,
              46.0042894
            ],
            [
              -98.5543794,
              46.0042552
            ],
            [
              -98.5542632,
              46.0042556
            ]
          ]
        ]
      },
      "properties": {
        "epoch_id": "EPOCH-768183e4de6062d2",
        "site_name": "CoreWeave Ellendale ND",
        "distance_to_site_km": 2.1999,
        "footprint_area_m2_webmercator": 70.8,
        "source_dataset": "Overture Maps buildings",
        "source_url": "https://docs.overturemaps.org/getting-data/",
        "source_release": "2026-09-23.1",
        "source_accessed_on": "2026-09-28",
        "geometry_role": "current building-footprint polygon",
        "linkage_semantics": "Overlap/proximity only; not evidence that the building hosts AI compute."
      }
    },
    {
      "type": "Feature",
      "id": "79ca9abb-554b-44ac-a53b-3da774be52e3",
      "geometry": {
        "type": "Polygon",
        "coordinates": [
          [
            [
              -98.5545325,
              46.0040258
            ],
            [
              -98.5549231,
              46.0040185
            ],
            [
              -98.554919,
              46.0039123
            ],
            [
              -98.5545284,
              46.0039195
            ],
            [
              -98.5545325,
              46.0040258
            ]
          ]
        ]
      },
      "properties": {
        "epoch_id": "EPOCH-768183e4de6062d2",
        "site_name": "CoreWeave Ellendale ND",
        "distance_to_site_km": 2.214,
        "footprint_area_m2_webmercator": 740.93,
        "source_dataset": "Overture Maps buildings",
        "source_url": "https://docs.overturemaps.org/getting-data/",
        "source_release": "2026-09-23.1",
        "source_accessed_on": "2026-09-28",
        "geometry_role": "current building-footprint polygon",
        "linkage_semantics": "Overlap/proximity only; not evidence that the building hosts AI compute."
      }
    },
    {
      "type": "Feature",
      "id": "a6242f49-49d5-4854-9dc2-dcee4f532347",
      "geometry": {
        "type": "Polygon",
        "coordinates": [
          [
            [
              -98.5545262,
              46.0038618
            ],
            [
              -98.5549168,
              46.0038546
            ],
            [
              -98.5549125,
              46.0037451
            ],
            [
              -98.554522,
              46.0037523
            ],
            [
              -98.5545262,
              46.0038618
            ]
          ]
        ]
      },
      "properties": {
        "epoch_id": "EPOCH-768183e4de6062d2",
        "site_name": "CoreWeave Ellendale ND",
        "distance_to_site_km": 2.2304,
        "footprint_area_m2_webmercator": 763.49,
        "source_dataset": "Overture Maps buildings",
        "source_url": "https://docs.overturemaps.org/getting-data/",
        "source_release": "2026-09-23.1",
        "source_accessed_on": "2026-09-28",
        "geometry_role": "current building-footprint polygon",
        "linkage_semantics": "Overlap/proximity only; not evidence that the building hosts AI compute."
      }
    },
    {
      "type": "Feature",
      "id": "3b10637d-3285-4061-a4f5-a07585937e69",
      "geometry": {
        "type": "Polygon",
        "coordinates": [
          [
            [
              -98.5546913,
              46.003275
            ],
            [
              -98.554672,
              46.0032719
            ],
            [
              -98.554653,
              46.0032759
            ],
            [
              -98.5546395,
              46.0032859
            ],
            [
              -98.5546351,
              46.0032993
            ],
            [
              -98.5546409,
              46.0033125
            ],
            [
              -98.5546554,
              46.0033219
            ],
            [
              -98.5546746,
              46.003325
            ],
            [
              -98.5546936,
              46.0033209
            ],
            [
              -98.5547071,
              46.0033109
            ],
            [
              -98.5547115,
              46.0032975
            ],
            [
              -98.5547057,
              46.0032843
            ],
            [
              -98.5546913,
              46.003275
            ]
          ]
        ]
      },
      "properties": {
        "epoch_id": "EPOCH-768183e4de6062d2",
        "site_name": "CoreWeave Ellendale ND",
        "distance_to_site_km": 2.2815,
        "footprint_area_m2_webmercator": 54.37,
        "source_dataset": "Overture Maps buildings",
        "source_url": "https://docs.overturemaps.org/getting-data/",
        "source_release": "2026-09-23.1",
        "source_accessed_on": "2026-09-28",
        "geometry_role": "current building-footprint polygon",
        "linkage_semantics": "Overlap/proximity only; not evidence that the building hosts AI compute."
      }
    },
    {
      "type": "Feature",
      "id": "a8bf7527-757d-4116-ad6f-0559bd1ee978",
      "geometry": {
        "type": "Polygon",
        "coordinates": [
          [
            [
              -98.5547707,
              46.003277
            ],
            [
              -98.5547514,
              46.003274
            ],
            [
              -98.5547325,
              46.003278
            ],
            [
              -98.554719,
              46.003288
            ],
            [
              -98.5547145,
              46.0033014
            ],
            [
              -98.5547203,
              46.0033146
            ],
            [
              -98.5547348,
              46.003324
            ],
            [
              -98.5547541,
              46.0033271
            ],
            [
              -98.554773,
              46.003323
            ],
            [
              -98.5547865,
              46.003313
            ],
            [
              -98.554791,
              46.0032996
            ],
            [
              -98.5547852,
              46.0032864
            ],
            [
              -98.5547707,
              46.003277
            ]
          ]
        ]
      },
      "properties": {
        "epoch_id": "EPOCH-768183e4de6062d2",
        "site_name": "CoreWeave Ellendale ND",
        "distance_to_site_km": 2.2785,
        "footprint_area_m2_webmercator": 54.41,
        "source_dataset": "Overture Maps buildings",
        "source_url": "https://docs.overturemaps.org/getting-data/",
        "source_release": "2026-09-23.1",
        "source_accessed_on": "2026-09-28",
        "geometry_role": "current building-footprint polygon",
        "linkage_semantics": "Overlap/proximity only; not evidence that the building hosts AI compute."
      }
    },
    {
      "type": "Feature",
      "id": "6345a9e8-ac54-4d86-ab46-da0e7809c364",
      "geometry": {
        "type": "Polygon",
        "coordinates": [
          [
            [
              -98.5678025,
              46.0112282
            ],
            [
              -98.567846,
              46.0112286
            ],
            [
              -98.5678472,
              46.011168
            ],
            [
              -98.5678037,
              46.0111676
            ],
            [
              -98.5678025,
              46.0112282
            ]
          ]
        ]
      },
      "properties": {
        "epoch_id": "EPOCH-768183e4de6062d2",
        "site_name": "CoreWeave Ellendale ND",
        "distance_to_site_km": 1.1378,
        "footprint_area_m2_webmercator": 47.04,
        "source_dataset": "Overture Maps buildings",
        "source_url": "https://docs.overturemaps.org/getting-data/",
        "source_release": "2026-09-23.1",
        "source_accessed_on": "2026-09-28",
        "geometry_role": "current building-footprint polygon",
        "linkage_semantics": "Overlap/proximity only; not evidence that the building hosts AI compute."
      }
    },
    {
      "type": "Feature",
      "id": "5877dd1c-70c5-46b1-bc81-6edb52e6fd50",
      "geometry": {
        "type": "Polygon",
        "coordinates": [
          [
            [
              -98.5679466,
              46.0091608
            ],
            [
              -98.5679452,
              46.009063
            ],
            [
              -98.5678629,
              46.0090636
            ],
            [
              -98.5678643,
              46.0091614
            ],
            [
              -98.5679466,
              46.0091608
            ]
          ]
        ]
      },
      "properties": {
        "epoch_id": "EPOCH-768183e4de6062d2",
        "site_name": "CoreWeave Ellendale ND",
        "distance_to_site_km": 1.3693,
        "footprint_area_m2_webmercator": 143.62,
        "source_dataset": "Overture Maps buildings",
        "source_url": "https://docs.overturemaps.org/getting-data/",
        "source_release": "2026-09-23.1",
        "source_accessed_on": "2026-09-28",
        "geometry_role": "current building-footprint polygon",
        "linkage_semantics": "Overlap/proximity only; not evidence that the building hosts AI compute."
      }
    },
    {
      "type": "Feature",
      "id": "4da992fd-45c9-4cda-92ce-2f5cf937cb84",
      "geometry": {
        "type": "Polygon",
        "coordinates": [
          [
            [
              -98.5698089,
              46.0085662
            ],
            [
              -98.5698116,
              46.0083995
            ],
            [
              -98.5697082,
              46.0083987
            ],
            [
              -98.5697055,
              46.0085654
            ],
            [
              -98.5698089,
              46.0085662
            ]
          ]
        ]
      },
      "properties": {
        "epoch_id": "EPOCH-768183e4de6062d2",
        "site_name": "CoreWeave Ellendale ND",
        "distance_to_site_km": 1.4416,
        "footprint_area_m2_webmercator": 307.57,
        "source_dataset": "Overture Maps buildings",
        "source_url": "https://docs.overturemaps.org/getting-data/",
        "source_release": "2026-09-23.1",
        "source_accessed_on": "2026-09-28",
        "geometry_role": "current building-footprint polygon",
        "linkage_semantics": "Overlap/proximity only; not evidence that the building hosts AI compute."
      }
    },
    {
      "type": "Feature",
      "id": "009631e4-4cd9-437c-aa54-b3b92c609cad",
      "geometry": {
        "type": "Polygon",
        "coordinates": [
          [
            [
              -98.5815743,
              46.0035339
            ],
            [
              -98.581621,
              46.0035334
            ],
            [
              -98.5816194,
              46.0034663
            ],
            [
              -98.5815041,
              46.0034676
            ],
            [
              -98.5815062,
              46.0035607
            ],
            [
              -98.5815749,
              46.00356
            ],
            [
              -98.5815743,
              46.0035339
            ]
          ]
        ]
      },
      "properties": {
        "epoch_id": "EPOCH-768183e4de6062d2",
        "site_name": "CoreWeave Ellendale ND",
        "distance_to_site_km": 2.2311,
        "footprint_area_m2_webmercator": 170.02,
        "source_dataset": "Overture Maps buildings",
        "source_url": "https://docs.overturemaps.org/getting-data/",
        "source_release": "2026-09-23.1",
        "source_accessed_on": "2026-09-28",
        "geometry_role": "current building-footprint polygon",
        "linkage_semantics": "Overlap/proximity only; not evidence that the building hosts AI compute."
      }
    },
    {
      "type": "Feature",
      "id": "43bfffbb-2174-4aa9-bd4a-07691fb010af",
      "geometry": {
        "type": "Polygon",
        "coordinates": [
          [
            [
              -98.581447,
              46.0041452
            ],
            [
              -98.58145,
              46.0043445
            ],
            [
              -98.5815815,
              46.0043435
            ],
            [
              -98.5815785,
              46.0041442
            ],
            [
              -98.581447,
              46.0041452
            ]
          ]
        ]
      },
      "properties": {
        "epoch_id": "EPOCH-768183e4de6062d2",
        "site_name": "CoreWeave Ellendale ND",
        "distance_to_site_km": 2.1569,
        "footprint_area_m2_webmercator": 467.61,
        "source_dataset": "Overture Maps buildings",
        "source_url": "https://docs.overturemaps.org/getting-data/",
        "source_release": "2026-09-23.1",
        "source_accessed_on": "2026-09-28",
        "geometry_role": "current building-footprint polygon",
        "linkage_semantics": "Overlap/proximity only; not evidence that the building hosts AI compute."
      }
    },
    {
      "type": "Feature",
      "id": "23aa5c6f-273e-45dd-a792-4c75fdb8a168",
      "geometry": {
        "type": "Polygon",
        "coordinates": [
          [
            [
              -98.5756381,
              46.0045323
            ],
            [
              -98.5757838,
              46.0045289
            ],
            [
              -98.5757802,
              46.0044563
            ],
            [
              -98.5756346,
              46.0044598
            ],
            [
              -98.5756381,
              46.0045323
            ]
          ]
        ]
      },
      "properties": {
        "epoch_id": "EPOCH-768183e4de6062d2",
        "site_name": "CoreWeave Ellendale ND",
        "distance_to_site_km": 1.9619,
        "footprint_area_m2_webmercator": 188.74,
        "source_dataset": "Overture Maps buildings",
        "source_url": "https://docs.overturemaps.org/getting-data/",
        "source_release": "2026-09-23.1",
        "source_accessed_on": "2026-09-28",
        "geometry_role": "current building-footprint polygon",
        "linkage_semantics": "Overlap/proximity only; not evidence that the building hosts AI compute."
      }
    },
    {
      "type": "Feature",
      "id": "d4eaf938-1b63-42f8-a48f-7eeb79d1c65b",
      "geometry": {
        "type": "Polygon",
        "coordinates": [
          [
            [
              -98.5762834,
              46.0042571
            ],
            [
              -98.5759966,
              46.0042521
            ],
            [
              -98.5759928,
              46.0043564
            ],
            [
              -98.5762796,
              46.0043614
            ],
            [
              -98.5762834,
              46.0042571
            ]
          ]
        ]
      },
      "properties": {
        "epoch_id": "EPOCH-768183e4de6062d2",
        "site_name": "CoreWeave Ellendale ND",
        "distance_to_site_km": 1.9914,
        "footprint_area_m2_webmercator": 534.0,
        "source_dataset": "Overture Maps buildings",
        "source_url": "https://docs.overturemaps.org/getting-data/",
        "source_release": "2026-09-23.1",
        "source_accessed_on": "2026-09-28",
        "geometry_role": "current building-footprint polygon",
        "linkage_semantics": "Overlap/proximity only; not evidence that the building hosts AI compute."
      }
    },
    {
      "type": "Feature",
      "id": "775a9c67-96fa-4ca2-abd9-2dffa77f8c74",
      "geometry": {
        "type": "Polygon",
        "coordinates": [
          [
            [
              -98.5749361,
              46.0041764
            ],
            [
              -98.5748637,
              46.0041761
            ],
            [
              -98.574863,
              46.0042599
            ],
            [
              -98.5749354,
              46.0042602
            ],
            [
              -98.5749361,
              46.0041764
            ]
          ]
        ]
      },
      "properties": {
        "epoch_id": "EPOCH-768183e4de6062d2",
        "site_name": "CoreWeave Ellendale ND",
        "distance_to_site_km": 1.9748,
        "footprint_area_m2_webmercator": 108.24,
        "source_dataset": "Overture Maps buildings",
        "source_url": "https://docs.overturemaps.org/getting-data/",
        "source_release": "2026-09-23.1",
        "source_accessed_on": "2026-09-28",
        "geometry_role": "current building-footprint polygon",
        "linkage_semantics": "Overlap/proximity only; not evidence that the building hosts AI compute."
      }
    },
    {
      "type": "Feature",
      "id": "e97f1ed1-a231-425a-957a-4b499d83ca19",
      "geometry": {
        "type": "Polygon",
        "coordinates": [
          [
            [
              -98.5750704,
              46.0042899
            ],
            [
              -98.5750302,
              46.004289
            ],
            [
              -98.5750289,
              46.0043188
            ],
            [
              -98.5751137,
              46.0043206
            ],
            [
              -98.5751149,
              46.0042926
            ],
            [
              -98.5750703,
              46.0042917
            ],
            [
              -98.5750704,
              46.0042899
            ]
          ]
        ]
      },
      "properties": {
        "epoch_id": "EPOCH-768183e4de6062d2",
        "site_name": "CoreWeave Ellendale ND",
        "distance_to_site_km": 1.9688,
        "footprint_area_m2_webmercator": 43.65,
        "source_dataset": "Overture Maps buildings",
        "source_url": "https://docs.overturemaps.org/getting-data/",
        "source_release": "2026-09-23.1",
        "source_accessed_on": "2026-09-28",
        "geometry_role": "current building-footprint polygon",
        "linkage_semantics": "Overlap/proximity only; not evidence that the building hosts AI compute."
      }
    },
    {
      "type": "Feature",
      "id": "a8881a3e-2c5a-4089-9519-d7a5344fe251",
      "geometry": {
        "type": "Polygon",
        "coordinates": [
          [
            [
              -98.5748441,
              46.0041778
            ],
            [
              -98.574652,
              46.0041773
            ],
            [
              -98.5746517,
              46.0042239
            ],
            [
              -98.5748438,
              46.0042244
            ],
            [
              -98.5748441,
              46.0041778
            ]
          ]
        ]
      },
      "properties": {
        "epoch_id": "EPOCH-768183e4de6062d2",
        "site_name": "CoreWeave Ellendale ND",
        "distance_to_site_km": 1.9738,
        "footprint_area_m2_webmercator": 159.71,
        "source_dataset": "Overture Maps buildings",
        "source_url": "https://docs.overturemaps.org/getting-data/",
        "source_release": "2026-09-23.1",
        "source_accessed_on": "2026-09-28",
        "geometry_role": "current building-footprint polygon",
        "linkage_semantics": "Overlap/proximity only; not evidence that the building hosts AI compute."
      }
    },
    {
      "type": "Feature",
      "id": "e5070f6e-e0d5-4589-bb27-58ea0bcb9f62",
      "geometry": {
        "type": "Polygon",
        "coordinates": [
          [
            [
              -98.575325,
              46.0040387
            ],
            [
              -98.5753242,
              46.0040061
            ],
            [
              -98.5755029,
              46.004004
            ],
            [
              -98.5755007,
              46.0039155
            ],
            [
              -98.5753505,
              46.0039173
            ],
            [
              -98.5753512,
              46.0039433
            ],
            [
              -98.575134,
              46.0039459
            ],
            [
              -98.5751363,
              46.0040409
            ],
            [
              -98.575325,
              46.0040387
            ]
          ]
        ]
      },
      "properties": {
        "epoch_id": "EPOCH-768183e4de6062d2",
        "site_name": "CoreWeave Ellendale ND",
        "distance_to_site_km": 2.0088,
        "footprint_area_m2_webmercator": 588.89,
        "source_dataset": "Overture Maps buildings",
        "source_url": "https://docs.overturemaps.org/getting-data/",
        "source_release": "2026-09-23.1",
        "source_accessed_on": "2026-09-28",
        "geometry_role": "current building-footprint polygon",
        "linkage_semantics": "Overlap/proximity only; not evidence that the building hosts AI compute."
      }
    },
    {
      "type": "Feature",
      "id": "3856781a-1241-4c3e-8b9c-7e65204dd62a",
      "geometry": {
        "type": "Polygon",
        "coordinates": [
          [
            [
              -98.57642,
              46.003627
            ],
            [
              -98.576347,
              46.00364
            ],
            [
              -98.576372,
              46.003705
            ],
            [
              -98.57633,
              46.003713
            ],
            [
              -98.576351,
              46.003769
            ],
            [
              -98.576436,
              46.003753
            ],
            [
              -98.576411,
              46.003686
            ],
            [
              -98.576441,
              46.00368
            ],
            [
              -98.57642,
              46.003627
            ]
          ]
        ]
      },
      "properties": {
        "epoch_id": "EPOCH-768183e4de6062d2",
        "site_name": "CoreWeave Ellendale ND",
        "distance_to_site_km": 2.0616,
        "footprint_area_m2_webmercator": 175.08,
        "source_dataset": "Overture Maps buildings",
        "source_url": "https://docs.overturemaps.org/getting-data/",
        "source_release": "2026-09-23.1",
        "source_accessed_on": "2026-09-28",
        "geometry_role": "current building-footprint polygon",
        "linkage_semantics": "Overlap/proximity only; not evidence that the building hosts AI compute."
      }
    },
    {
      "type": "Feature",
      "id": "67dca029-fe4b-4306-8fb3-5d21aec1fd35",
      "geometry": {
        "type": "Polygon",
        "coordinates": [
          [
            [
              -98.574413,
              46.003794
            ],
            [
              -98.574333,
              46.003794
            ],
            [
              -98.574333,
              46.003828
            ],
            [
              -98.574413,
              46.003828
            ],
            [
              -98.574413,
              46.003794
            ]
          ]
        ]
      },
      "properties": {
        "epoch_id": "EPOCH-768183e4de6062d2",
        "site_name": "CoreWeave Ellendale ND",
        "distance_to_site_km": 2.0092,
        "footprint_area_m2_webmercator": 48.53,
        "source_dataset": "Overture Maps buildings",
        "source_url": "https://docs.overturemaps.org/getting-data/",
        "source_release": "2026-09-23.1",
        "source_accessed_on": "2026-09-28",
        "geometry_role": "current building-footprint polygon",
        "linkage_semantics": "Overlap/proximity only; not evidence that the building hosts AI compute."
      }
    },
    {
      "type": "Feature",
      "id": "88cf3bed-438f-46db-9e22-ee886548ad10",
      "geometry": {
        "type": "Polygon",
        "coordinates": [
          [
            [
              -98.574318,
              46.003754
            ],
            [
              -98.574355,
              46.003718
            ],
            [
              -98.574306,
              46.003693
            ],
            [
              -98.574269,
              46.003728
            ],
            [
              -98.574318,
              46.003754
            ]
          ]
        ]
      },
      "properties": {
        "epoch_id": "EPOCH-768183e4de6062d2",
        "site_name": "CoreWeave Ellendale ND",
        "distance_to_site_km": 2.0177,
        "footprint_area_m2_webmercator": 47.87,
        "source_dataset": "Overture Maps buildings",
        "source_url": "https://docs.overturemaps.org/getting-data/",
        "source_release": "2026-09-23.1",
        "source_accessed_on": "2026-09-28",
        "geometry_role": "current building-footprint polygon",
        "linkage_semantics": "Overlap/proximity only; not evidence that the building hosts AI compute."
      }
    },
    {
      "type": "Feature",
      "id": "c51b712c-607c-4c38-9b46-4e6e22cda620",
      "geometry": {
        "type": "Polygon",
        "coordinates": [
          [
            [
              -98.574339,
              46.003632
            ],
            [
              -98.57428,
              46.003633
            ],
            [
              -98.574281,
              46.003675
            ],
            [
              -98.57434,
              46.003674
            ],
            [
              -98.574339,
              46.003632
            ]
          ]
        ]
      },
      "properties": {
        "epoch_id": "EPOCH-768183e4de6062d2",
        "site_name": "CoreWeave Ellendale ND",
        "distance_to_site_km": 2.0252,
        "footprint_area_m2_webmercator": 44.23,
        "source_dataset": "Overture Maps buildings",
        "source_url": "https://docs.overturemaps.org/getting-data/",
        "source_release": "2026-09-23.1",
        "source_accessed_on": "2026-09-28",
        "geometry_role": "current building-footprint polygon",
        "linkage_semantics": "Overlap/proximity only; not evidence that the building hosts AI compute."
      }
    },
    {
      "type": "Feature",
      "id": "4f6d716e-12de-4647-a6f6-f351061fd678",
      "geometry": {
        "type": "Polygon",
        "coordinates": [
          [
            [
              -98.5724454,
              46.0027602
            ],
            [
              -98.572483,
              46.0027606
            ],
            [
              -98.5724854,
              46.0026563
            ],
            [
              -98.5723513,
              46.0026548
            ],
            [
              -98.572349,
              46.0027535
            ],
            [
              -98.5723222,
              46.0027532
            ],
            [
              -98.5723206,
              46.0028222
            ],
            [
              -98.5724439,
              46.0028235
            ],
            [
              -98.5724454,
              46.0027602
            ]
          ]
        ]
      },
      "properties": {
        "epoch_id": "EPOCH-768183e4de6062d2",
        "site_name": "CoreWeave Ellendale ND",
        "distance_to_site_km": 2.0987,
        "footprint_area_m2_webmercator": 391.72,
        "source_dataset": "Overture Maps buildings",
        "source_url": "https://docs.overturemaps.org/getting-data/",
        "source_release": "2026-09-23.1",
        "source_accessed_on": "2026-09-28",
        "geometry_role": "current building-footprint polygon",
        "linkage_semantics": "Overlap/proximity only; not evidence that the building hosts AI compute."
      }
    },
    {
      "type": "Feature",
      "id": "b6ada3c6-aa36-46d9-9e43-5e86c419972c",
      "geometry": {
        "type": "Polygon",
        "coordinates": [
          [
            [
              -98.5729872,
              46.0027318
            ],
            [
              -98.5731052,
              46.0027335
            ],
            [
              -98.5731096,
              46.0025789
            ],
            [
              -98.5729916,
              46.0025773
            ],
            [
              -98.5729872,
              46.0027318
            ]
          ]
        ]
      },
      "properties": {
        "epoch_id": "EPOCH-768183e4de6062d2",
        "site_name": "CoreWeave Ellendale ND",
        "distance_to_site_km": 2.1154,
        "footprint_area_m2_webmercator": 325.47,
        "source_dataset": "Overture Maps buildings",
        "source_url": "https://docs.overturemaps.org/getting-data/",
        "source_release": "2026-09-23.1",
        "source_accessed_on": "2026-09-28",
        "geometry_role": "current building-footprint polygon",
        "linkage_semantics": "Overlap/proximity only; not evidence that the building hosts AI compute."
      }
    },
    {
      "type": "Feature",
      "id": "5344374b-a72f-4aff-ad2f-593cd5c999bc",
      "geometry": {
        "type": "Polygon",
        "coordinates": [
          [
            [
              -98.576012,
              46.002801
            ],
            [
              -98.575934,
              46.002801
            ],
            [
              -98.575934,
              46.002834
            ],
            [
              -98.576012,
              46.002834
            ],
            [
              -98.576012,
              46.002801
            ]
          ]
        ]
      },
      "properties": {
        "epoch_id": "EPOCH-768183e4de6062d2",
        "site_name": "CoreWeave Ellendale ND",
        "distance_to_site_km": 2.1467,
        "footprint_area_m2_webmercator": 45.92,
        "source_dataset": "Overture Maps buildings",
        "source_url": "https://docs.overturemaps.org/getting-data/",
        "source_release": "2026-09-23.1",
        "source_accessed_on": "2026-09-28",
        "geometry_role": "current building-footprint polygon",
        "linkage_semantics": "Overlap/proximity only; not evidence that the building hosts AI compute."
      }
    },
    {
      "type": "Feature",
      "id": "28f61fc1-1999-47ec-b92b-f44bdc9d6d23",
      "geometry": {
        "type": "Polygon",
        "coordinates": [
          [
            [
              -98.574564,
              46.002458
            ],
            [
              -98.574598,
              46.002492
            ],
            [
              -98.574648,
              46.002467
            ],
            [
              -98.574614,
              46.002434
            ],
            [
              -98.574564,
              46.002458
            ]
          ]
        ]
      },
      "properties": {
        "epoch_id": "EPOCH-768183e4de6062d2",
        "site_name": "CoreWeave Ellendale ND",
        "distance_to_site_km": 2.1594,
        "footprint_area_m2_webmercator": 44.74,
        "source_dataset": "Overture Maps buildings",
        "source_url": "https://docs.overturemaps.org/getting-data/",
        "source_release": "2026-09-23.1",
        "source_accessed_on": "2026-09-28",
        "geometry_role": "current building-footprint polygon",
        "linkage_semantics": "Overlap/proximity only; not evidence that the building hosts AI compute."
      }
    },
    {
      "type": "Feature",
      "id": "71333ec9-ead2-4bab-abac-b95bcfb0f5bb",
      "geometry": {
        "type": "Polygon",
        "coordinates": [
          [
            [
              -98.572418,
              46.0021316
            ],
            [
              -98.5724203,
              46.0021632
            ],
            [
              -98.5725127,
              46.00216
            ],
            [
              -98.5724988,
              46.0019685
            ],
            [
              -98.572393,
              46.0019722
            ],
            [
              -98.5723999,
              46.002067
            ],
            [
              -98.5722206,
              46.0020733
            ],
            [
              -98.5722239,
              46.0021189
            ],
            [
              -98.5722721,
              46.0021173
            ],
            [
              -98.5722735,
              46.0021367
            ],
            [
              -98.572418,
              46.0021316
            ]
          ]
        ]
      },
      "properties": {
        "epoch_id": "EPOCH-768183e4de6062d2",
        "site_name": "CoreWeave Ellendale ND",
        "distance_to_site_km": 2.1714,
        "footprint_area_m2_webmercator": 546.68,
        "source_dataset": "Overture Maps buildings",
        "source_url": "https://docs.overturemaps.org/getting-data/",
        "source_release": "2026-09-23.1",
        "source_accessed_on": "2026-09-28",
        "geometry_role": "current building-footprint polygon",
        "linkage_semantics": "Overlap/proximity only; not evidence that the building hosts AI compute."
      }
    },
    {
      "type": "Feature",
      "id": "0c6f61b3-cc20-40e0-b61e-2cf72f6adb2b",
      "geometry": {
        "type": "Polygon",
        "coordinates": [
          [
            [
              -98.572509,
              46.001789
            ],
            [
              -98.572547,
              46.001789
            ],
            [
              -98.572547,
              46.001663
            ],
            [
              -98.572509,
              46.001663
            ],
            [
              -98.572509,
              46.001789
            ]
          ]
        ]
      },
      "properties": {
        "epoch_id": "EPOCH-768183e4de6062d2",
        "site_name": "CoreWeave Ellendale ND",
        "distance_to_site_km": 2.2114,
        "footprint_area_m2_webmercator": 85.42,
        "source_dataset": "Overture Maps buildings",
        "source_url": "https://docs.overturemaps.org/getting-data/",
        "source_release": "2026-09-23.1",
        "source_accessed_on": "2026-09-28",
        "geometry_role": "current building-footprint polygon",
        "linkage_semantics": "Overlap/proximity only; not evidence that the building hosts AI compute."
      }
    },
    {
      "type": "Feature",
      "id": "14c74fbe-4902-485c-8c0b-ac9f19cbdf32",
      "geometry": {
        "type": "Polygon",
        "coordinates": [
          [
            [
              -98.5635866,
              46.0018525
            ],
            [
              -98.5635878,
              46.0018283
            ],
            [
              -98.5634967,
              46.0018263
            ],
            [
              -98.5634916,
              46.0019361
            ],
            [
              -98.5636229,
              46.001939
            ],
            [
              -98.5636268,
              46.0018534
            ],
            [
              -98.5635866,
              46.0018525
            ]
          ]
        ]
      },
      "properties": {
        "epoch_id": "EPOCH-768183e4de6062d2",
        "site_name": "CoreWeave Ellendale ND",
        "distance_to_site_km": 2.2058,
        "footprint_area_m2_webmercator": 240.02,
        "source_dataset": "Overture Maps buildings",
        "source_url": "https://docs.overturemaps.org/getting-data/",
        "source_release": "2026-09-23.1",
        "source_accessed_on": "2026-09-28",
        "geometry_role": "current building-footprint polygon",
        "linkage_semantics": "Overlap/proximity only; not evidence that the building hosts AI compute."
      }
    },
    {
      "type": "Feature",
      "id": "871500eb-303d-4b3d-895c-e5a6283e00e1",
      "geometry": {
        "type": "Polygon",
        "coordinates": [
          [
            [
              -98.5643615,
              46.0026259
            ],
            [
              -98.564458,
              46.0026271
            ],
            [
              -98.5644597,
              46.0025619
            ],
            [
              -98.5643632,
              46.0025607
            ],
            [
              -98.5643615,
              46.0026259
            ]
          ]
        ]
      },
      "properties": {
        "epoch_id": "EPOCH-768183e4de6062d2",
        "site_name": "CoreWeave Ellendale ND",
        "distance_to_site_km": 2.1173,
        "footprint_area_m2_webmercator": 112.28,
        "source_dataset": "Overture Maps buildings",
        "source_url": "https://docs.overturemaps.org/getting-data/",
        "source_release": "2026-09-23.1",
        "source_accessed_on": "2026-09-28",
        "geometry_role": "current building-footprint polygon",
        "linkage_semantics": "Overlap/proximity only; not evidence that the building hosts AI compute."
      }
    },
    {
      "type": "Feature",
      "id": "448202b0-846f-4170-9e0d-fcb435fc96bd",
      "geometry": {
        "type": "Polygon",
        "coordinates": [
          [
            [
              -98.5641089,
              46.0026182
            ],
            [
              -98.5641122,
              46.00254
            ],
            [
              -98.5640372,
              46.0025385
            ],
            [
              -98.5640339,
              46.0026166
            ],
            [
              -98.5641089,
              46.0026182
            ]
          ]
        ]
      },
      "properties": {
        "epoch_id": "EPOCH-768183e4de6062d2",
        "site_name": "CoreWeave Ellendale ND",
        "distance_to_site_km": 2.1231,
        "footprint_area_m2_webmercator": 104.66,
        "source_dataset": "Overture Maps buildings",
        "source_url": "https://docs.overturemaps.org/getting-data/",
        "source_release": "2026-09-23.1",
        "source_accessed_on": "2026-09-28",
        "geometry_role": "current building-footprint polygon",
        "linkage_semantics": "Overlap/proximity only; not evidence that the building hosts AI compute."
      }
    },
    {
      "type": "Feature",
      "id": "e8cdd51c-c3f7-468f-9870-0ed41ef7e2c4",
      "geometry": {
        "type": "Polygon",
        "coordinates": [
          [
            [
              -98.5643967,
              46.0020861
            ],
            [
              -98.5641667,
              46.0020084
            ],
            [
              -98.5641119,
              46.0020868
            ],
            [
              -98.5643419,
              46.0021645
            ],
            [
              -98.5643967,
              46.0020861
            ]
          ]
        ]
      },
      "properties": {
        "epoch_id": "EPOCH-768183e4de6062d2",
        "site_name": "CoreWeave Ellendale ND",
        "distance_to_site_km": 2.1749,
        "footprint_area_m2_webmercator": 397.65,
        "source_dataset": "Overture Maps buildings",
        "source_url": "https://docs.overturemaps.org/getting-data/",
        "source_release": "2026-09-23.1",
        "source_accessed_on": "2026-09-28",
        "geometry_role": "current building-footprint polygon",
        "linkage_semantics": "Overlap/proximity only; not evidence that the building hosts AI compute."
      }
    }
  ]
}
