{
  "type": "FeatureCollection",
  "source": {
    "dataset": "Overture Maps buildings",
    "url": "https://docs.overturemaps.org/getting-data/",
    "accessed_on": "2026-09-28",
    "release": "2026-09-23.1",
    "site_epoch_id": "EPOCH-a69e48fd129d0cdb",
    "site_name": "Coreweave Helios",
    "site_latitude": 33.78064,
    "site_longitude": -100.8671,
    "search_bbox": [
      -100.88709999999999,
      33.760639999999995,
      -100.8471,
      33.80064
    ],
    "filter_radius_km": 3.0,
    "semantics": "Current building polygons are ingested for physical geometry. They are not, by themselves, AI-facility identity evidence or a construction time series."
  },
  "features": [
    {
      "type": "Feature",
      "id": "0c9af80f-b110-417a-be61-29923a1a10ca",
      "geometry": {
        "type": "Polygon",
        "coordinates": [
          [
            [
              -100.8864452,
              33.7826882
            ],
            [
              -100.8864405,
              33.7827428
            ],
            [
              -100.8865312,
              33.7827482
            ],
            [
              -100.8865359,
              33.7826936
            ],
            [
              -100.8864452,
              33.7826882
            ]
          ]
        ]
      },
      "properties": {
        "epoch_id": "EPOCH-a69e48fd129d0cdb",
        "site_name": "Coreweave Helios",
        "distance_to_site_km": 1.8067,
        "footprint_area_m2_webmercator": 74.21,
        "source_dataset": "Overture Maps buildings",
        "source_url": "https://docs.overturemaps.org/getting-data/",
        "source_release": "2026-09-23.1",
        "source_accessed_on": "2026-09-28",
        "geometry_role": "current building-footprint polygon",
        "linkage_semantics": "Overlap/proximity only; not evidence that the building hosts AI compute."
      }
    },
    {
      "type": "Feature",
      "id": "1e4c97d8-2730-455f-9aac-95f457c3d26c",
      "geometry": {
        "type": "Polygon",
        "coordinates": [
          [
            [
              -100.8816737,
              33.7983611
            ],
            [
              -100.8817219,
              33.7983593
            ],
            [
              -100.8817207,
              33.798337
            ],
            [
              -100.881793,
              33.7983343
            ],
            [
              -100.8817876,
              33.7982342
            ],
            [
              -100.8816297,
              33.7982401
            ],
            [
              -100.8816328,
              33.7982979
            ],
            [
              -100.8816703,
              33.7982965
            ],
            [
              -100.8816737,
              33.7983611
            ]
          ]
        ]
      },
      "properties": {
        "epoch_id": "EPOCH-a69e48fd129d0cdb",
        "site_name": "Coreweave Helios",
        "distance_to_site_km": 2.3823,
        "footprint_area_m2_webmercator": 228.56,
        "source_dataset": "Overture Maps buildings",
        "source_url": "https://docs.overturemaps.org/getting-data/",
        "source_release": "2026-09-23.1",
        "source_accessed_on": "2026-09-28",
        "geometry_role": "current building-footprint polygon",
        "linkage_semantics": "Overlap/proximity only; not evidence that the building hosts AI compute."
      }
    },
    {
      "type": "Feature",
      "id": "80b2097e-cabb-480c-abc5-147d052b5b26",
      "geometry": {
        "type": "Polygon",
        "coordinates": [
          [
            [
              -100.8816011,
              33.7980739
            ],
            [
              -100.8815154,
              33.798076
            ],
            [
              -100.8815174,
              33.7981339
            ],
            [
              -100.8816032,
              33.7981318
            ],
            [
              -100.8816011,
              33.7980739
            ]
          ]
        ]
      },
      "properties": {
        "epoch_id": "EPOCH-a69e48fd129d0cdb",
        "site_name": "Coreweave Helios",
        "distance_to_site_km": 2.3572,
        "footprint_area_m2_webmercator": 74.1,
        "source_dataset": "Overture Maps buildings",
        "source_url": "https://docs.overturemaps.org/getting-data/",
        "source_release": "2026-09-23.1",
        "source_accessed_on": "2026-09-28",
        "geometry_role": "current building-footprint polygon",
        "linkage_semantics": "Overlap/proximity only; not evidence that the building hosts AI compute."
      }
    },
    {
      "type": "Feature",
      "id": "d3fe321e-ab69-4a0a-b44f-48082c34a4a2",
      "geometry": {
        "type": "Polygon",
        "coordinates": [
          [
            [
              -100.8809727,
              33.797913
            ],
            [
              -100.8809706,
              33.7980066
            ],
            [
              -100.8811047,
              33.7980086
            ],
            [
              -100.8811068,
              33.797915
            ],
            [
              -100.8809727,
              33.797913
            ]
          ]
        ]
      },
      "properties": {
        "epoch_id": "EPOCH-a69e48fd129d0cdb",
        "site_name": "Coreweave Helios",
        "distance_to_site_km": 2.317,
        "footprint_area_m2_webmercator": 187.24,
        "source_dataset": "Overture Maps buildings",
        "source_url": "https://docs.overturemaps.org/getting-data/",
        "source_release": "2026-09-23.1",
        "source_accessed_on": "2026-09-28",
        "geometry_role": "current building-footprint polygon",
        "linkage_semantics": "Overlap/proximity only; not evidence that the building hosts AI compute."
      }
    },
    {
      "type": "Feature",
      "id": "6888b49f-1d34-48d5-8dc7-2843cd9e20e7",
      "geometry": {
        "type": "Polygon",
        "coordinates": [
          [
            [
              -100.8812764,
              33.7981825
            ],
            [
              -100.8812785,
              33.7982382
            ],
            [
              -100.8813535,
              33.7982362
            ],
            [
              -100.8813514,
              33.7981805
            ],
            [
              -100.8812764,
              33.7981825
            ]
          ]
        ]
      },
      "properties": {
        "epoch_id": "EPOCH-a69e48fd129d0cdb",
        "site_name": "Coreweave Helios",
        "distance_to_site_km": 2.3542,
        "footprint_area_m2_webmercator": 62.36,
        "source_dataset": "Overture Maps buildings",
        "source_url": "https://docs.overturemaps.org/getting-data/",
        "source_release": "2026-09-23.1",
        "source_accessed_on": "2026-09-28",
        "geometry_role": "current building-footprint polygon",
        "linkage_semantics": "Overlap/proximity only; not evidence that the building hosts AI compute."
      }
    },
    {
      "type": "Feature",
      "id": "523e22c4-13f8-41f2-aa24-f225013957b7",
      "geometry": {
        "type": "Polygon",
        "coordinates": [
          [
            [
              -100.8751486,
              33.7950257
            ],
            [
              -100.8753336,
              33.7950224
            ],
            [
              -100.8753311,
              33.7949258
            ],
            [
              -100.8751461,
              33.794929
            ],
            [
              -100.8751486,
              33.7950257
            ]
          ]
        ]
      },
      "properties": {
        "epoch_id": "EPOCH-a69e48fd129d0cdb",
        "site_name": "Coreweave Helios",
        "distance_to_site_km": 1.7626,
        "footprint_area_m2_webmercator": 266.74,
        "source_dataset": "Overture Maps buildings",
        "source_url": "https://docs.overturemaps.org/getting-data/",
        "source_release": "2026-09-23.1",
        "source_accessed_on": "2026-09-28",
        "geometry_role": "current building-footprint polygon",
        "linkage_semantics": "Overlap/proximity only; not evidence that the building hosts AI compute."
      }
    },
    {
      "type": "Feature",
      "id": "095044d0-3445-4111-8902-69c8448c4800",
      "geometry": {
        "type": "Polygon",
        "coordinates": [
          [
            [
              -100.8779991,
              33.7951693
            ],
            [
              -100.8781868,
              33.7951703
            ],
            [
              -100.8781871,
              33.7951293
            ],
            [
              -100.8779994,
              33.7951283
            ],
            [
              -100.8779991,
              33.7951693
            ]
          ]
        ]
      },
      "properties": {
        "epoch_id": "EPOCH-a69e48fd129d0cdb",
        "site_name": "Coreweave Helios",
        "distance_to_site_km": 1.9066,
        "footprint_area_m2_webmercator": 114.76,
        "source_dataset": "Overture Maps buildings",
        "source_url": "https://docs.overturemaps.org/getting-data/",
        "source_release": "2026-09-23.1",
        "source_accessed_on": "2026-09-28",
        "geometry_role": "current building-footprint polygon",
        "linkage_semantics": "Overlap/proximity only; not evidence that the building hosts AI compute."
      }
    },
    {
      "type": "Feature",
      "id": "1c4ac48b-b475-461c-9a35-58bae89b16cb",
      "geometry": {
        "type": "Polygon",
        "coordinates": [
          [
            [
              -100.8780056,
              33.779207
            ],
            [
              -100.8780077,
              33.7791536
            ],
            [
              -100.8779255,
              33.7791514
            ],
            [
              -100.8779249,
              33.7791678
            ],
            [
              -100.8779454,
              33.7791684
            ],
            [
              -100.877944,
              33.7792054
            ],
            [
              -100.8780056,
              33.779207
            ]
          ]
        ]
      },
      "properties": {
        "epoch_id": "EPOCH-a69e48fd129d0cdb",
        "site_name": "Coreweave Helios",
        "distance_to_site_km": 1.0179,
        "footprint_area_m2_webmercator": 54.17,
        "source_dataset": "Overture Maps buildings",
        "source_url": "https://docs.overturemaps.org/getting-data/",
        "source_release": "2026-09-23.1",
        "source_accessed_on": "2026-09-28",
        "geometry_role": "current building-footprint polygon",
        "linkage_semantics": "Overlap/proximity only; not evidence that the building hosts AI compute."
      }
    },
    {
      "type": "Feature",
      "id": "da37ccc0-ef5d-4ecb-8d53-e513f71d4a65",
      "geometry": {
        "type": "Polygon",
        "coordinates": [
          [
            [
              -100.8761962,
              33.7776103
            ],
            [
              -100.8763622,
              33.7776052
            ],
            [
              -100.8763593,
              33.7775384
            ],
            [
              -100.8761932,
              33.7775435
            ],
            [
              -100.8761962,
              33.7776103
            ]
          ]
        ]
      },
      "properties": {
        "epoch_id": "EPOCH-a69e48fd129d0cdb",
        "site_name": "Coreweave Helios",
        "distance_to_site_km": 0.9142,
        "footprint_area_m2_webmercator": 165.59,
        "source_dataset": "Overture Maps buildings",
        "source_url": "https://docs.overturemaps.org/getting-data/",
        "source_release": "2026-09-23.1",
        "source_accessed_on": "2026-09-28",
        "geometry_role": "current building-footprint polygon",
        "linkage_semantics": "Overlap/proximity only; not evidence that the building hosts AI compute."
      }
    },
    {
      "type": "Feature",
      "id": "cd895494-22c9-41cf-851c-9b06c995a8d8",
      "geometry": {
        "type": "Polygon",
        "coordinates": [
          [
            [
              -100.8859343,
              33.7668414
            ],
            [
              -100.8857198,
              33.7668387
            ],
            [
              -100.8857166,
              33.7670126
            ],
            [
              -100.8859579,
              33.7670157
            ],
            [
              -100.8859595,
              33.7669287
            ],
            [
              -100.8859327,
              33.7669284
            ],
            [
              -100.8859343,
              33.7668414
            ]
          ]
        ]
      },
      "properties": {
        "epoch_id": "EPOCH-a69e48fd129d0cdb",
        "site_name": "Coreweave Helios",
        "distance_to_site_km": 2.307,
        "footprint_area_m2_webmercator": 591.02,
        "source_dataset": "Overture Maps buildings",
        "source_url": "https://docs.overturemaps.org/getting-data/",
        "source_release": "2026-09-23.1",
        "source_accessed_on": "2026-09-28",
        "geometry_role": "current building-footprint polygon",
        "linkage_semantics": "Overlap/proximity only; not evidence that the building hosts AI compute."
      }
    },
    {
      "type": "Feature",
      "id": "d58e1767-37c1-48a4-8af2-89d72136664a",
      "geometry": {
        "type": "Polygon",
        "coordinates": [
          [
            [
              -100.8860265,
              33.7671285
            ],
            [
              -100.8861038,
              33.7671438
            ],
            [
              -100.8861273,
              33.7670615
            ],
            [
              -100.88605,
              33.7670462
            ],
            [
              -100.8860265,
              33.7671285
            ]
          ]
        ]
      },
      "properties": {
        "epoch_id": "EPOCH-a69e48fd129d0cdb",
        "site_name": "Coreweave Helios",
        "distance_to_site_km": 2.3119,
        "footprint_area_m2_webmercator": 100.19,
        "source_dataset": "Overture Maps buildings",
        "source_url": "https://docs.overturemaps.org/getting-data/",
        "source_release": "2026-09-23.1",
        "source_accessed_on": "2026-09-28",
        "geometry_role": "current building-footprint polygon",
        "linkage_semantics": "Overlap/proximity only; not evidence that the building hosts AI compute."
      }
    },
    {
      "type": "Feature",
      "id": "fc4d9388-1fd7-4d7d-ad3f-c49a1d2115b1",
      "geometry": {
        "type": "Polygon",
        "coordinates": [
          [
            [
              -100.8863878,
              33.7670153
            ],
            [
              -100.8863265,
              33.7669712
            ],
            [
              -100.886254,
              33.7670407
            ],
            [
              -100.8863153,
              33.7670848
            ],
            [
              -100.8863878,
              33.7670153
            ]
          ]
        ]
      },
      "properties": {
        "epoch_id": "EPOCH-a69e48fd129d0cdb",
        "site_name": "Coreweave Helios",
        "distance_to_site_km": 2.3339,
        "footprint_area_m2_webmercator": 111.17,
        "source_dataset": "Overture Maps buildings",
        "source_url": "https://docs.overturemaps.org/getting-data/",
        "source_release": "2026-09-23.1",
        "source_accessed_on": "2026-09-28",
        "geometry_role": "current building-footprint polygon",
        "linkage_semantics": "Overlap/proximity only; not evidence that the building hosts AI compute."
      }
    },
    {
      "type": "Feature",
      "id": "756de437-5c78-4098-8b16-1bed8676308c",
      "geometry": {
        "type": "Polygon",
        "coordinates": [
          [
            [
              -100.8865208,
              33.7668846
            ],
            [
              -100.8864886,
              33.7667195
            ],
            [
              -100.8863057,
              33.7667441
            ],
            [
              -100.8863378,
              33.7669092
            ],
            [
              -100.8865208,
              33.7668846
            ]
          ]
        ]
      },
      "properties": {
        "epoch_id": "EPOCH-a69e48fd129d0cdb",
        "site_name": "Coreweave Helios",
        "distance_to_site_km": 2.3559,
        "footprint_area_m2_webmercator": 462.05,
        "source_dataset": "Overture Maps buildings",
        "source_url": "https://docs.overturemaps.org/getting-data/",
        "source_release": "2026-09-23.1",
        "source_accessed_on": "2026-09-28",
        "geometry_role": "current building-footprint polygon",
        "linkage_semantics": "Overlap/proximity only; not evidence that the building hosts AI compute."
      }
    },
    {
      "type": "Feature",
      "id": "9520a439-fbbc-482a-a878-75e53fd6d947",
      "geometry": {
        "type": "Polygon",
        "coordinates": [
          [
            [
              -100.8856105,
              33.7683619
            ],
            [
              -100.8854624,
              33.76831
            ],
            [
              -100.8854379,
              33.7683585
            ],
            [
              -100.8854857,
              33.7683753
            ],
            [
              -100.8854747,
              33.7683969
            ],
            [
              -100.885575,
              33.768432
            ],
            [
              -100.8856105,
              33.7683619
            ]
          ]
        ]
      },
      "properties": {
        "epoch_id": "EPOCH-a69e48fd129d0cdb",
        "site_name": "Coreweave Helios",
        "distance_to_site_km": 2.1822,
        "footprint_area_m2_webmercator": 164.1,
        "source_dataset": "Overture Maps buildings",
        "source_url": "https://docs.overturemaps.org/getting-data/",
        "source_release": "2026-09-23.1",
        "source_accessed_on": "2026-09-28",
        "geometry_role": "current building-footprint polygon",
        "linkage_semantics": "Overlap/proximity only; not evidence that the building hosts AI compute."
      }
    },
    {
      "type": "Feature",
      "id": "8c712a7e-4758-4fbb-8682-2560d0f13d43",
      "geometry": {
        "type": "Polygon",
        "coordinates": [
          [
            [
              -100.8744654,
              33.7640866
            ],
            [
              -100.8742828,
              33.764018
            ],
            [
              -100.87416,
              33.7642439
            ],
            [
              -100.8743426,
              33.7643125
            ],
            [
              -100.8744654,
              33.7640866
            ]
          ]
        ]
      },
      "properties": {
        "epoch_id": "EPOCH-a69e48fd129d0cdb",
        "site_name": "Coreweave Helios",
        "distance_to_site_km": 1.9495,
        "footprint_area_m2_webmercator": 740.44,
        "source_dataset": "Overture Maps buildings",
        "source_url": "https://docs.overturemaps.org/getting-data/",
        "source_release": "2026-09-23.1",
        "source_accessed_on": "2026-09-28",
        "geometry_role": "current building-footprint polygon",
        "linkage_semantics": "Overlap/proximity only; not evidence that the building hosts AI compute."
      }
    },
    {
      "type": "Feature",
      "id": "0bc3b3bb-2b2f-4e07-9e3a-46ade6a16e57",
      "geometry": {
        "type": "Polygon",
        "coordinates": [
          [
            [
              -100.8682944,
              33.7643723
            ],
            [
              -100.8682953,
              33.7643299
            ],
            [
              -100.8680325,
              33.7643261
            ],
            [
              -100.8680316,
              33.7643685
            ],
            [
              -100.8682944,
              33.7643723
            ]
          ]
        ]
      },
      "properties": {
        "epoch_id": "EPOCH-a69e48fd129d0cdb",
        "site_name": "Coreweave Helios",
        "distance_to_site_km": 1.8141,
        "footprint_area_m2_webmercator": 166.15,
        "source_dataset": "Overture Maps buildings",
        "source_url": "https://docs.overturemaps.org/getting-data/",
        "source_release": "2026-09-23.1",
        "source_accessed_on": "2026-09-28",
        "geometry_role": "current building-footprint polygon",
        "linkage_semantics": "Overlap/proximity only; not evidence that the building hosts AI compute."
      }
    },
    {
      "type": "Feature",
      "id": "2fb5d828-4a59-4d1a-97cf-c62dee9c9435",
      "geometry": {
        "type": "Polygon",
        "coordinates": [
          [
            [
              -100.8679958,
              33.7647615
            ],
            [
              -100.8681099,
              33.7647631
            ],
            [
              -100.8681117,
              33.7646717
            ],
            [
              -100.8679976,
              33.7646701
            ],
            [
              -100.8679958,
              33.7647615
            ]
          ]
        ]
      },
      "properties": {
        "epoch_id": "EPOCH-a69e48fd129d0cdb",
        "site_name": "Coreweave Helios",
        "distance_to_site_km": 1.7728,
        "footprint_area_m2_webmercator": 155.5,
        "source_dataset": "Overture Maps buildings",
        "source_url": "https://docs.overturemaps.org/getting-data/",
        "source_release": "2026-09-23.1",
        "source_accessed_on": "2026-09-28",
        "geometry_role": "current building-footprint polygon",
        "linkage_semantics": "Overlap/proximity only; not evidence that the building hosts AI compute."
      }
    },
    {
      "type": "Feature",
      "id": "f76c3168-54a7-4410-9669-6dc1272e53ed",
      "geometry": {
        "type": "Polygon",
        "coordinates": [
          [
            [
              -100.8710114,
              33.7666878
            ],
            [
              -100.871008,
              33.7665496
            ],
            [
              -100.8709289,
              33.7665509
            ],
            [
              -100.8709322,
              33.7666891
            ],
            [
              -100.8710114,
              33.7666878
            ]
          ]
        ]
      },
      "properties": {
        "epoch_id": "EPOCH-a69e48fd129d0cdb",
        "site_name": "Coreweave Helios",
        "distance_to_site_km": 1.5995,
        "footprint_area_m2_webmercator": 163.12,
        "source_dataset": "Overture Maps buildings",
        "source_url": "https://docs.overturemaps.org/getting-data/",
        "source_release": "2026-09-23.1",
        "source_accessed_on": "2026-09-28",
        "geometry_role": "current building-footprint polygon",
        "linkage_semantics": "Overlap/proximity only; not evidence that the building hosts AI compute."
      }
    },
    {
      "type": "Feature",
      "id": "f7e43225-42d2-4cd2-bd9f-b787d92cf2b3",
      "geometry": {
        "type": "Polygon",
        "coordinates": [
          [
            [
              -100.8705146,
              33.7666417
            ],
            [
              -100.8707464,
              33.7666383
            ],
            [
              -100.8707446,
              33.7665547
            ],
            [
              -100.8705128,
              33.7665581
            ],
            [
              -100.8705146,
              33.7666417
            ]
          ]
        ]
      },
      "properties": {
        "epoch_id": "EPOCH-a69e48fd129d0cdb",
        "site_name": "Coreweave Helios",
        "distance_to_site_km": 1.5951,
        "footprint_area_m2_webmercator": 288.96,
        "source_dataset": "Overture Maps buildings",
        "source_url": "https://docs.overturemaps.org/getting-data/",
        "source_release": "2026-09-23.1",
        "source_accessed_on": "2026-09-28",
        "geometry_role": "current building-footprint polygon",
        "linkage_semantics": "Overlap/proximity only; not evidence that the building hosts AI compute."
      }
    },
    {
      "type": "Feature",
      "id": "3a8601d4-4d51-4310-9398-e35a250cc9d2",
      "geometry": {
        "type": "Polygon",
        "coordinates": [
          [
            [
              -100.8709356,
              33.7672278
            ],
            [
              -100.8709448,
              33.7673028
            ],
            [
              -100.8710749,
              33.7672917
            ],
            [
              -100.8710656,
              33.7672167
            ],
            [
              -100.8709356,
              33.7672278
            ]
          ]
        ]
      },
      "properties": {
        "epoch_id": "EPOCH-a69e48fd129d0cdb",
        "site_name": "Coreweave Helios",
        "distance_to_site_km": 1.531,
        "footprint_area_m2_webmercator": 146.93,
        "source_dataset": "Overture Maps buildings",
        "source_url": "https://docs.overturemaps.org/getting-data/",
        "source_release": "2026-09-23.1",
        "source_accessed_on": "2026-09-28",
        "geometry_role": "current building-footprint polygon",
        "linkage_semantics": "Overlap/proximity only; not evidence that the building hosts AI compute."
      }
    },
    {
      "type": "Feature",
      "id": "4b6e9d6f-23e9-405a-ac93-e052f20885fe",
      "geometry": {
        "type": "Polygon",
        "coordinates": [
          [
            [
              -100.8708342,
              33.7670507
            ],
            [
              -100.8708348,
              33.7670084
            ],
            [
              -100.8707462,
              33.7670076
            ],
            [
              -100.8707457,
              33.76705
            ],
            [
              -100.8708342,
              33.7670507
            ]
          ]
        ]
      },
      "properties": {
        "epoch_id": "EPOCH-a69e48fd129d0cdb",
        "site_name": "Coreweave Helios",
        "distance_to_site_km": 1.5514,
        "footprint_area_m2_webmercator": 55.91,
        "source_dataset": "Overture Maps buildings",
        "source_url": "https://docs.overturemaps.org/getting-data/",
        "source_release": "2026-09-23.1",
        "source_accessed_on": "2026-09-28",
        "geometry_role": "current building-footprint polygon",
        "linkage_semantics": "Overlap/proximity only; not evidence that the building hosts AI compute."
      }
    },
    {
      "type": "Feature",
      "id": "ba5ec902-fbc7-4208-a160-3c57503bbc9f",
      "geometry": {
        "type": "Polygon",
        "coordinates": [
          [
            [
              -100.8711943,
              33.7668346
            ],
            [
              -100.8711919,
              33.7667767
            ],
            [
              -100.8710993,
              33.7667795
            ],
            [
              -100.8711018,
              33.7668374
            ],
            [
              -100.8711943,
              33.7668346
            ]
          ]
        ]
      },
      "properties": {
        "epoch_id": "EPOCH-a69e48fd129d0cdb",
        "site_name": "Coreweave Helios",
        "distance_to_site_km": 1.583,
        "footprint_area_m2_webmercator": 79.98,
        "source_dataset": "Overture Maps buildings",
        "source_url": "https://docs.overturemaps.org/getting-data/",
        "source_release": "2026-09-23.1",
        "source_accessed_on": "2026-09-28",
        "geometry_role": "current building-footprint polygon",
        "linkage_semantics": "Overlap/proximity only; not evidence that the building hosts AI compute."
      }
    },
    {
      "type": "Feature",
      "id": "6d9d2d80-8b12-405b-8775-91d765b53578",
      "geometry": {
        "type": "Polygon",
        "coordinates": [
          [
            [
              -100.8713062,
              33.7674804
            ],
            [
              -100.8713932,
              33.7674758
            ],
            [
              -100.8713911,
              33.7674481
            ],
            [
              -100.8713537,
              33.76745
            ],
            [
              -100.8713547,
              33.7674644
            ],
            [
              -100.8713414,
              33.7674651
            ],
            [
              -100.8713392,
              33.7674363
            ],
            [
              -100.871303,
              33.7674382
            ],
            [
              -100.8713062,
              33.7674804
            ]
          ]
        ]
      },
      "properties": {
        "epoch_id": "EPOCH-a69e48fd129d0cdb",
        "site_name": "Coreweave Helios",
        "distance_to_site_km": 1.517,
        "footprint_area_m2_webmercator": 41.08,
        "source_dataset": "Overture Maps buildings",
        "source_url": "https://docs.overturemaps.org/getting-data/",
        "source_release": "2026-09-23.1",
        "source_accessed_on": "2026-09-28",
        "geometry_role": "current building-footprint polygon",
        "linkage_semantics": "Overlap/proximity only; not evidence that the building hosts AI compute."
      }
    },
    {
      "type": "Feature",
      "id": "fb0d631d-1146-4f07-8e6e-cb0d87d7d4cd",
      "geometry": {
        "type": "Polygon",
        "coordinates": [
          [
            [
              -100.8588938,
              33.7656555
            ],
            [
              -100.8588987,
              33.7657244
            ],
            [
              -100.8589575,
              33.7657215
            ],
            [
              -100.8589526,
              33.7656526
            ],
            [
              -100.8588938,
              33.7656555
            ]
          ]
        ]
      },
      "properties": {
        "epoch_id": "EPOCH-a69e48fd129d0cdb",
        "site_name": "Coreweave Helios",
        "distance_to_site_km": 1.8262,
        "footprint_area_m2_webmercator": 60.6,
        "source_dataset": "Overture Maps buildings",
        "source_url": "https://docs.overturemaps.org/getting-data/",
        "source_release": "2026-09-23.1",
        "source_accessed_on": "2026-09-28",
        "geometry_role": "current building-footprint polygon",
        "linkage_semantics": "Overlap/proximity only; not evidence that the building hosts AI compute."
      }
    },
    {
      "type": "Feature",
      "id": "b266c7c6-e8c9-4e70-9f57-2c3d49f18b9a",
      "geometry": {
        "type": "Polygon",
        "coordinates": [
          [
            [
              -100.867348,
              33.7746215
            ],
            [
              -100.8708,
              33.7746148
            ],
            [
              -100.8708032,
              33.7744141
            ],
            [
              -100.8708054,
              33.7742804
            ],
            [
              -100.8673453,
              33.7742848
            ],
            [
              -100.8673465,
              33.7744342
            ],
            [
              -100.867348,
              33.7746215
            ]
          ]
        ]
      },
      "properties": {
        "epoch_id": "EPOCH-a69e48fd129d0cdb",
        "site_name": "Coreweave Helios",
        "distance_to_site_km": 0.712,
        "footprint_area_m2_webmercator": 17288.28,
        "source_dataset": "Overture Maps buildings",
        "source_url": "https://docs.overturemaps.org/getting-data/",
        "source_release": "2026-09-23.1",
        "source_accessed_on": "2026-09-28",
        "geometry_role": "current building-footprint polygon",
        "linkage_semantics": "Overlap/proximity only; not evidence that the building hosts AI compute."
      }
    },
    {
      "type": "Feature",
      "id": "9cc616e3-a88c-459d-9612-01bfe4ca49e3",
      "geometry": {
        "type": "Polygon",
        "coordinates": [
          [
            [
              -100.8534396,
              33.7803162
            ],
            [
              -100.8534362,
              33.7804061
            ],
            [
              -100.8536184,
              33.7804109
            ],
            [
              -100.8536218,
              33.7803209
            ],
            [
              -100.8534396,
              33.7803162
            ]
          ]
        ]
      },
      "properties": {
        "epoch_id": "EPOCH-a69e48fd129d0cdb",
        "site_name": "Coreweave Helios",
        "distance_to_site_km": 1.2546,
        "footprint_area_m2_webmercator": 244.58,
        "source_dataset": "Overture Maps buildings",
        "source_url": "https://docs.overturemaps.org/getting-data/",
        "source_release": "2026-09-23.1",
        "source_accessed_on": "2026-09-28",
        "geometry_role": "current building-footprint polygon",
        "linkage_semantics": "Overlap/proximity only; not evidence that the building hosts AI compute."
      }
    },
    {
      "type": "Feature",
      "id": "df81e439-c236-45f5-a56c-206bd8b1339f",
      "geometry": {
        "type": "Polygon",
        "coordinates": [
          [
            [
              -100.8479104,
              33.7809957
            ],
            [
              -100.8476047,
              33.780993
            ],
            [
              -100.8476033,
              33.7810967
            ],
            [
              -100.8477562,
              33.7810981
            ],
            [
              -100.847757,
              33.7810356
            ],
            [
              -100.8479099,
              33.781037
            ],
            [
              -100.8479104,
              33.7809957
            ]
          ]
        ]
      },
      "properties": {
        "epoch_id": "EPOCH-a69e48fd129d0cdb",
        "site_name": "Coreweave Helios",
        "distance_to_site_km": 1.7913,
        "footprint_area_m2_webmercator": 330.52,
        "source_dataset": "Overture Maps buildings",
        "source_url": "https://docs.overturemaps.org/getting-data/",
        "source_release": "2026-09-23.1",
        "source_accessed_on": "2026-09-28",
        "geometry_role": "current building-footprint polygon",
        "linkage_semantics": "Overlap/proximity only; not evidence that the building hosts AI compute."
      }
    },
    {
      "type": "Feature",
      "id": "57413177-956d-4a06-ac51-2f2eb4d1a7eb",
      "geometry": {
        "type": "Polygon",
        "coordinates": [
          [
            [
              -100.8474914,
              33.7804736
            ],
            [
              -100.8473938,
              33.7804746
            ],
            [
              -100.8473961,
              33.7806405
            ],
            [
              -100.8476294,
              33.7806383
            ],
            [
              -100.8476278,
              33.7805224
            ],
            [
              -100.8474921,
              33.7805237
            ],
            [
              -100.8474914,
              33.7804736
            ]
          ]
        ]
      },
      "properties": {
        "epoch_id": "EPOCH-a69e48fd129d0cdb",
        "site_name": "Coreweave Helios",
        "distance_to_site_km": 1.8114,
        "footprint_area_m2_webmercator": 476.0,
        "source_dataset": "Overture Maps buildings",
        "source_url": "https://docs.overturemaps.org/getting-data/",
        "source_release": "2026-09-23.1",
        "source_accessed_on": "2026-09-28",
        "geometry_role": "current building-footprint polygon",
        "linkage_semantics": "Overlap/proximity only; not evidence that the building hosts AI compute."
      }
    },
    {
      "type": "Feature",
      "id": "60a8ef6c-857a-475d-9c39-bce81b6ebf9b",
      "geometry": {
        "type": "Polygon",
        "coordinates": [
          [
            [
              -100.8476013,
              33.7803372
            ],
            [
              -100.8473948,
              33.7803338
            ],
            [
              -100.8473931,
              33.7804086
            ],
            [
              -100.8475995,
              33.7804119
            ],
            [
              -100.8476013,
              33.7803372
            ]
          ]
        ]
      },
      "properties": {
        "epoch_id": "EPOCH-a69e48fd129d0cdb",
        "site_name": "Coreweave Helios",
        "distance_to_site_km": 1.812,
        "footprint_area_m2_webmercator": 230.17,
        "source_dataset": "Overture Maps buildings",
        "source_url": "https://docs.overturemaps.org/getting-data/",
        "source_release": "2026-09-23.1",
        "source_accessed_on": "2026-09-28",
        "geometry_role": "current building-footprint polygon",
        "linkage_semantics": "Overlap/proximity only; not evidence that the building hosts AI compute."
      }
    },
    {
      "type": "Feature",
      "id": "691d537c-6eb5-4816-b61a-08b7697075f5",
      "geometry": {
        "type": "Polygon",
        "coordinates": [
          [
            [
              -100.8476017,
              33.7789694
            ],
            [
              -100.8477411,
              33.7789532
            ],
            [
              -100.8477191,
              33.778822
            ],
            [
              -100.8475797,
              33.7788381
            ],
            [
              -100.8476017,
              33.7789694
            ]
          ]
        ]
      },
      "properties": {
        "epoch_id": "EPOCH-a69e48fd129d0cdb",
        "site_name": "Coreweave Helios",
        "distance_to_site_km": 1.8071,
        "footprint_area_m2_webmercator": 278.07,
        "source_dataset": "Overture Maps buildings",
        "source_url": "https://docs.overturemaps.org/getting-data/",
        "source_release": "2026-09-23.1",
        "source_accessed_on": "2026-09-28",
        "geometry_role": "current building-footprint polygon",
        "linkage_semantics": "Overlap/proximity only; not evidence that the building hosts AI compute."
      }
    },
    {
      "type": "Feature",
      "id": "d6492bac-737f-454f-9967-de8545155126",
      "geometry": {
        "type": "Polygon",
        "coordinates": [
          [
            [
              -100.8479461,
              33.7792538
            ],
            [
              -100.8480167,
              33.7792556
            ],
            [
              -100.8480188,
              33.7791999
            ],
            [
              -100.8478848,
              33.7791965
            ],
            [
              -100.8478819,
              33.7792734
            ],
            [
              -100.8479453,
              33.779275
            ],
            [
              -100.8479461,
              33.7792538
            ]
          ]
        ]
      },
      "properties": {
        "epoch_id": "EPOCH-a69e48fd129d0cdb",
        "site_name": "Coreweave Helios",
        "distance_to_site_km": 1.7773,
        "footprint_area_m2_webmercator": 131.43,
        "source_dataset": "Overture Maps buildings",
        "source_url": "https://docs.overturemaps.org/getting-data/",
        "source_release": "2026-09-23.1",
        "source_accessed_on": "2026-09-28",
        "geometry_role": "current building-footprint polygon",
        "linkage_semantics": "Overlap/proximity only; not evidence that the building hosts AI compute."
      }
    },
    {
      "type": "Feature",
      "id": "34300eeb-82b7-47f8-af9c-3e8a03e6e676",
      "geometry": {
        "type": "Polygon",
        "coordinates": [
          [
            [
              -100.8476537,
              33.7790259
            ],
            [
              -100.8477238,
              33.7790205
            ],
            [
              -100.8477182,
              33.7789697
            ],
            [
              -100.8476481,
              33.778975
            ],
            [
              -100.8476537,
              33.7790259
            ]
          ]
        ]
      },
      "properties": {
        "epoch_id": "EPOCH-a69e48fd129d0cdb",
        "site_name": "Coreweave Helios",
        "distance_to_site_km": 1.8036,
        "footprint_area_m2_webmercator": 53.59,
        "source_dataset": "Overture Maps buildings",
        "source_url": "https://docs.overturemaps.org/getting-data/",
        "source_release": "2026-09-23.1",
        "source_accessed_on": "2026-09-28",
        "geometry_role": "current building-footprint polygon",
        "linkage_semantics": "Overlap/proximity only; not evidence that the building hosts AI compute."
      }
    },
    {
      "type": "Feature",
      "id": "7f12480a-d872-4bb4-9fb4-aad630f7c173",
      "geometry": {
        "type": "Polygon",
        "coordinates": [
          [
            [
              -100.8475213,
              33.7802148
            ],
            [
              -100.8475209,
              33.7802014
            ],
            [
              -100.8474207,
              33.7802035
            ],
            [
              -100.8474227,
              33.7802703
            ],
            [
              -100.8475996,
              33.7802667
            ],
            [
              -100.847598,
              33.7802132
            ],
            [
              -100.8475213,
              33.7802148
            ]
          ]
        ]
      },
      "properties": {
        "epoch_id": "EPOCH-a69e48fd129d0cdb",
        "site_name": "Coreweave Helios",
        "distance_to_site_km": 1.8115,
        "footprint_area_m2_webmercator": 161.09,
        "source_dataset": "Overture Maps buildings",
        "source_url": "https://docs.overturemaps.org/getting-data/",
        "source_release": "2026-09-23.1",
        "source_accessed_on": "2026-09-28",
        "geometry_role": "current building-footprint polygon",
        "linkage_semantics": "Overlap/proximity only; not evidence that the building hosts AI compute."
      }
    },
    {
      "type": "Feature",
      "id": "5c598748-6368-4637-9729-750a87b8f1d5",
      "geometry": {
        "type": "Polygon",
        "coordinates": [
          [
            [
              -100.8476313,
              33.7802732
            ],
            [
              -100.8476892,
              33.7802723
            ],
            [
              -100.8476875,
              33.7801988
            ],
            [
              -100.8476296,
              33.7801997
            ],
            [
              -100.8476313,
              33.7802732
            ]
          ]
        ]
      },
      "properties": {
        "epoch_id": "EPOCH-a69e48fd129d0cdb",
        "site_name": "Coreweave Helios",
        "distance_to_site_km": 1.7973,
        "footprint_area_m2_webmercator": 63.47,
        "source_dataset": "Overture Maps buildings",
        "source_url": "https://docs.overturemaps.org/getting-data/",
        "source_release": "2026-09-23.1",
        "source_accessed_on": "2026-09-28",
        "geometry_role": "current building-footprint polygon",
        "linkage_semantics": "Overlap/proximity only; not evidence that the building hosts AI compute."
      }
    },
    {
      "type": "Feature",
      "id": "37d4c215-b4bd-4247-96e7-f827b51faaac",
      "geometry": {
        "type": "Polygon",
        "coordinates": [
          [
            [
              -100.8538106,
              33.7799329
            ],
            [
              -100.8538091,
              33.7798491
            ],
            [
              -100.8537045,
              33.7798504
            ],
            [
              -100.853706,
              33.7799343
            ],
            [
              -100.8538106,
              33.7799329
            ]
          ]
        ]
      },
      "properties": {
        "epoch_id": "EPOCH-a69e48fd129d0cdb",
        "site_name": "Coreweave Helios",
        "distance_to_site_km": 1.236,
        "footprint_area_m2_webmercator": 130.79,
        "source_dataset": "Overture Maps buildings",
        "source_url": "https://docs.overturemaps.org/getting-data/",
        "source_release": "2026-09-23.1",
        "source_accessed_on": "2026-09-28",
        "geometry_role": "current building-footprint polygon",
        "linkage_semantics": "Overlap/proximity only; not evidence that the building hosts AI compute."
      }
    },
    {
      "type": "Feature",
      "id": "3d8e422d-b762-4fd0-b1cb-cc709af54268",
      "geometry": {
        "type": "Polygon",
        "coordinates": [
          [
            [
              -100.8510943,
              33.7962491
            ],
            [
              -100.8509694,
              33.7962516
            ],
            [
              -100.8509722,
              33.7963487
            ],
            [
              -100.8510971,
              33.7963462
            ],
            [
              -100.8510943,
              33.7962491
            ]
          ]
        ]
      },
      "properties": {
        "epoch_id": "EPOCH-a69e48fd129d0cdb",
        "site_name": "Coreweave Helios",
        "distance_to_site_km": 2.2883,
        "footprint_area_m2_webmercator": 180.95,
        "source_dataset": "Overture Maps buildings",
        "source_url": "https://docs.overturemaps.org/getting-data/",
        "source_release": "2026-09-23.1",
        "source_accessed_on": "2026-09-28",
        "geometry_role": "current building-footprint polygon",
        "linkage_semantics": "Overlap/proximity only; not evidence that the building hosts AI compute."
      }
    },
    {
      "type": "Feature",
      "id": "afcd83e3-a840-4364-80a8-08a8aee320c4",
      "geometry": {
        "type": "Polygon",
        "coordinates": [
          [
            [
              -100.8568252,
              33.7961263
            ],
            [
              -100.8568287,
              33.796035
            ],
            [
              -100.8566958,
              33.7960315
            ],
            [
              -100.8566922,
              33.7961228
            ],
            [
              -100.8568252,
              33.7961263
            ]
          ]
        ]
      },
      "properties": {
        "epoch_id": "EPOCH-a69e48fd129d0cdb",
        "site_name": "Coreweave Helios",
        "distance_to_site_km": 1.9647,
        "footprint_area_m2_webmercator": 181.19,
        "source_dataset": "Overture Maps buildings",
        "source_url": "https://docs.overturemaps.org/getting-data/",
        "source_release": "2026-09-23.1",
        "source_accessed_on": "2026-09-28",
        "geometry_role": "current building-footprint polygon",
        "linkage_semantics": "Overlap/proximity only; not evidence that the building hosts AI compute."
      }
    },
    {
      "type": "Feature",
      "id": "f3d4e0b3-5a53-40e5-ba74-0fa1e19e6abc",
      "geometry": {
        "type": "Polygon",
        "coordinates": [
          [
            [
              -100.8563921,
              33.795354
            ],
            [
              -100.8562806,
              33.7953559
            ],
            [
              -100.8562824,
              33.7954295
            ],
            [
              -100.8563939,
              33.7954275
            ],
            [
              -100.8563921,
              33.795354
            ]
          ]
        ]
      },
      "properties": {
        "epoch_id": "EPOCH-a69e48fd129d0cdb",
        "site_name": "Coreweave Helios",
        "distance_to_site_km": 1.9183,
        "footprint_area_m2_webmercator": 122.34,
        "source_dataset": "Overture Maps buildings",
        "source_url": "https://docs.overturemaps.org/getting-data/",
        "source_release": "2026-09-23.1",
        "source_accessed_on": "2026-09-28",
        "geometry_role": "current building-footprint polygon",
        "linkage_semantics": "Overlap/proximity only; not evidence that the building hosts AI compute."
      }
    },
    {
      "type": "Feature",
      "id": "41315b7c-fc39-443c-97e1-a5660455ca7c",
      "geometry": {
        "type": "Polygon",
        "coordinates": [
          [
            [
              -100.8477597,
              33.7915007
            ],
            [
              -100.8477583,
              33.791474
            ],
            [
              -100.8478106,
              33.7914721
            ],
            [
              -100.8478081,
              33.7914231
            ],
            [
              -100.8477572,
              33.7914249
            ],
            [
              -100.8477563,
              33.7914072
            ],
            [
              -100.8476129,
              33.7914123
            ],
            [
              -100.8476178,
              33.7915057
            ],
            [
              -100.8477597,
              33.7915007
            ]
          ]
        ]
      },
      "properties": {
        "epoch_id": "EPOCH-a69e48fd129d0cdb",
        "site_name": "Coreweave Helios",
        "distance_to_site_km": 2.1587,
        "footprint_area_m2_webmercator": 236.76,
        "source_dataset": "Overture Maps buildings",
        "source_url": "https://docs.overturemaps.org/getting-data/",
        "source_release": "2026-09-23.1",
        "source_accessed_on": "2026-09-28",
        "geometry_role": "current building-footprint polygon",
        "linkage_semantics": "Overlap/proximity only; not evidence that the building hosts AI compute."
      }
    }
  ]
}
