{
  "type": "FeatureCollection",
  "source": {
    "dataset": "Overture Maps buildings",
    "url": "https://docs.overturemaps.org/getting-data/",
    "accessed_on": "2026-09-27",
    "release": "2026-09-23.1",
    "site_epoch_id": "EPOCH-a286a89bd1c1b6e7",
    "site_name": "VNET Bayin Ulanqab",
    "site_latitude": 41.6241526,
    "site_longitude": 112.6325011,
    "search_bbox": [
      112.6125011,
      41.6041526,
      112.6525011,
      41.644152600000005
    ],
    "filter_radius_km": 3.0,
    "semantics": "Current building polygons are ingested for physical geometry. They are not, by themselves, AI-facility identity evidence or a construction time series."
  },
  "features": []
}
